{
"type": "FeatureCollection",
"name": "Rainn",
"crs": { "type": "name", "properties": { "name": "urn:ogc:def:crs:OGC:1.3:CRS84" } },
"xy_coordinate_resolution": 1e-05,
"features": [
{ "type": "Feature", "properties": { "OBJECTID": 1, "gridcode": 1, "Shape_Length": 16017.336503045879, "Shape_Area": 2326639.9732304779 }, "geometry": { "type": "MultiPolygon", "coordinates": [ [ [ [ 109.26899, 13.75755 ], [ 109.26899, 13.75764 ], [ 109.2689, 13.75764 ], [ 109.2689, 13.75755 ], [ 109.26899, 13.75755 ] ] ], [ [ [ 109.26945, 13.75774 ], [ 109.26945, 13.75792 ], [ 109.26927, 13.75792 ], [ 109.26927, 13.75774 ], [ 109.26945, 13.75774 ] ] ], [ [ [ 109.26973, 13.7581 ], [ 109.26954, 13.7581 ], [ 109.26954, 13.75801 ], [ 109.26969, 13.75794 ], [ 109.26973, 13.7581 ] ] ], [ [ [ 109.27451, 13.7613 ], [ 109.27433, 13.7613 ], [ 109.27433, 13.76121 ], [ 109.27451, 13.76121 ], [ 109.27451, 13.7613 ] ] ], [ [ [ 109.27451, 13.7613 ], [ 109.2747, 13.7613 ], [ 109.2747, 13.76139 ], [ 109.27451, 13.76139 ], [ 109.27451, 13.7613 ] ] ], [ [ [ 109.2747, 13.76139 ], [ 109.27493, 13.76144 ], [ 109.27678, 13.76198 ], [ 109.2779, 13.76225 ], [ 109.27987, 13.76237 ], [ 109.28121, 13.76219 ], [ 109.28245, 13.76165 ], [ 109.28292, 13.76107 ], [ 109.28313, 13.76027 ], [ 109.28409, 13.75892 ], [ 109.28433, 13.7582 ], [ 109.28451, 13.75771 ], [ 109.28481, 13.75717 ], [ 109.28494, 13.7569 ], [ 109.28506, 13.75669 ], [ 109.28565, 13.75616 ], [ 109.28625, 13.75514 ], [ 109.28675, 13.75444 ], [ 109.28728, 13.75411 ], [ 109.28772, 13.75382 ], [ 109.28839, 13.75385 ], [ 109.28838, 13.75421 ], [ 109.28839, 13.75453 ], [ 109.28835, 13.75534 ], [ 109.28864, 13.75503 ], [ 109.28886, 13.75493 ], [ 109.28909, 13.75469 ], [ 109.28923, 13.75458 ], [ 109.28921, 13.75496 ], [ 109.28875, 13.75537 ], [ 109.28866, 13.75557 ], [ 109.28843, 13.75588 ], [ 109.28868, 13.75624 ], [ 109.28902, 13.75606 ], [ 109.2895, 13.75585 ], [ 109.28967, 13.75604 ], [ 109.28966, 13.75633 ], [ 109.28915, 13.75678 ], [ 109.28859, 13.75704 ], [ 109.28825, 13.75758 ], [ 109.28827, 13.75801 ], [ 109.2886, 13.758 ], [ 109.28873, 13.75802 ], [ 109.28844, 13.75827 ], [ 109.28864, 13.75845 ], [ 109.28863, 13.75873 ], [ 109.28882, 13.759 ], [ 109.2889, 13.7592 ], [ 109.2885, 13.75956 ], [ 109.28853, 13.76038 ], [ 109.28889, 13.76071 ], [ 109.289, 13.76104 ], [ 109.28935, 13.76126 ], [ 109.28944, 13.76235 ], [ 109.28973, 13.76278 ], [ 109.28951, 13.76337 ], [ 109.28953, 13.76388 ], [ 109.29005, 13.76473 ], [ 109.29093, 13.76577 ], [ 109.29134, 13.76614 ], [ 109.29255, 13.7668 ], [ 109.29328, 13.76722 ], [ 109.29309, 13.76772 ], [ 109.29216, 13.76814 ], [ 109.29177, 13.76855 ], [ 109.29133, 13.76944 ], [ 109.29123, 13.77074 ], [ 109.29151, 13.77142 ], [ 109.2924, 13.77207 ], [ 109.29324, 13.77204 ], [ 109.29375, 13.77128 ], [ 109.29408, 13.77172 ], [ 109.29389, 13.77223 ], [ 109.29374, 13.7727 ], [ 109.29325, 13.77267 ], [ 109.29297, 13.77301 ], [ 109.29352, 13.77322 ], [ 109.29361, 13.77359 ], [ 109.2937, 13.77377 ], [ 109.29379, 13.77431 ], [ 109.29402, 13.77453 ], [ 109.2936, 13.77503 ], [ 109.29346, 13.77531 ], [ 109.29326, 13.7753 ], [ 109.29313, 13.7756 ], [ 109.29342, 13.77615 ], [ 109.29331, 13.77657 ], [ 109.29322, 13.77711 ], [ 109.29307, 13.77763 ], [ 109.29278, 13.77842 ], [ 109.29269, 13.77905 ], [ 109.29264, 13.77901 ], [ 109.29219, 13.77828 ], [ 109.2921, 13.77819 ], [ 109.29155, 13.77728 ], [ 109.29128, 13.77702 ], [ 109.2905, 13.77566 ], [ 109.28959, 13.77416 ], [ 109.28856, 13.77265 ], [ 109.28708, 13.77078 ], [ 109.2854, 13.76898 ], [ 109.28356, 13.76729 ], [ 109.28161, 13.76572 ], [ 109.27911, 13.76397 ], [ 109.27875, 13.7642 ], [ 109.2774, 13.76335 ], [ 109.27692, 13.76287 ], [ 109.27484, 13.76154 ], [ 109.2747, 13.76139 ] ] ], [ [ [ 109.29269, 13.77905 ], [ 109.29278, 13.77905 ], [ 109.29278, 13.77923 ], [ 109.29269, 13.77923 ], [ 109.29269, 13.77905 ] ] ], [ [ [ 109.29287, 13.77941 ], [ 109.29278, 13.77941 ], [ 109.29278, 13.77932 ], [ 109.29287, 13.77932 ], [ 109.29287, 13.77941 ] ] ], [ [ [ 109.29287, 13.77941 ], [ 109.29306, 13.77955 ], [ 109.29335, 13.78004 ], [ 109.2937, 13.77978 ], [ 109.29397, 13.77995 ], [ 109.29411, 13.78065 ], [ 109.29389, 13.78116 ], [ 109.29379, 13.78123 ], [ 109.29296, 13.77969 ], [ 109.29287, 13.77941 ] ] ], [ [ [ 109.2938, 13.89394 ], [ 109.29375, 13.89435 ], [ 109.29317, 13.89497 ], [ 109.29301, 13.89479 ], [ 109.29282, 13.89462 ], [ 109.29283, 13.89447 ], [ 109.29282, 13.89429 ], [ 109.29264, 13.8938 ], [ 109.29253, 13.89332 ], [ 109.29209, 13.89334 ], [ 109.29192, 13.89333 ], [ 109.29159, 13.89281 ], [ 109.29065, 13.89198 ], [ 109.29043, 13.89188 ], [ 109.2903, 13.89156 ], [ 109.2903, 13.89138 ], [ 109.29035, 13.89113 ], [ 109.29089, 13.88921 ], [ 109.29106, 13.8889 ], [ 109.29092, 13.88809 ], [ 109.29088, 13.88804 ], [ 109.29128, 13.88589 ], [ 109.29217, 13.88178 ], [ 109.29297, 13.87835 ], [ 109.29346, 13.8764 ], [ 109.29351, 13.87644 ], [ 109.29391, 13.877 ], [ 109.29487, 13.87811 ], [ 109.29544, 13.8778 ], [ 109.29553, 13.878 ], [ 109.29573, 13.87809 ], [ 109.2957, 13.87765 ], [ 109.29585, 13.87752 ], [ 109.29636, 13.87757 ], [ 109.29653, 13.87737 ], [ 109.29684, 13.87729 ], [ 109.29757, 13.87701 ], [ 109.29822, 13.87697 ], [ 109.29802, 13.8773 ], [ 109.29804, 13.87756 ], [ 109.29772, 13.87796 ], [ 109.29785, 13.87819 ], [ 109.29793, 13.87842 ], [ 109.29773, 13.87895 ], [ 109.29776, 13.8793 ], [ 109.29764, 13.88022 ], [ 109.29725, 13.88075 ], [ 109.2973, 13.88153 ], [ 109.29707, 13.88234 ], [ 109.29698, 13.88289 ], [ 109.29654, 13.88343 ], [ 109.29662, 13.88447 ], [ 109.29631, 13.8846 ], [ 109.29622, 13.88491 ], [ 109.29645, 13.8853 ], [ 109.29629, 13.88541 ], [ 109.29607, 13.88516 ], [ 109.29591, 13.88505 ], [ 109.29557, 13.88523 ], [ 109.29538, 13.88531 ], [ 109.2952, 13.88541 ], [ 109.29498, 13.88539 ], [ 109.29398, 13.88556 ], [ 109.294, 13.8859 ], [ 109.29398, 13.88615 ], [ 109.29361, 13.88602 ], [ 109.29339, 13.88603 ], [ 109.29275, 13.88598 ], [ 109.29237, 13.88624 ], [ 109.29255, 13.88688 ], [ 109.29241, 13.88737 ], [ 109.29232, 13.88774 ], [ 109.29212, 13.888 ], [ 109.29203, 13.88832 ], [ 109.29207, 13.88892 ], [ 109.29228, 13.8889 ], [ 109.29208, 13.88924 ], [ 109.29221, 13.88936 ], [ 109.2923, 13.88951 ], [ 109.29198, 13.88964 ], [ 109.29203, 13.89029 ], [ 109.2924, 13.89045 ], [ 109.29237, 13.8908 ], [ 109.29248, 13.8909 ], [ 109.29262, 13.89105 ], [ 109.29277, 13.89176 ], [ 109.29298, 13.89194 ], [ 109.29342, 13.89213 ], [ 109.29338, 13.89255 ], [ 109.29364, 13.89253 ], [ 109.29371, 13.89276 ], [ 109.29362, 13.89276 ], [ 109.29362, 13.89285 ], [ 109.29351, 13.89288 ], [ 109.29359, 13.89296 ], [ 109.29362, 13.89285 ], [ 109.29371, 13.89285 ], [ 109.29371, 13.89276 ], [ 109.29388, 13.89281 ], [ 109.29374, 13.89344 ], [ 109.29377, 13.89356 ], [ 109.29403, 13.89351 ], [ 109.29411, 13.89386 ], [ 109.2938, 13.89394 ], [ 109.2938, 13.89385 ], [ 109.2937, 13.89385 ], [ 109.2938, 13.89367 ], [ 109.29358, 13.89356 ], [ 109.29364, 13.89382 ], [ 109.2937, 13.89385 ], [ 109.2937, 13.89394 ], [ 109.2938, 13.89394 ] ] ] ] } },
{ "type": "Feature", "properties": { "OBJECTID": 2, "gridcode": 2, "Shape_Length": 21577.799990547253, "Shape_Area": 6035842.3747954993 }, "geometry": { "type": "MultiPolygon", "coordinates": [ [ [ [ 109.28971, 13.79046 ], [ 109.28937, 13.7906 ], [ 109.28933, 13.79046 ], [ 109.28878, 13.78892 ], [ 109.28819, 13.78725 ], [ 109.28767, 13.78663 ], [ 109.28654, 13.78275 ], [ 109.28589, 13.78076 ], [ 109.28579, 13.78077 ], [ 109.28506, 13.7787 ], [ 109.28436, 13.77716 ], [ 109.28367, 13.77593 ], [ 109.2832, 13.77521 ], [ 109.28264, 13.77446 ], [ 109.28155, 13.77324 ], [ 109.28013, 13.77203 ], [ 109.27828, 13.77078 ], [ 109.27649, 13.76979 ], [ 109.27536, 13.76927 ], [ 109.27518, 13.76945 ], [ 109.27358, 13.76875 ], [ 109.27081, 13.76755 ], [ 109.26794, 13.76622 ], [ 109.26608, 13.76522 ], [ 109.26428, 13.76353 ], [ 109.2629, 13.76254 ], [ 109.2629, 13.76238 ], [ 109.26169, 13.76145 ], [ 109.26088, 13.7608 ], [ 109.26046, 13.76048 ], [ 109.26065, 13.75963 ], [ 109.26015, 13.75892 ], [ 109.26025, 13.75815 ], [ 109.26044, 13.75781 ], [ 109.26064, 13.75718 ], [ 109.26121, 13.75741 ], [ 109.26159, 13.75767 ], [ 109.26185, 13.75753 ], [ 109.26256, 13.75768 ], [ 109.26312, 13.75756 ], [ 109.26364, 13.75743 ], [ 109.26387, 13.75768 ], [ 109.26524, 13.75756 ], [ 109.26564, 13.75784 ], [ 109.2664, 13.75733 ], [ 109.26723, 13.75705 ], [ 109.2678, 13.75716 ], [ 109.26795, 13.75744 ], [ 109.26792, 13.75786 ], [ 109.26857, 13.75775 ], [ 109.2689, 13.75755 ], [ 109.2689, 13.75764 ], [ 109.26899, 13.75764 ], [ 109.26911, 13.75789 ], [ 109.26927, 13.75792 ], [ 109.26945, 13.75792 ], [ 109.26945, 13.75801 ], [ 109.26954, 13.75801 ], [ 109.26954, 13.7581 ], [ 109.26973, 13.7581 ], [ 109.26962, 13.75838 ], [ 109.27281, 13.76046 ], [ 109.27363, 13.76092 ], [ 109.27433, 13.76121 ], [ 109.27433, 13.7613 ], [ 109.27451, 13.7613 ], [ 109.27451, 13.76139 ], [ 109.2747, 13.76139 ], [ 109.27484, 13.76154 ], [ 109.27692, 13.76287 ], [ 109.2774, 13.76335 ], [ 109.27875, 13.7642 ], [ 109.27911, 13.76397 ], [ 109.28161, 13.76572 ], [ 109.28356, 13.76729 ], [ 109.2854, 13.76898 ], [ 109.28708, 13.77078 ], [ 109.28856, 13.77265 ], [ 109.28959, 13.77416 ], [ 109.2905, 13.77566 ], [ 109.29128, 13.77702 ], [ 109.29155, 13.77728 ], [ 109.2921, 13.77819 ], [ 109.29219, 13.77828 ], [ 109.29264, 13.77901 ], [ 109.29269, 13.77905 ], [ 109.29269, 13.77923 ], [ 109.29278, 13.77923 ], [ 109.29278, 13.77932 ], [ 109.29278, 13.77941 ], [ 109.29287, 13.77941 ], [ 109.29296, 13.77969 ], [ 109.29379, 13.78123 ], [ 109.29374, 13.78127 ], [ 109.29363, 13.78137 ], [ 109.29337, 13.78135 ], [ 109.29327, 13.78199 ], [ 109.29313, 13.78239 ], [ 109.29272, 13.78257 ], [ 109.29261, 13.78338 ], [ 109.29215, 13.78419 ], [ 109.29202, 13.78476 ], [ 109.29142, 13.78527 ], [ 109.29126, 13.78561 ], [ 109.29143, 13.78592 ], [ 109.29138, 13.7866 ], [ 109.29101, 13.78676 ], [ 109.29077, 13.78689 ], [ 109.29064, 13.78742 ], [ 109.2911, 13.78739 ], [ 109.29131, 13.78741 ], [ 109.29128, 13.78785 ], [ 109.29148, 13.78795 ], [ 109.29146, 13.78821 ], [ 109.29162, 13.78851 ], [ 109.29142, 13.78905 ], [ 109.2909, 13.7892 ], [ 109.29081, 13.78957 ], [ 109.29071, 13.78995 ], [ 109.29043, 13.79019 ], [ 109.2901, 13.79055 ], [ 109.28994, 13.79021 ], [ 109.28971, 13.79046 ] ] ], [ [ [ 109.29088, 13.88804 ], [ 109.29047, 13.88781 ], [ 109.28982, 13.88735 ], [ 109.28892, 13.88684 ], [ 109.28802, 13.88657 ], [ 109.287, 13.88644 ], [ 109.28567, 13.88653 ], [ 109.28412, 13.88685 ], [ 109.28283, 13.88724 ], [ 109.28168, 13.88767 ], [ 109.28154, 13.88771 ], [ 109.28164, 13.88723 ], [ 109.28352, 13.88102 ], [ 109.284, 13.87904 ], [ 109.28439, 13.87713 ], [ 109.28467, 13.877 ], [ 109.2851, 13.87408 ], [ 109.28557, 13.87033 ], [ 109.28576, 13.86911 ], [ 109.28621, 13.86857 ], [ 109.28689, 13.86553 ], [ 109.28753, 13.86324 ], [ 109.28833, 13.86087 ], [ 109.2893, 13.85851 ], [ 109.28977, 13.85758 ], [ 109.29004, 13.85771 ], [ 109.29134, 13.85541 ], [ 109.29244, 13.85371 ], [ 109.29275, 13.8533 ], [ 109.2928, 13.85326 ], [ 109.29293, 13.85349 ], [ 109.29321, 13.85358 ], [ 109.2933, 13.85376 ], [ 109.29341, 13.85396 ], [ 109.29422, 13.85394 ], [ 109.29448, 13.85421 ], [ 109.29422, 13.85458 ], [ 109.29422, 13.85476 ], [ 109.29421, 13.85494 ], [ 109.29432, 13.85513 ], [ 109.29477, 13.85512 ], [ 109.29492, 13.85528 ], [ 109.29467, 13.85585 ], [ 109.2946, 13.85612 ], [ 109.29486, 13.85585 ], [ 109.29514, 13.85582 ], [ 109.29485, 13.85621 ], [ 109.29503, 13.85637 ], [ 109.29467, 13.85648 ], [ 109.29457, 13.85658 ], [ 109.29458, 13.85683 ], [ 109.29426, 13.85753 ], [ 109.29442, 13.85829 ], [ 109.29484, 13.85883 ], [ 109.29456, 13.85901 ], [ 109.29423, 13.85943 ], [ 109.29386, 13.85977 ], [ 109.29371, 13.86021 ], [ 109.29353, 13.86054 ], [ 109.29344, 13.86077 ], [ 109.29379, 13.86093 ], [ 109.29343, 13.86126 ], [ 109.29359, 13.8614 ], [ 109.29324, 13.86172 ], [ 109.29326, 13.86239 ], [ 109.29323, 13.86304 ], [ 109.29335, 13.86362 ], [ 109.29361, 13.86361 ], [ 109.29359, 13.86398 ], [ 109.29394, 13.86386 ], [ 109.29377, 13.86465 ], [ 109.29341, 13.86487 ], [ 109.29304, 13.86516 ], [ 109.29328, 13.86538 ], [ 109.29295, 13.86567 ], [ 109.29274, 13.86597 ], [ 109.29275, 13.86631 ], [ 109.2926, 13.86658 ], [ 109.29246, 13.86689 ], [ 109.29247, 13.86731 ], [ 109.29246, 13.86754 ], [ 109.29227, 13.86839 ], [ 109.2921, 13.86984 ], [ 109.29233, 13.87119 ], [ 109.29267, 13.87141 ], [ 109.29224, 13.87192 ], [ 109.29225, 13.87228 ], [ 109.29197, 13.87279 ], [ 109.29264, 13.87453 ], [ 109.29342, 13.87626 ], [ 109.29346, 13.8764 ], [ 109.29297, 13.87835 ], [ 109.29217, 13.88178 ], [ 109.29128, 13.88589 ], [ 109.29088, 13.88804 ] ] ], [ [ [ 109.2903, 13.89156 ], [ 109.29017, 13.89147 ], [ 109.2903, 13.89138 ], [ 109.2903, 13.89156 ] ] ] ] } },
{ "type": "Feature", "properties": { "OBJECTID": 3, "gridcode": 3, "Shape_Length": 35416.459261506119, "Shape_Area": 11655486.215563344 }, "geometry": { "type": "MultiPolygon", "coordinates": [ [ [ [ 109.28422, 13.80575 ], [ 109.28355, 13.80352 ], [ 109.28299, 13.80148 ], [ 109.28229, 13.79853 ], [ 109.28171, 13.79545 ], [ 109.2817, 13.7952 ], [ 109.28171, 13.79493 ], [ 109.28129, 13.79197 ], [ 109.28099, 13.789 ], [ 109.28077, 13.78613 ], [ 109.28016, 13.78696 ], [ 109.28022, 13.78299 ], [ 109.28027, 13.78134 ], [ 109.28015, 13.77877 ], [ 109.2799, 13.77776 ], [ 109.27937, 13.77668 ], [ 109.27848, 13.7759 ], [ 109.27717, 13.77532 ], [ 109.27551, 13.77489 ], [ 109.27124, 13.77399 ], [ 109.27027, 13.77385 ], [ 109.26827, 13.77332 ], [ 109.26712, 13.773 ], [ 109.26717, 13.77286 ], [ 109.26738, 13.77226 ], [ 109.26696, 13.77171 ], [ 109.26701, 13.77051 ], [ 109.26663, 13.77016 ], [ 109.26677, 13.76959 ], [ 109.26766, 13.76798 ], [ 109.26768, 13.76765 ], [ 109.26742, 13.7671 ], [ 109.26699, 13.76678 ], [ 109.26631, 13.76646 ], [ 109.26572, 13.76605 ], [ 109.26466, 13.76555 ], [ 109.26435, 13.76515 ], [ 109.26351, 13.76386 ], [ 109.26319, 13.76318 ], [ 109.26279, 13.76281 ], [ 109.26192, 13.76188 ], [ 109.26105, 13.76115 ], [ 109.26034, 13.76081 ], [ 109.26046, 13.76048 ], [ 109.26088, 13.7608 ], [ 109.26169, 13.76145 ], [ 109.2629, 13.76238 ], [ 109.2629, 13.76254 ], [ 109.26428, 13.76353 ], [ 109.26608, 13.76522 ], [ 109.26794, 13.76622 ], [ 109.27081, 13.76755 ], [ 109.27358, 13.76875 ], [ 109.27518, 13.76945 ], [ 109.27536, 13.76927 ], [ 109.27649, 13.76979 ], [ 109.27828, 13.77078 ], [ 109.28013, 13.77203 ], [ 109.28155, 13.77324 ], [ 109.28264, 13.77446 ], [ 109.2832, 13.77521 ], [ 109.28367, 13.77593 ], [ 109.28436, 13.77716 ], [ 109.28506, 13.7787 ], [ 109.28579, 13.78077 ], [ 109.28589, 13.78076 ], [ 109.28654, 13.78275 ], [ 109.28767, 13.78663 ], [ 109.28819, 13.78725 ], [ 109.28878, 13.78892 ], [ 109.28933, 13.79046 ], [ 109.28937, 13.7906 ], [ 109.28923, 13.79073 ], [ 109.28904, 13.79092 ], [ 109.28905, 13.79175 ], [ 109.28929, 13.79222 ], [ 109.28899, 13.79279 ], [ 109.28913, 13.79321 ], [ 109.28911, 13.7939 ], [ 109.28921, 13.79417 ], [ 109.28949, 13.79389 ], [ 109.28961, 13.7948 ], [ 109.28948, 13.7948 ], [ 109.28925, 13.79513 ], [ 109.28911, 13.79498 ], [ 109.28901, 13.79516 ], [ 109.28883, 13.79506 ], [ 109.28883, 13.79525 ], [ 109.28882, 13.79543 ], [ 109.28864, 13.79524 ], [ 109.28827, 13.79579 ], [ 109.28789, 13.79633 ], [ 109.28766, 13.79632 ], [ 109.28748, 13.79633 ], [ 109.28715, 13.79714 ], [ 109.28677, 13.79768 ], [ 109.28646, 13.79857 ], [ 109.2862, 13.7996 ], [ 109.2862, 13.80003 ], [ 109.28639, 13.80021 ], [ 109.28672, 13.8002 ], [ 109.28665, 13.80075 ], [ 109.28625, 13.80054 ], [ 109.286, 13.80066 ], [ 109.28581, 13.80085 ], [ 109.28555, 13.80165 ], [ 109.28573, 13.80182 ], [ 109.28572, 13.8021 ], [ 109.286, 13.80237 ], [ 109.28609, 13.80246 ], [ 109.28656, 13.80237 ], [ 109.28664, 13.80351 ], [ 109.28636, 13.80364 ], [ 109.28627, 13.80382 ], [ 109.28622, 13.80386 ], [ 109.28598, 13.80324 ], [ 109.28422, 13.80575 ] ] ], [ [ [ 109.29622, 13.82157 ], [ 109.29638, 13.822 ], [ 109.29626, 13.82246 ], [ 109.29618, 13.82239 ], [ 109.29568, 13.82158 ], [ 109.29553, 13.82146 ], [ 109.29557, 13.82141 ], [ 109.296, 13.82125 ], [ 109.29622, 13.82157 ] ] ], [ [ [ 109.28621, 13.86857 ], [ 109.28576, 13.86911 ], [ 109.28557, 13.87033 ], [ 109.2851, 13.87408 ], [ 109.28467, 13.877 ], [ 109.28439, 13.87713 ], [ 109.284, 13.87904 ], [ 109.28352, 13.88102 ], [ 109.28164, 13.88723 ], [ 109.28154, 13.88771 ], [ 109.28148, 13.88777 ], [ 109.27948, 13.88869 ], [ 109.2779, 13.88973 ], [ 109.27662, 13.89061 ], [ 109.27355, 13.89335 ], [ 109.27077, 13.89622 ], [ 109.27018, 13.89675 ], [ 109.27023, 13.89644 ], [ 109.27042, 13.89489 ], [ 109.27068, 13.89338 ], [ 109.27096, 13.89202 ], [ 109.27135, 13.89052 ], [ 109.27193, 13.88867 ], [ 109.2726, 13.88685 ], [ 109.27351, 13.88479 ], [ 109.27501, 13.88205 ], [ 109.27618, 13.88021 ], [ 109.27785, 13.87772 ], [ 109.27814, 13.87678 ], [ 109.27782, 13.87547 ], [ 109.27691, 13.87219 ], [ 109.27629, 13.86954 ], [ 109.27608, 13.86837 ], [ 109.27586, 13.86714 ], [ 109.27566, 13.86735 ], [ 109.27529, 13.86517 ], [ 109.27502, 13.86271 ], [ 109.27489, 13.86051 ], [ 109.27674, 13.86322 ], [ 109.27677, 13.86295 ], [ 109.27691, 13.86062 ], [ 109.27716, 13.85853 ], [ 109.27755, 13.85616 ], [ 109.27811, 13.85365 ], [ 109.27874, 13.85138 ], [ 109.27985, 13.84815 ], [ 109.28107, 13.84516 ], [ 109.28126, 13.8448 ], [ 109.28178, 13.84549 ], [ 109.28308, 13.84282 ], [ 109.28481, 13.83975 ], [ 109.28573, 13.83825 ], [ 109.287, 13.83623 ], [ 109.28615, 13.83528 ], [ 109.28746, 13.83321 ], [ 109.28871, 13.83112 ], [ 109.2897, 13.82911 ], [ 109.28998, 13.82834 ], [ 109.29025, 13.82753 ], [ 109.29068, 13.82732 ], [ 109.2918, 13.82803 ], [ 109.29193, 13.82648 ], [ 109.2964, 13.82359 ], [ 109.29653, 13.82346 ], [ 109.29727, 13.8241 ], [ 109.29758, 13.82378 ], [ 109.29768, 13.82433 ], [ 109.29775, 13.8245 ], [ 109.29787, 13.82405 ], [ 109.29829, 13.82427 ], [ 109.29842, 13.82478 ], [ 109.29851, 13.82487 ], [ 109.2986, 13.82513 ], [ 109.29765, 13.82569 ], [ 109.29767, 13.82615 ], [ 109.29827, 13.8267 ], [ 109.29868, 13.82649 ], [ 109.29913, 13.82651 ], [ 109.29895, 13.82731 ], [ 109.29886, 13.82777 ], [ 109.29876, 13.82795 ], [ 109.29894, 13.82811 ], [ 109.29904, 13.82831 ], [ 109.29915, 13.82842 ], [ 109.29912, 13.82904 ], [ 109.29933, 13.82893 ], [ 109.29929, 13.82973 ], [ 109.29943, 13.83 ], [ 109.29929, 13.83012 ], [ 109.29912, 13.82994 ], [ 109.29902, 13.82984 ], [ 109.29884, 13.82985 ], [ 109.29858, 13.82957 ], [ 109.29847, 13.82957 ], [ 109.29834, 13.82957 ], [ 109.29818, 13.82957 ], [ 109.2982, 13.83019 ], [ 109.29773, 13.83094 ], [ 109.29795, 13.83114 ], [ 109.29772, 13.83146 ], [ 109.29772, 13.83156 ], [ 109.29819, 13.83154 ], [ 109.29816, 13.8321 ], [ 109.29818, 13.83263 ], [ 109.29808, 13.83291 ], [ 109.29798, 13.8335 ], [ 109.29784, 13.83372 ], [ 109.29771, 13.83345 ], [ 109.29748, 13.83378 ], [ 109.29715, 13.83399 ], [ 109.29606, 13.83494 ], [ 109.29593, 13.83575 ], [ 109.29593, 13.836 ], [ 109.29622, 13.83654 ], [ 109.29684, 13.83711 ], [ 109.29719, 13.83694 ], [ 109.2974, 13.83716 ], [ 109.2975, 13.83725 ], [ 109.29758, 13.8378 ], [ 109.29796, 13.83779 ], [ 109.29793, 13.83849 ], [ 109.29809, 13.8388 ], [ 109.29841, 13.83879 ], [ 109.29851, 13.83909 ], [ 109.29849, 13.83934 ], [ 109.29809, 13.83932 ], [ 109.29822, 13.83969 ], [ 109.29806, 13.84026 ], [ 109.29821, 13.84069 ], [ 109.29844, 13.84068 ], [ 109.29858, 13.84069 ], [ 109.29875, 13.84069 ], [ 109.29885, 13.84072 ], [ 109.29848, 13.84105 ], [ 109.29848, 13.84125 ], [ 109.29877, 13.84151 ], [ 109.29912, 13.8415 ], [ 109.29924, 13.84162 ], [ 109.2991, 13.84223 ], [ 109.29885, 13.84222 ], [ 109.29863, 13.84233 ], [ 109.29845, 13.84253 ], [ 109.29847, 13.84326 ], [ 109.29846, 13.8435 ], [ 109.29809, 13.84367 ], [ 109.2979, 13.84377 ], [ 109.29772, 13.8443 ], [ 109.29753, 13.84447 ], [ 109.29754, 13.84481 ], [ 109.29738, 13.84527 ], [ 109.29697, 13.84506 ], [ 109.29668, 13.84521 ], [ 109.29611, 13.84596 ], [ 109.29586, 13.84646 ], [ 109.29558, 13.84671 ], [ 109.29548, 13.84709 ], [ 109.29585, 13.84708 ], [ 109.29569, 13.84752 ], [ 109.29534, 13.84733 ], [ 109.29485, 13.84758 ], [ 109.29501, 13.8479 ], [ 109.29489, 13.84801 ], [ 109.29453, 13.84788 ], [ 109.29427, 13.84789 ], [ 109.29413, 13.84789 ], [ 109.29398, 13.84789 ], [ 109.29347, 13.84865 ], [ 109.29283, 13.85015 ], [ 109.29256, 13.85096 ], [ 109.29236, 13.85192 ], [ 109.2924, 13.85304 ], [ 109.29275, 13.85321 ], [ 109.2928, 13.85326 ], [ 109.29275, 13.8533 ], [ 109.29244, 13.85371 ], [ 109.29134, 13.85541 ], [ 109.29004, 13.85771 ], [ 109.28977, 13.85758 ], [ 109.2893, 13.85851 ], [ 109.28833, 13.86087 ], [ 109.28753, 13.86324 ], [ 109.28689, 13.86553 ], [ 109.28621, 13.86857 ] ] ] ] } },
{ "type": "Feature", "properties": { "OBJECTID": 4, "gridcode": 4, "Shape_Length": 38819.072051024617, "Shape_Area": 28118934.444635425 }, "geometry": { "type": "MultiPolygon", "coordinates": [ [ [ [ 109.26712, 13.773 ], [ 109.26827, 13.77332 ], [ 109.27027, 13.77385 ], [ 109.27124, 13.77399 ], [ 109.27551, 13.77489 ], [ 109.27717, 13.77532 ], [ 109.27848, 13.7759 ], [ 109.27937, 13.77668 ], [ 109.2799, 13.77776 ], [ 109.28015, 13.77877 ], [ 109.28027, 13.78134 ], [ 109.28022, 13.78299 ], [ 109.28016, 13.78696 ], [ 109.28077, 13.78613 ], [ 109.28099, 13.789 ], [ 109.28129, 13.79197 ], [ 109.28171, 13.79493 ], [ 109.2817, 13.7952 ], [ 109.28171, 13.79545 ], [ 109.28229, 13.79853 ], [ 109.28299, 13.80148 ], [ 109.28355, 13.80352 ], [ 109.28422, 13.80575 ], [ 109.28598, 13.80324 ], [ 109.28622, 13.80386 ], [ 109.28554, 13.80393 ], [ 109.28551, 13.80443 ], [ 109.28564, 13.80467 ], [ 109.28579, 13.8058 ], [ 109.28597, 13.80661 ], [ 109.28606, 13.80743 ], [ 109.28616, 13.80785 ], [ 109.28612, 13.80883 ], [ 109.28629, 13.8092 ], [ 109.28703, 13.80967 ], [ 109.28793, 13.81066 ], [ 109.28879, 13.81304 ], [ 109.28896, 13.81387 ], [ 109.28906, 13.8145 ], [ 109.28915, 13.81486 ], [ 109.28923, 13.81532 ], [ 109.28933, 13.81577 ], [ 109.28942, 13.81667 ], [ 109.28991, 13.8177 ], [ 109.29048, 13.81832 ], [ 109.2917, 13.8194 ], [ 109.29213, 13.8196 ], [ 109.29265, 13.82053 ], [ 109.29404, 13.82148 ], [ 109.29465, 13.82151 ], [ 109.29493, 13.8215 ], [ 109.29516, 13.82162 ], [ 109.29539, 13.8215 ], [ 109.29553, 13.82146 ], [ 109.29568, 13.82158 ], [ 109.29618, 13.82239 ], [ 109.29626, 13.82246 ], [ 109.2963, 13.82269 ], [ 109.29648, 13.82332 ], [ 109.29653, 13.82346 ], [ 109.2964, 13.82359 ], [ 109.29193, 13.82648 ], [ 109.2918, 13.82803 ], [ 109.29068, 13.82732 ], [ 109.29025, 13.82753 ], [ 109.28998, 13.82834 ], [ 109.2897, 13.82911 ], [ 109.28871, 13.83112 ], [ 109.28746, 13.83321 ], [ 109.28615, 13.83528 ], [ 109.287, 13.83623 ], [ 109.28573, 13.83825 ], [ 109.28481, 13.83975 ], [ 109.28308, 13.84282 ], [ 109.28178, 13.84549 ], [ 109.28126, 13.8448 ], [ 109.28107, 13.84516 ], [ 109.27985, 13.84815 ], [ 109.27874, 13.85138 ], [ 109.27811, 13.85365 ], [ 109.27755, 13.85616 ], [ 109.27716, 13.85853 ], [ 109.27691, 13.86062 ], [ 109.27677, 13.86295 ], [ 109.27674, 13.86322 ], [ 109.27489, 13.86051 ], [ 109.27502, 13.86271 ], [ 109.27529, 13.86517 ], [ 109.27566, 13.86735 ], [ 109.27586, 13.86714 ], [ 109.27608, 13.86837 ], [ 109.27629, 13.86954 ], [ 109.27691, 13.87219 ], [ 109.27782, 13.87547 ], [ 109.27814, 13.87678 ], [ 109.27785, 13.87772 ], [ 109.27618, 13.88021 ], [ 109.27501, 13.88205 ], [ 109.27351, 13.88479 ], [ 109.2726, 13.88685 ], [ 109.27193, 13.88867 ], [ 109.27135, 13.89052 ], [ 109.27096, 13.89202 ], [ 109.27068, 13.89338 ], [ 109.27042, 13.89489 ], [ 109.27023, 13.89644 ], [ 109.27018, 13.89675 ], [ 109.269, 13.89811 ], [ 109.26742, 13.89995 ], [ 109.26641, 13.90125 ], [ 109.25965, 13.90162 ], [ 109.25802, 13.8968 ], [ 109.25757, 13.89551 ], [ 109.25752, 13.89522 ], [ 109.25761, 13.89261 ], [ 109.25785, 13.89003 ], [ 109.25814, 13.88779 ], [ 109.25844, 13.88595 ], [ 109.25946, 13.88039 ], [ 109.25972, 13.87828 ], [ 109.2598, 13.87548 ], [ 109.25963, 13.8735 ], [ 109.26031, 13.87392 ], [ 109.26016, 13.87236 ], [ 109.25981, 13.87035 ], [ 109.25946, 13.86873 ], [ 109.25838, 13.86452 ], [ 109.25422, 13.86716 ], [ 109.25327, 13.86307 ], [ 109.25269, 13.85999 ], [ 109.25231, 13.85733 ], [ 109.25205, 13.85435 ], [ 109.25204, 13.85383 ], [ 109.252, 13.85351 ], [ 109.25208, 13.85299 ], [ 109.25243, 13.85175 ], [ 109.25309, 13.84977 ], [ 109.25301, 13.84756 ], [ 109.2525, 13.84468 ], [ 109.25244, 13.84421 ], [ 109.25249, 13.84416 ], [ 109.25273, 13.84253 ], [ 109.25295, 13.84131 ], [ 109.25356, 13.83834 ], [ 109.25405, 13.83644 ], [ 109.26166, 13.84145 ], [ 109.26271, 13.83739 ], [ 109.26328, 13.83529 ], [ 109.26432, 13.83154 ], [ 109.26443, 13.83114 ], [ 109.26546, 13.82731 ], [ 109.26736, 13.82854 ], [ 109.26741, 13.82845 ], [ 109.2683, 13.82605 ], [ 109.26879, 13.82487 ], [ 109.26933, 13.82436 ], [ 109.27002, 13.82234 ], [ 109.27082, 13.82018 ], [ 109.26938, 13.81867 ], [ 109.2701, 13.81581 ], [ 109.27052, 13.8139 ], [ 109.27092, 13.81168 ], [ 109.27123, 13.80949 ], [ 109.27143, 13.80749 ], [ 109.27161, 13.80524 ], [ 109.27068, 13.80381 ], [ 109.27086, 13.80044 ], [ 109.26696, 13.80602 ], [ 109.26777, 13.80167 ], [ 109.26804, 13.79995 ], [ 109.26758, 13.79919 ], [ 109.26814, 13.79566 ], [ 109.26847, 13.79326 ], [ 109.26869, 13.79129 ], [ 109.26878, 13.78831 ], [ 109.26863, 13.78709 ], [ 109.26865, 13.78627 ], [ 109.26829, 13.78536 ], [ 109.26777, 13.78466 ], [ 109.26741, 13.78429 ], [ 109.2669, 13.78389 ], [ 109.26653, 13.78361 ], [ 109.26649, 13.78357 ], [ 109.2668, 13.78351 ], [ 109.26719, 13.78335 ], [ 109.26764, 13.78308 ], [ 109.26885, 13.78246 ], [ 109.26907, 13.78215 ], [ 109.26904, 13.78167 ], [ 109.26923, 13.78137 ], [ 109.2695, 13.781 ], [ 109.2687, 13.77976 ], [ 109.2685, 13.77929 ], [ 109.26835, 13.77841 ], [ 109.26726, 13.77748 ], [ 109.26715, 13.77629 ], [ 109.26698, 13.77599 ], [ 109.26694, 13.77552 ], [ 109.26733, 13.77468 ], [ 109.26708, 13.77376 ], [ 109.26704, 13.77321 ], [ 109.26712, 13.773 ] ] ] ] } },
{ "type": "Feature", "properties": { "OBJECTID": 5, "gridcode": 5, "Shape_Length": 49702.684634330595, "Shape_Area": 33022382.963727668 }, "geometry": { "type": "MultiPolygon", "coordinates": [ [ [ [ 109.25356, 13.83834 ], [ 109.25295, 13.84131 ], [ 109.25273, 13.84253 ], [ 109.25249, 13.84416 ], [ 109.25244, 13.84421 ], [ 109.2524, 13.84398 ], [ 109.25189, 13.8408 ], [ 109.25174, 13.84033 ], [ 109.25078, 13.83882 ], [ 109.24977, 13.83691 ], [ 109.24875, 13.835 ], [ 109.24805, 13.83355 ], [ 109.24667, 13.83092 ], [ 109.24457, 13.82693 ], [ 109.24288, 13.82372 ], [ 109.23962, 13.81753 ], [ 109.23323, 13.81851 ], [ 109.22959, 13.81905 ], [ 109.22704, 13.81913 ], [ 109.2251, 13.81901 ], [ 109.22403, 13.81849 ], [ 109.22373, 13.81811 ], [ 109.22188, 13.81539 ], [ 109.21973, 13.81248 ], [ 109.2186, 13.81149 ], [ 109.21719, 13.81124 ], [ 109.21569, 13.81141 ], [ 109.21501, 13.81162 ], [ 109.21467, 13.81193 ], [ 109.2147, 13.81439 ], [ 109.21454, 13.81516 ], [ 109.21415, 13.81593 ], [ 109.21377, 13.81631 ], [ 109.2131, 13.81642 ], [ 109.21064, 13.81618 ], [ 109.20917, 13.81629 ], [ 109.20811, 13.81645 ], [ 109.2066, 13.81671 ], [ 109.20565, 13.81646 ], [ 109.20519, 13.81602 ], [ 109.20381, 13.81454 ], [ 109.20309, 13.81398 ], [ 109.20163, 13.81273 ], [ 109.20106, 13.81244 ], [ 109.20007, 13.81215 ], [ 109.19964, 13.8123 ], [ 109.19961, 13.81337 ], [ 109.19999, 13.81425 ], [ 109.1999, 13.81504 ], [ 109.19972, 13.8157 ], [ 109.19943, 13.81691 ], [ 109.19907, 13.81728 ], [ 109.19823, 13.81756 ], [ 109.19645, 13.81745 ], [ 109.19338, 13.81707 ], [ 109.19207, 13.81722 ], [ 109.19089, 13.81764 ], [ 109.18993, 13.81817 ], [ 109.18935, 13.81885 ], [ 109.18829, 13.82019 ], [ 109.18681, 13.82213 ], [ 109.18572, 13.82323 ], [ 109.18511, 13.82353 ], [ 109.18274, 13.82438 ], [ 109.18133, 13.8245 ], [ 109.18049, 13.82466 ], [ 109.18003, 13.82474 ], [ 109.17966, 13.82483 ], [ 109.17913, 13.82495 ], [ 109.17846, 13.82526 ], [ 109.17827, 13.82544 ], [ 109.17817, 13.82563 ], [ 109.17805, 13.82678 ], [ 109.1776, 13.82751 ], [ 109.17654, 13.82833 ], [ 109.17627, 13.82749 ], [ 109.17611, 13.8267 ], [ 109.17615, 13.82534 ], [ 109.17559, 13.82425 ], [ 109.17561, 13.8234 ], [ 109.17542, 13.82247 ], [ 109.17592, 13.82168 ], [ 109.17679, 13.82113 ], [ 109.17696, 13.82097 ], [ 109.17724, 13.8207 ], [ 109.17755, 13.82102 ], [ 109.17799, 13.82103 ], [ 109.17698, 13.81878 ], [ 109.17886, 13.81859 ], [ 109.17923, 13.81842 ], [ 109.17971, 13.81798 ], [ 109.17981, 13.81724 ], [ 109.17991, 13.81543 ], [ 109.18006, 13.81449 ], [ 109.18023, 13.81337 ], [ 109.18058, 13.81202 ], [ 109.1814, 13.81035 ], [ 109.18219, 13.80769 ], [ 109.18248, 13.80726 ], [ 109.18496, 13.80529 ], [ 109.18548, 13.80466 ], [ 109.18705, 13.80154 ], [ 109.18707, 13.8008 ], [ 109.18706, 13.79986 ], [ 109.18817, 13.79659 ], [ 109.18857, 13.79607 ], [ 109.18951, 13.79508 ], [ 109.18951, 13.79472 ], [ 109.18951, 13.79454 ], [ 109.18942, 13.79417 ], [ 109.18971, 13.79354 ], [ 109.18941, 13.79325 ], [ 109.19221, 13.79104 ], [ 109.19347, 13.79006 ], [ 109.19408, 13.78987 ], [ 109.19499, 13.78949 ], [ 109.1964, 13.78903 ], [ 109.20031, 13.78788 ], [ 109.2036, 13.78706 ], [ 109.20455, 13.78687 ], [ 109.20543, 13.78811 ], [ 109.20609, 13.78878 ], [ 109.20719, 13.78976 ], [ 109.20837, 13.79005 ], [ 109.20895, 13.79033 ], [ 109.20905, 13.79043 ], [ 109.20918, 13.79211 ], [ 109.21019, 13.79375 ], [ 109.21133, 13.79479 ], [ 109.21278, 13.79567 ], [ 109.21331, 13.79636 ], [ 109.21381, 13.79707 ], [ 109.21501, 13.7984 ], [ 109.21529, 13.7988 ], [ 109.21563, 13.79987 ], [ 109.21599, 13.80024 ], [ 109.21642, 13.80038 ], [ 109.21825, 13.80065 ], [ 109.21843, 13.80082 ], [ 109.21875, 13.80197 ], [ 109.21943, 13.80238 ], [ 109.22149, 13.80327 ], [ 109.22216, 13.80302 ], [ 109.22246, 13.80282 ], [ 109.22399, 13.80177 ], [ 109.22486, 13.80148 ], [ 109.22525, 13.80157 ], [ 109.22763, 13.80231 ], [ 109.22835, 13.80233 ], [ 109.22923, 13.80193 ], [ 109.23005, 13.80152 ], [ 109.23516, 13.79903 ], [ 109.23836, 13.79744 ], [ 109.23959, 13.79691 ], [ 109.24322, 13.79673 ], [ 109.24813, 13.7965 ], [ 109.24979, 13.79642 ], [ 109.25458, 13.79619 ], [ 109.26274, 13.79577 ], [ 109.26276, 13.79507 ], [ 109.26238, 13.79443 ], [ 109.2623, 13.79343 ], [ 109.26212, 13.79291 ], [ 109.2621, 13.79155 ], [ 109.26223, 13.79063 ], [ 109.26234, 13.78977 ], [ 109.26263, 13.78865 ], [ 109.26351, 13.78815 ], [ 109.26364, 13.78721 ], [ 109.26403, 13.78671 ], [ 109.26401, 13.78555 ], [ 109.26415, 13.78463 ], [ 109.26527, 13.7845 ], [ 109.2658, 13.78373 ], [ 109.26616, 13.78361 ], [ 109.26649, 13.78357 ], [ 109.26653, 13.78361 ], [ 109.2669, 13.78389 ], [ 109.26741, 13.78429 ], [ 109.26777, 13.78466 ], [ 109.26829, 13.78536 ], [ 109.26865, 13.78627 ], [ 109.26863, 13.78709 ], [ 109.26878, 13.78831 ], [ 109.26869, 13.79129 ], [ 109.26847, 13.79326 ], [ 109.26814, 13.79566 ], [ 109.26758, 13.79919 ], [ 109.26804, 13.79995 ], [ 109.26777, 13.80167 ], [ 109.26696, 13.80602 ], [ 109.27086, 13.80044 ], [ 109.27068, 13.80381 ], [ 109.27161, 13.80524 ], [ 109.27143, 13.80749 ], [ 109.27123, 13.80949 ], [ 109.27092, 13.81168 ], [ 109.27052, 13.8139 ], [ 109.2701, 13.81581 ], [ 109.26938, 13.81867 ], [ 109.27082, 13.82018 ], [ 109.27002, 13.82234 ], [ 109.26933, 13.82436 ], [ 109.26879, 13.82487 ], [ 109.2683, 13.82605 ], [ 109.26741, 13.82845 ], [ 109.26736, 13.82854 ], [ 109.26546, 13.82731 ], [ 109.26443, 13.83114 ], [ 109.26432, 13.83154 ], [ 109.26328, 13.83529 ], [ 109.26271, 13.83739 ], [ 109.26166, 13.84145 ], [ 109.25405, 13.83644 ], [ 109.25356, 13.83834 ] ] ], [ [ [ 109.25752, 13.89522 ], [ 109.25747, 13.89517 ], [ 109.25679, 13.89322 ], [ 109.25147, 13.89332 ], [ 109.25044, 13.8933 ], [ 109.24978, 13.89345 ], [ 109.24894, 13.89357 ], [ 109.24878, 13.89307 ], [ 109.24852, 13.89175 ], [ 109.24831, 13.89113 ], [ 109.24803, 13.89113 ], [ 109.24783, 13.89051 ], [ 109.24751, 13.8904 ], [ 109.24707, 13.8895 ], [ 109.24677, 13.8893 ], [ 109.24623, 13.88931 ], [ 109.24623, 13.88902 ], [ 109.24642, 13.8885 ], [ 109.24652, 13.88795 ], [ 109.24688, 13.88612 ], [ 109.24723, 13.8847 ], [ 109.24752, 13.8827 ], [ 109.24739, 13.88177 ], [ 109.2474, 13.88131 ], [ 109.24773, 13.88085 ], [ 109.24767, 13.87691 ], [ 109.24879, 13.87508 ], [ 109.24893, 13.87441 ], [ 109.24912, 13.87378 ], [ 109.24945, 13.87242 ], [ 109.24971, 13.87118 ], [ 109.2497, 13.87022 ], [ 109.24936, 13.8689 ], [ 109.24814, 13.86613 ], [ 109.24773, 13.86511 ], [ 109.24762, 13.86426 ], [ 109.24924, 13.86008 ], [ 109.25168, 13.85435 ], [ 109.25195, 13.85356 ], [ 109.252, 13.85351 ], [ 109.25204, 13.85383 ], [ 109.25205, 13.85435 ], [ 109.25231, 13.85733 ], [ 109.25269, 13.85999 ], [ 109.25327, 13.86307 ], [ 109.25422, 13.86716 ], [ 109.25838, 13.86452 ], [ 109.25946, 13.86873 ], [ 109.25981, 13.87035 ], [ 109.26016, 13.87236 ], [ 109.26031, 13.87392 ], [ 109.25963, 13.8735 ], [ 109.2598, 13.87548 ], [ 109.25972, 13.87828 ], [ 109.25946, 13.88039 ], [ 109.25844, 13.88595 ], [ 109.25814, 13.88779 ], [ 109.25785, 13.89003 ], [ 109.25761, 13.89261 ], [ 109.25752, 13.89522 ] ] ] ] } }
]
}
