{
"type": "FeatureCollection",
"name": "Riverr",
"crs": { "type": "name", "properties": { "name": "urn:ogc:def:crs:OGC:1.3:CRS84" } },
"xy_coordinate_resolution": 1e-05,
"features": [
{ "type": "Feature", "properties": { "OBJECTID": 1, "gridcode": 1, "Shape_Length": 10919.784342815232, "Shape_Area": 4414324.5728543745 }, "geometry": { "type": "Polygon", "coordinates": [ [ [ 109.29705, 13.83699 ], [ 109.29728, 13.83703 ], [ 109.29737, 13.83722 ], [ 109.29756, 13.83721 ], [ 109.29754, 13.83758 ], [ 109.29755, 13.8379 ], [ 109.29794, 13.8377 ], [ 109.29789, 13.83846 ], [ 109.29817, 13.83885 ], [ 109.29847, 13.83884 ], [ 109.29856, 13.83915 ], [ 109.29855, 13.83932 ], [ 109.29805, 13.83929 ], [ 109.29822, 13.83975 ], [ 109.29806, 13.84019 ], [ 109.29818, 13.84067 ], [ 109.29846, 13.84065 ], [ 109.29882, 13.84078 ], [ 109.29845, 13.8411 ], [ 109.29845, 13.84123 ], [ 109.29874, 13.84148 ], [ 109.29905, 13.84147 ], [ 109.29921, 13.84148 ], [ 109.29916, 13.84221 ], [ 109.29879, 13.84219 ], [ 109.29841, 13.84259 ], [ 109.29845, 13.84323 ], [ 109.29843, 13.84353 ], [ 109.29806, 13.84363 ], [ 109.29782, 13.84399 ], [ 109.29769, 13.84427 ], [ 109.29759, 13.84444 ], [ 109.2975, 13.8449 ], [ 109.29737, 13.84525 ], [ 109.29689, 13.845 ], [ 109.29612, 13.8459 ], [ 109.29584, 13.84651 ], [ 109.29553, 13.84677 ], [ 109.29554, 13.84707 ], [ 109.29585, 13.84705 ], [ 109.29571, 13.84755 ], [ 109.29534, 13.84736 ], [ 109.29485, 13.84762 ], [ 109.29498, 13.84786 ], [ 109.29486, 13.84804 ], [ 109.29451, 13.84785 ], [ 109.29428, 13.84786 ], [ 109.29398, 13.84784 ], [ 109.29346, 13.8487 ], [ 109.29302, 13.84967 ], [ 109.2925, 13.85108 ], [ 109.29234, 13.85241 ], [ 109.29248, 13.85306 ], [ 109.29281, 13.85327 ], [ 109.29293, 13.85352 ], [ 109.2932, 13.85364 ], [ 109.29343, 13.8539 ], [ 109.2938, 13.85407 ], [ 109.29417, 13.85388 ], [ 109.29444, 13.85418 ], [ 109.29425, 13.85451 ], [ 109.29428, 13.85511 ], [ 109.29474, 13.85509 ], [ 109.29492, 13.85525 ], [ 109.29458, 13.85604 ], [ 109.29498, 13.85577 ], [ 109.2951, 13.85593 ], [ 109.29482, 13.85617 ], [ 109.29497, 13.85646 ], [ 109.29464, 13.85643 ], [ 109.29455, 13.8569 ], [ 109.29432, 13.85742 ], [ 109.29435, 13.85803 ], [ 109.29454, 13.85855 ], [ 109.29489, 13.85886 ], [ 109.29458, 13.85899 ], [ 109.29421, 13.85949 ], [ 109.29388, 13.85977 ], [ 109.29376, 13.86013 ], [ 109.29341, 13.86074 ], [ 109.29368, 13.86087 ], [ 109.29386, 13.86097 ], [ 109.29348, 13.86114 ], [ 109.29349, 13.86141 ], [ 109.29319, 13.86179 ], [ 109.29333, 13.8623 ], [ 109.29327, 13.86308 ], [ 109.2933, 13.86359 ], [ 109.2937, 13.86357 ], [ 109.29356, 13.86395 ], [ 109.29387, 13.86394 ], [ 109.29382, 13.8646 ], [ 109.29326, 13.86495 ], [ 109.29305, 13.86517 ], [ 109.29323, 13.86533 ], [ 109.29285, 13.86581 ], [ 109.29277, 13.86588 ], [ 109.29097, 13.86501 ], [ 109.28936, 13.86435 ], [ 109.2875, 13.86379 ], [ 109.28581, 13.86342 ], [ 109.2845, 13.8632 ], [ 109.28238, 13.863 ], [ 109.2797, 13.86304 ], [ 109.27801, 13.86321 ], [ 109.27626, 13.86349 ], [ 109.27673, 13.86187 ], [ 109.27705, 13.8605 ], [ 109.27731, 13.85897 ], [ 109.27767, 13.85764 ], [ 109.27824, 13.85506 ], [ 109.27853, 13.85315 ], [ 109.27868, 13.85055 ], [ 109.27879, 13.84994 ], [ 109.27906, 13.84814 ], [ 109.27935, 13.84694 ], [ 109.27956, 13.84605 ], [ 109.27974, 13.84504 ], [ 109.28028, 13.84324 ], [ 109.2826, 13.84314 ], [ 109.2842, 13.84298 ], [ 109.2861, 13.84264 ], [ 109.28818, 13.84209 ], [ 109.29034, 13.8413 ], [ 109.29281, 13.84007 ], [ 109.29448, 13.83904 ], [ 109.29559, 13.83822 ], [ 109.2967, 13.83733 ], [ 109.29695, 13.83708 ], [ 109.29705, 13.83708 ], [ 109.29705, 13.83699 ] ] ] } },
{ "type": "Feature", "properties": { "OBJECTID": 2, "gridcode": 2, "Shape_Length": 31474.372351074569, "Shape_Area": 9155444.970781995 }, "geometry": { "type": "MultiPolygon", "coordinates": [ [ [ [ 109.29313, 13.7774 ], [ 109.29313, 13.77749 ], [ 109.29304, 13.77749 ], [ 109.29304, 13.77739 ], [ 109.29313, 13.7774 ] ] ], [ [ [ 109.29409, 13.78046 ], [ 109.29407, 13.78076 ], [ 109.29377, 13.78129 ], [ 109.29333, 13.78142 ], [ 109.29323, 13.78219 ], [ 109.29269, 13.78266 ], [ 109.29258, 13.78351 ], [ 109.29244, 13.78363 ], [ 109.29217, 13.78318 ], [ 109.29065, 13.78176 ], [ 109.29001, 13.78122 ], [ 109.2916, 13.77956 ], [ 109.29232, 13.77861 ], [ 109.29298, 13.77763 ], [ 109.29304, 13.77758 ], [ 109.29299, 13.77789 ], [ 109.2928, 13.77834 ], [ 109.29271, 13.77909 ], [ 109.29307, 13.77961 ], [ 109.29336, 13.78006 ], [ 109.29365, 13.77975 ], [ 109.29391, 13.7799 ], [ 109.29409, 13.78046 ] ] ], [ [ [ 109.29695, 13.83708 ], [ 109.29695, 13.83699 ], [ 109.29705, 13.83699 ], [ 109.29705, 13.83708 ], [ 109.29695, 13.83708 ] ] ], [ [ [ 109.2937, 13.87682 ], [ 109.29399, 13.87707 ], [ 109.29486, 13.87811 ], [ 109.29546, 13.87779 ], [ 109.29559, 13.87806 ], [ 109.2957, 13.87805 ], [ 109.29568, 13.87769 ], [ 109.29595, 13.87746 ], [ 109.29624, 13.87761 ], [ 109.29661, 13.87734 ], [ 109.29704, 13.87721 ], [ 109.2979, 13.87692 ], [ 109.29819, 13.87702 ], [ 109.298, 13.87735 ], [ 109.29801, 13.87761 ], [ 109.29767, 13.87803 ], [ 109.29781, 13.87816 ], [ 109.29797, 13.87834 ], [ 109.2978, 13.87879 ], [ 109.29771, 13.8797 ], [ 109.2976, 13.88027 ], [ 109.29722, 13.88079 ], [ 109.29726, 13.88141 ], [ 109.29722, 13.882 ], [ 109.29703, 13.88233 ], [ 109.29705, 13.88275 ], [ 109.29691, 13.883 ], [ 109.29671, 13.88317 ], [ 109.29666, 13.88304 ], [ 109.29635, 13.88191 ], [ 109.29583, 13.88047 ], [ 109.29527, 13.87925 ], [ 109.29439, 13.87784 ], [ 109.29375, 13.87696 ], [ 109.2937, 13.87682 ] ] ], [ [ [ 109.2937, 13.87682 ], [ 109.29346, 13.8766 ], [ 109.29249, 13.87557 ], [ 109.29138, 13.87454 ], [ 109.29007, 13.87359 ], [ 109.28844, 13.87264 ], [ 109.2869, 13.87199 ], [ 109.28518, 13.87145 ], [ 109.28353, 13.87113 ], [ 109.28143, 13.87096 ], [ 109.27939, 13.87109 ], [ 109.27719, 13.87144 ], [ 109.27556, 13.87192 ], [ 109.27383, 13.8726 ], [ 109.27237, 13.87341 ], [ 109.27135, 13.87409 ], [ 109.26998, 13.87518 ], [ 109.26854, 13.87667 ], [ 109.26756, 13.87796 ], [ 109.26659, 13.87954 ], [ 109.26591, 13.88109 ], [ 109.26527, 13.883 ], [ 109.26495, 13.88461 ], [ 109.26477, 13.88671 ], [ 109.2649, 13.88871 ], [ 109.26518, 13.89035 ], [ 109.26566, 13.89195 ], [ 109.26636, 13.89364 ], [ 109.26728, 13.89521 ], [ 109.26819, 13.89645 ], [ 109.26931, 13.89771 ], [ 109.26898, 13.89812 ], [ 109.2675, 13.89986 ], [ 109.26639, 13.90126 ], [ 109.26479, 13.90134 ], [ 109.25966, 13.90162 ], [ 109.25884, 13.89925 ], [ 109.25875, 13.89881 ], [ 109.2596, 13.89763 ], [ 109.26047, 13.89619 ], [ 109.26121, 13.89445 ], [ 109.26156, 13.89334 ], [ 109.2619, 13.89201 ], [ 109.26223, 13.89094 ], [ 109.26256, 13.88934 ], [ 109.26299, 13.88776 ], [ 109.26334, 13.88615 ], [ 109.26353, 13.88524 ], [ 109.2639, 13.88402 ], [ 109.26406, 13.88311 ], [ 109.26458, 13.8801 ], [ 109.26493, 13.87864 ], [ 109.26515, 13.87706 ], [ 109.26518, 13.87594 ], [ 109.26517, 13.87516 ], [ 109.26563, 13.87288 ], [ 109.26576, 13.87134 ], [ 109.26603, 13.86958 ], [ 109.26609, 13.86777 ], [ 109.26597, 13.86599 ], [ 109.26706, 13.86421 ], [ 109.26789, 13.86248 ], [ 109.2685, 13.86093 ], [ 109.26889, 13.85965 ], [ 109.26909, 13.85853 ], [ 109.26928, 13.85726 ], [ 109.26969, 13.85598 ], [ 109.26995, 13.85474 ], [ 109.27023, 13.85347 ], [ 109.27039, 13.8523 ], [ 109.27054, 13.84959 ], [ 109.27082, 13.8481 ], [ 109.27093, 13.84679 ], [ 109.2713, 13.84558 ], [ 109.27151, 13.84463 ], [ 109.27178, 13.84306 ], [ 109.27244, 13.84105 ], [ 109.27273, 13.83945 ], [ 109.27289, 13.83827 ], [ 109.27307, 13.83552 ], [ 109.27305, 13.83424 ], [ 109.27443, 13.8346 ], [ 109.27667, 13.83498 ], [ 109.27921, 13.83517 ], [ 109.28103, 13.83522 ], [ 109.28291, 13.8351 ], [ 109.28457, 13.83479 ], [ 109.2864, 13.83423 ], [ 109.28784, 13.83364 ], [ 109.28966, 13.8326 ], [ 109.29094, 13.83164 ], [ 109.29247, 13.83023 ], [ 109.29308, 13.8295 ], [ 109.29348, 13.82901 ], [ 109.29482, 13.82792 ], [ 109.29611, 13.82654 ], [ 109.2969, 13.82548 ], [ 109.29756, 13.82446 ], [ 109.29769, 13.82434 ], [ 109.29774, 13.82439 ], [ 109.29786, 13.82403 ], [ 109.29826, 13.82424 ], [ 109.29838, 13.82475 ], [ 109.29848, 13.82484 ], [ 109.29856, 13.82512 ], [ 109.29762, 13.82571 ], [ 109.29764, 13.82613 ], [ 109.29827, 13.8267 ], [ 109.29873, 13.82647 ], [ 109.29896, 13.82648 ], [ 109.29911, 13.82668 ], [ 109.29891, 13.8274 ], [ 109.29892, 13.82773 ], [ 109.29879, 13.82798 ], [ 109.29892, 13.82809 ], [ 109.299, 13.82828 ], [ 109.2992, 13.82846 ], [ 109.29917, 13.829 ], [ 109.29937, 13.829 ], [ 109.29923, 13.82965 ], [ 109.29938, 13.82993 ], [ 109.29934, 13.83009 ], [ 109.299, 13.8299 ], [ 109.29881, 13.82981 ], [ 109.29864, 13.82963 ], [ 109.29815, 13.82954 ], [ 109.29817, 13.83024 ], [ 109.2977, 13.83099 ], [ 109.29791, 13.83119 ], [ 109.29772, 13.83153 ], [ 109.29817, 13.83152 ], [ 109.29814, 13.83229 ], [ 109.29815, 13.83269 ], [ 109.29805, 13.83288 ], [ 109.29795, 13.83361 ], [ 109.29779, 13.83378 ], [ 109.29767, 13.83341 ], [ 109.29751, 13.83374 ], [ 109.297, 13.83406 ], [ 109.29603, 13.83507 ], [ 109.2959, 13.83597 ], [ 109.29619, 13.83651 ], [ 109.29673, 13.83701 ], [ 109.29695, 13.83708 ], [ 109.2967, 13.83733 ], [ 109.29559, 13.83822 ], [ 109.29448, 13.83904 ], [ 109.29281, 13.84007 ], [ 109.29034, 13.8413 ], [ 109.28818, 13.84209 ], [ 109.2861, 13.84264 ], [ 109.2842, 13.84298 ], [ 109.2826, 13.84314 ], [ 109.28028, 13.84324 ], [ 109.27974, 13.84504 ], [ 109.27956, 13.84605 ], [ 109.27935, 13.84694 ], [ 109.27906, 13.84814 ], [ 109.27879, 13.84994 ], [ 109.27868, 13.85055 ], [ 109.27853, 13.85315 ], [ 109.27824, 13.85506 ], [ 109.27767, 13.85764 ], [ 109.27731, 13.85897 ], [ 109.27705, 13.8605 ], [ 109.27673, 13.86187 ], [ 109.27626, 13.86349 ], [ 109.27801, 13.86321 ], [ 109.2797, 13.86304 ], [ 109.28238, 13.863 ], [ 109.2845, 13.8632 ], [ 109.28581, 13.86342 ], [ 109.2875, 13.86379 ], [ 109.28936, 13.86435 ], [ 109.29097, 13.86501 ], [ 109.29277, 13.86588 ], [ 109.29272, 13.86638 ], [ 109.29253, 13.86672 ], [ 109.29243, 13.86764 ], [ 109.29224, 13.86868 ], [ 109.29214, 13.86986 ], [ 109.29234, 13.87123 ], [ 109.29259, 13.87135 ], [ 109.29268, 13.87147 ], [ 109.29218, 13.87192 ], [ 109.29231, 13.87217 ], [ 109.29197, 13.87279 ], [ 109.29267, 13.87461 ], [ 109.29326, 13.87593 ], [ 109.29365, 13.87666 ], [ 109.2937, 13.87682 ] ] ] ] } },
{ "type": "Feature", "properties": { "OBJECTID": 3, "gridcode": 3, "Shape_Length": 53309.990774391408, "Shape_Area": 13951312.055040706 }, "geometry": { "type": "MultiPolygon", "coordinates": [ [ [ [ 109.28962, 13.75642 ], [ 109.28896, 13.75688 ], [ 109.28875, 13.75694 ], [ 109.2885, 13.7565 ], [ 109.28726, 13.75548 ], [ 109.28645, 13.75493 ], [ 109.2865, 13.75479 ], [ 109.28682, 13.7544 ], [ 109.28737, 13.75407 ], [ 109.28755, 13.75387 ], [ 109.28838, 13.75373 ], [ 109.28834, 13.75418 ], [ 109.28838, 13.75463 ], [ 109.28833, 13.75521 ], [ 109.28837, 13.75535 ], [ 109.28867, 13.75501 ], [ 109.28891, 13.75491 ], [ 109.28922, 13.75456 ], [ 109.28917, 13.75503 ], [ 109.28873, 13.7554 ], [ 109.28862, 13.75563 ], [ 109.28847, 13.7559 ], [ 109.28867, 13.75625 ], [ 109.28907, 13.75603 ], [ 109.2894, 13.75589 ], [ 109.28967, 13.75591 ], [ 109.28962, 13.75642 ] ] ], [ [ [ 109.28976, 13.79044 ], [ 109.28924, 13.79066 ], [ 109.28889, 13.78972 ], [ 109.28821, 13.78848 ], [ 109.28751, 13.7876 ], [ 109.28682, 13.78682 ], [ 109.28563, 13.78585 ], [ 109.28508, 13.78552 ], [ 109.28417, 13.78503 ], [ 109.28347, 13.78413 ], [ 109.28288, 13.78348 ], [ 109.28177, 13.78257 ], [ 109.28087, 13.78202 ], [ 109.27902, 13.78115 ], [ 109.27762, 13.78072 ], [ 109.27595, 13.78049 ], [ 109.27413, 13.78059 ], [ 109.27286, 13.78087 ], [ 109.27164, 13.78129 ], [ 109.27056, 13.78186 ], [ 109.26958, 13.78252 ], [ 109.26877, 13.78256 ], [ 109.26901, 13.78225 ], [ 109.26911, 13.78154 ], [ 109.26947, 13.78105 ], [ 109.26918, 13.78047 ], [ 109.26868, 13.77977 ], [ 109.26856, 13.77944 ], [ 109.26832, 13.77839 ], [ 109.26731, 13.77752 ], [ 109.26712, 13.77628 ], [ 109.26693, 13.77594 ], [ 109.26702, 13.77533 ], [ 109.26729, 13.77488 ], [ 109.26732, 13.77457 ], [ 109.26704, 13.77364 ], [ 109.26713, 13.77292 ], [ 109.26738, 13.77227 ], [ 109.26696, 13.77169 ], [ 109.26693, 13.77124 ], [ 109.26701, 13.77061 ], [ 109.26822, 13.77083 ], [ 109.26918, 13.77095 ], [ 109.27002, 13.77104 ], [ 109.27031, 13.77242 ], [ 109.27078, 13.77367 ], [ 109.27148, 13.77493 ], [ 109.27225, 13.7759 ], [ 109.2729, 13.77656 ], [ 109.27391, 13.77738 ], [ 109.27483, 13.77793 ], [ 109.276, 13.77845 ], [ 109.27735, 13.77884 ], [ 109.27899, 13.77906 ], [ 109.28065, 13.77894 ], [ 109.28193, 13.77865 ], [ 109.2831, 13.77823 ], [ 109.28438, 13.77755 ], [ 109.28537, 13.77679 ], [ 109.28621, 13.77601 ], [ 109.28707, 13.77499 ], [ 109.28764, 13.77409 ], [ 109.28803, 13.77325 ], [ 109.28869, 13.77144 ], [ 109.28895, 13.77083 ], [ 109.29011, 13.76739 ], [ 109.2903, 13.76675 ], [ 109.29057, 13.76586 ], [ 109.29063, 13.76545 ], [ 109.29073, 13.76553 ], [ 109.29103, 13.76587 ], [ 109.29141, 13.76621 ], [ 109.29318, 13.76715 ], [ 109.29315, 13.76769 ], [ 109.2922, 13.76813 ], [ 109.29174, 13.7686 ], [ 109.29125, 13.76961 ], [ 109.29129, 13.77086 ], [ 109.29148, 13.7714 ], [ 109.2925, 13.77212 ], [ 109.29296, 13.7721 ], [ 109.29351, 13.77174 ], [ 109.29368, 13.77138 ], [ 109.29389, 13.77139 ], [ 109.29405, 13.77178 ], [ 109.29386, 13.77229 ], [ 109.29373, 13.77282 ], [ 109.29325, 13.77257 ], [ 109.29312, 13.77283 ], [ 109.29295, 13.77298 ], [ 109.29349, 13.77319 ], [ 109.29357, 13.77365 ], [ 109.29377, 13.77374 ], [ 109.29374, 13.77418 ], [ 109.29402, 13.77457 ], [ 109.29357, 13.77497 ], [ 109.29347, 13.77528 ], [ 109.29328, 13.77536 ], [ 109.29318, 13.77547 ], [ 109.29319, 13.77574 ], [ 109.29338, 13.77609 ], [ 109.29334, 13.7768 ], [ 109.29318, 13.77726 ], [ 109.29313, 13.7774 ], [ 109.29304, 13.77739 ], [ 109.29304, 13.77749 ], [ 109.29304, 13.77758 ], [ 109.29298, 13.77763 ], [ 109.29232, 13.77861 ], [ 109.2916, 13.77956 ], [ 109.29001, 13.78122 ], [ 109.29065, 13.78176 ], [ 109.29217, 13.78318 ], [ 109.29244, 13.78363 ], [ 109.2924, 13.78377 ], [ 109.29219, 13.78405 ], [ 109.292, 13.78484 ], [ 109.29155, 13.78511 ], [ 109.29128, 13.7854 ], [ 109.29148, 13.78633 ], [ 109.29131, 13.78663 ], [ 109.29107, 13.78673 ], [ 109.29082, 13.78687 ], [ 109.2907, 13.78749 ], [ 109.29107, 13.78736 ], [ 109.29129, 13.78738 ], [ 109.29125, 13.78784 ], [ 109.29145, 13.78801 ], [ 109.29142, 13.78827 ], [ 109.29153, 13.78836 ], [ 109.29162, 13.7885 ], [ 109.29142, 13.78902 ], [ 109.29087, 13.78925 ], [ 109.29078, 13.78981 ], [ 109.29009, 13.79058 ], [ 109.28994, 13.79024 ], [ 109.28976, 13.79044 ] ] ], [ [ [ 109.28968, 13.79454 ], [ 109.28968, 13.79482 ], [ 109.28958, 13.79482 ], [ 109.28959, 13.79454 ], [ 109.28968, 13.79454 ] ] ], [ [ [ 109.29376, 13.89391 ], [ 109.29383, 13.8942 ], [ 109.29367, 13.89447 ], [ 109.29312, 13.89493 ], [ 109.29297, 13.89476 ], [ 109.29288, 13.89467 ], [ 109.29279, 13.89421 ], [ 109.2927, 13.89395 ], [ 109.2925, 13.89329 ], [ 109.29195, 13.89333 ], [ 109.29153, 13.89275 ], [ 109.29069, 13.89203 ], [ 109.29042, 13.89191 ], [ 109.29022, 13.89144 ], [ 109.29041, 13.89095 ], [ 109.29088, 13.88921 ], [ 109.29109, 13.88904 ], [ 109.29095, 13.88817 ], [ 109.29056, 13.88784 ], [ 109.29048, 13.88774 ], [ 109.29062, 13.88737 ], [ 109.29054, 13.88545 ], [ 109.29038, 13.88443 ], [ 109.28992, 13.88292 ], [ 109.28919, 13.88155 ], [ 109.28854, 13.88066 ], [ 109.28782, 13.87987 ], [ 109.2867, 13.87896 ], [ 109.28579, 13.8784 ], [ 109.2846, 13.87786 ], [ 109.28326, 13.87746 ], [ 109.28162, 13.87724 ], [ 109.28007, 13.87734 ], [ 109.27841, 13.87763 ], [ 109.277, 13.87811 ], [ 109.2758, 13.87873 ], [ 109.27489, 13.87936 ], [ 109.27402, 13.88011 ], [ 109.27305, 13.88124 ], [ 109.27248, 13.88214 ], [ 109.27194, 13.88328 ], [ 109.27143, 13.88484 ], [ 109.2712, 13.88648 ], [ 109.2713, 13.88817 ], [ 109.27159, 13.8894 ], [ 109.27202, 13.8906 ], [ 109.27271, 13.89186 ], [ 109.27341, 13.89274 ], [ 109.27369, 13.89305 ], [ 109.27378, 13.89313 ], [ 109.27188, 13.89507 ], [ 109.26942, 13.89761 ], [ 109.26931, 13.89771 ], [ 109.26819, 13.89645 ], [ 109.26728, 13.89521 ], [ 109.26636, 13.89364 ], [ 109.26566, 13.89195 ], [ 109.26518, 13.89035 ], [ 109.2649, 13.88871 ], [ 109.26477, 13.88671 ], [ 109.26495, 13.88461 ], [ 109.26527, 13.883 ], [ 109.26591, 13.88109 ], [ 109.26659, 13.87954 ], [ 109.26756, 13.87796 ], [ 109.26854, 13.87667 ], [ 109.26998, 13.87518 ], [ 109.27135, 13.87409 ], [ 109.27237, 13.87341 ], [ 109.27383, 13.8726 ], [ 109.27556, 13.87192 ], [ 109.27719, 13.87144 ], [ 109.27939, 13.87109 ], [ 109.28143, 13.87096 ], [ 109.28353, 13.87113 ], [ 109.28518, 13.87145 ], [ 109.2869, 13.87199 ], [ 109.28844, 13.87264 ], [ 109.29007, 13.87359 ], [ 109.29138, 13.87454 ], [ 109.29249, 13.87557 ], [ 109.29346, 13.8766 ], [ 109.2937, 13.87682 ], [ 109.29375, 13.87696 ], [ 109.29439, 13.87784 ], [ 109.29527, 13.87925 ], [ 109.29583, 13.88047 ], [ 109.29635, 13.88191 ], [ 109.29666, 13.88304 ], [ 109.29671, 13.88317 ], [ 109.29667, 13.88322 ], [ 109.29653, 13.88381 ], [ 109.29662, 13.88443 ], [ 109.29625, 13.88457 ], [ 109.29632, 13.88504 ], [ 109.29647, 13.88529 ], [ 109.29631, 13.88547 ], [ 109.29603, 13.8851 ], [ 109.29583, 13.88513 ], [ 109.29554, 13.88529 ], [ 109.29536, 13.88527 ], [ 109.29525, 13.88539 ], [ 109.29503, 13.88536 ], [ 109.29461, 13.88542 ], [ 109.29425, 13.88556 ], [ 109.29394, 13.88564 ], [ 109.29398, 13.88591 ], [ 109.29395, 13.88611 ], [ 109.29289, 13.88593 ], [ 109.29241, 13.88611 ], [ 109.29252, 13.8869 ], [ 109.29231, 13.88778 ], [ 109.29209, 13.88806 ], [ 109.292, 13.88885 ], [ 109.29229, 13.88897 ], [ 109.29217, 13.88905 ], [ 109.29209, 13.88928 ], [ 109.29228, 13.88942 ], [ 109.29224, 13.88963 ], [ 109.29199, 13.88959 ], [ 109.2919, 13.88972 ], [ 109.29218, 13.89043 ], [ 109.29235, 13.89041 ], [ 109.2925, 13.89043 ], [ 109.29229, 13.89077 ], [ 109.29261, 13.891 ], [ 109.29272, 13.89156 ], [ 109.29293, 13.8919 ], [ 109.29347, 13.89212 ], [ 109.29334, 13.89252 ], [ 109.29362, 13.89249 ], [ 109.29368, 13.89282 ], [ 109.29357, 13.89285 ], [ 109.29365, 13.89293 ], [ 109.29368, 13.89282 ], [ 109.29386, 13.89275 ], [ 109.29373, 13.89353 ], [ 109.294, 13.89349 ], [ 109.29412, 13.89351 ], [ 109.29407, 13.89386 ], [ 109.29376, 13.89391 ], [ 109.29373, 13.89361 ], [ 109.2936, 13.89387 ], [ 109.29376, 13.89391 ] ] ], [ [ [ 109.26156, 13.89334 ], [ 109.26121, 13.89445 ], [ 109.26047, 13.89619 ], [ 109.2596, 13.89763 ], [ 109.25875, 13.89881 ], [ 109.25871, 13.89877 ], [ 109.25852, 13.8983 ], [ 109.2568, 13.89323 ], [ 109.25472, 13.89327 ], [ 109.2551, 13.89249 ], [ 109.25537, 13.89159 ], [ 109.2557, 13.8903 ], [ 109.256, 13.8893 ], [ 109.25629, 13.88781 ], [ 109.25664, 13.88665 ], [ 109.25713, 13.8844 ], [ 109.25725, 13.88375 ], [ 109.25765, 13.88247 ], [ 109.25792, 13.88086 ], [ 109.25809, 13.8799 ], [ 109.2583, 13.87861 ], [ 109.25858, 13.87758 ], [ 109.25872, 13.87655 ], [ 109.2587, 13.87466 ], [ 109.25926, 13.87191 ], [ 109.25938, 13.87039 ], [ 109.25957, 13.86933 ], [ 109.25964, 13.86714 ], [ 109.2595, 13.86627 ], [ 109.25927, 13.86516 ], [ 109.25989, 13.86335 ], [ 109.26062, 13.86248 ], [ 109.26118, 13.86159 ], [ 109.2622, 13.85952 ], [ 109.26268, 13.85799 ], [ 109.26281, 13.85704 ], [ 109.26291, 13.85604 ], [ 109.26345, 13.85442 ], [ 109.26367, 13.85334 ], [ 109.26396, 13.85203 ], [ 109.26399, 13.85063 ], [ 109.26397, 13.84911 ], [ 109.26433, 13.84793 ], [ 109.26446, 13.84702 ], [ 109.26456, 13.84557 ], [ 109.26511, 13.84389 ], [ 109.26523, 13.84323 ], [ 109.2655, 13.84168 ], [ 109.26561, 13.84124 ], [ 109.26623, 13.83935 ], [ 109.26655, 13.83721 ], [ 109.26662, 13.83455 ], [ 109.26645, 13.83315 ], [ 109.26667, 13.83195 ], [ 109.2668, 13.83085 ], [ 109.26718, 13.82895 ], [ 109.26728, 13.82526 ], [ 109.26708, 13.82396 ], [ 109.26686, 13.82308 ], [ 109.26676, 13.82067 ], [ 109.26644, 13.81934 ], [ 109.26615, 13.81856 ], [ 109.26572, 13.8176 ], [ 109.26619, 13.81736 ], [ 109.26642, 13.81879 ], [ 109.26694, 13.82065 ], [ 109.26737, 13.82181 ], [ 109.26841, 13.82377 ], [ 109.26921, 13.82478 ], [ 109.26986, 13.82544 ], [ 109.27087, 13.82625 ], [ 109.2717, 13.82675 ], [ 109.2739, 13.82788 ], [ 109.27564, 13.82842 ], [ 109.27759, 13.82876 ], [ 109.28135, 13.82895 ], [ 109.28288, 13.82872 ], [ 109.28451, 13.82821 ], [ 109.28594, 13.82746 ], [ 109.28695, 13.82669 ], [ 109.28763, 13.82606 ], [ 109.28824, 13.82534 ], [ 109.28886, 13.8245 ], [ 109.28991, 13.82375 ], [ 109.29071, 13.82301 ], [ 109.29154, 13.82202 ], [ 109.29184, 13.82154 ], [ 109.2925, 13.82037 ], [ 109.29254, 13.82032 ], [ 109.29287, 13.82067 ], [ 109.29393, 13.82141 ], [ 109.29521, 13.82159 ], [ 109.29554, 13.82143 ], [ 109.29595, 13.82124 ], [ 109.29619, 13.82149 ], [ 109.2964, 13.82214 ], [ 109.29621, 13.82249 ], [ 109.29636, 13.82293 ], [ 109.29652, 13.82342 ], [ 109.29729, 13.82411 ], [ 109.29756, 13.82383 ], [ 109.29765, 13.8242 ], [ 109.29769, 13.82434 ], [ 109.29756, 13.82446 ], [ 109.2969, 13.82548 ], [ 109.29611, 13.82654 ], [ 109.29482, 13.82792 ], [ 109.29348, 13.82901 ], [ 109.29308, 13.8295 ], [ 109.29247, 13.83023 ], [ 109.29094, 13.83164 ], [ 109.28966, 13.8326 ], [ 109.28784, 13.83364 ], [ 109.2864, 13.83423 ], [ 109.28457, 13.83479 ], [ 109.28291, 13.8351 ], [ 109.28103, 13.83522 ], [ 109.27921, 13.83517 ], [ 109.27667, 13.83498 ], [ 109.27443, 13.8346 ], [ 109.27305, 13.83424 ], [ 109.27307, 13.83552 ], [ 109.27289, 13.83827 ], [ 109.27273, 13.83945 ], [ 109.27244, 13.84105 ], [ 109.27178, 13.84306 ], [ 109.27151, 13.84463 ], [ 109.2713, 13.84558 ], [ 109.27093, 13.84679 ], [ 109.27082, 13.8481 ], [ 109.27054, 13.84959 ], [ 109.27039, 13.8523 ], [ 109.27023, 13.85347 ], [ 109.26995, 13.85474 ], [ 109.26969, 13.85598 ], [ 109.26928, 13.85726 ], [ 109.26909, 13.85853 ], [ 109.26889, 13.85965 ], [ 109.2685, 13.86093 ], [ 109.26789, 13.86248 ], [ 109.26706, 13.86421 ], [ 109.26597, 13.86599 ], [ 109.26609, 13.86777 ], [ 109.26603, 13.86958 ], [ 109.26576, 13.87134 ], [ 109.26563, 13.87288 ], [ 109.26517, 13.87516 ], [ 109.26518, 13.87594 ], [ 109.26515, 13.87706 ], [ 109.26493, 13.87864 ], [ 109.26458, 13.8801 ], [ 109.26406, 13.88311 ], [ 109.2639, 13.88402 ], [ 109.26353, 13.88524 ], [ 109.26334, 13.88615 ], [ 109.26299, 13.88776 ], [ 109.26256, 13.88934 ], [ 109.26223, 13.89094 ], [ 109.2619, 13.89201 ], [ 109.26156, 13.89334 ] ] ] ] } },
{ "type": "Feature", "properties": { "OBJECTID": 4, "gridcode": 4, "Shape_Length": 75097.335761648705, "Shape_Area": 18528065.749998547 }, "geometry": { "type": "MultiPolygon", "coordinates": [ [ [ [ 109.28764, 13.77409 ], [ 109.28707, 13.77499 ], [ 109.28621, 13.77601 ], [ 109.28537, 13.77679 ], [ 109.28438, 13.77755 ], [ 109.2831, 13.77823 ], [ 109.28193, 13.77865 ], [ 109.28065, 13.77894 ], [ 109.27899, 13.77906 ], [ 109.27735, 13.77884 ], [ 109.276, 13.77845 ], [ 109.27483, 13.77793 ], [ 109.27391, 13.77738 ], [ 109.2729, 13.77656 ], [ 109.27225, 13.7759 ], [ 109.27148, 13.77493 ], [ 109.27078, 13.77367 ], [ 109.27031, 13.77242 ], [ 109.27002, 13.77104 ], [ 109.26918, 13.77095 ], [ 109.26822, 13.77083 ], [ 109.26701, 13.77061 ], [ 109.26697, 13.77046 ], [ 109.2666, 13.77015 ], [ 109.26677, 13.76957 ], [ 109.26726, 13.76876 ], [ 109.26772, 13.76777 ], [ 109.26761, 13.7674 ], [ 109.26706, 13.76677 ], [ 109.26635, 13.7665 ], [ 109.26565, 13.76599 ], [ 109.26494, 13.76573 ], [ 109.26439, 13.76526 ], [ 109.264, 13.76458 ], [ 109.26368, 13.76413 ], [ 109.26314, 13.76313 ], [ 109.26275, 13.76279 ], [ 109.26211, 13.76206 ], [ 109.26147, 13.76151 ], [ 109.2612, 13.7612 ], [ 109.26039, 13.76084 ], [ 109.26038, 13.76067 ], [ 109.26055, 13.76022 ], [ 109.26061, 13.75957 ], [ 109.26022, 13.75903 ], [ 109.26017, 13.75834 ], [ 109.26031, 13.75805 ], [ 109.26049, 13.75772 ], [ 109.2606, 13.75719 ], [ 109.26117, 13.75736 ], [ 109.26161, 13.7577 ], [ 109.26173, 13.75757 ], [ 109.26271, 13.75765 ], [ 109.26327, 13.75753 ], [ 109.26363, 13.75741 ], [ 109.26389, 13.7577 ], [ 109.26526, 13.7576 ], [ 109.26564, 13.75781 ], [ 109.26596, 13.75764 ], [ 109.26646, 13.7573 ], [ 109.26715, 13.7571 ], [ 109.26748, 13.75706 ], [ 109.26744, 13.75711 ], [ 109.26653, 13.75762 ], [ 109.26571, 13.75852 ], [ 109.2653, 13.7595 ], [ 109.26523, 13.76098 ], [ 109.26547, 13.76176 ], [ 109.26583, 13.76242 ], [ 109.26607, 13.7632 ], [ 109.26661, 13.76402 ], [ 109.26755, 13.76483 ], [ 109.26851, 13.76523 ], [ 109.27027, 13.76544 ], [ 109.27158, 13.76533 ], [ 109.27259, 13.76487 ], [ 109.27368, 13.7639 ], [ 109.27431, 13.76276 ], [ 109.27443, 13.76222 ], [ 109.27448, 13.76127 ], [ 109.27688, 13.76203 ], [ 109.27757, 13.76215 ], [ 109.27789, 13.76219 ], [ 109.27766, 13.7626 ], [ 109.27718, 13.76329 ], [ 109.27627, 13.76498 ], [ 109.27599, 13.76603 ], [ 109.27566, 13.76995 ], [ 109.2758, 13.77092 ], [ 109.27627, 13.77187 ], [ 109.27714, 13.77277 ], [ 109.27809, 13.77326 ], [ 109.27904, 13.77345 ], [ 109.28023, 13.77334 ], [ 109.28125, 13.77286 ], [ 109.28235, 13.77184 ], [ 109.28277, 13.77107 ], [ 109.28296, 13.7705 ], [ 109.28316, 13.76996 ], [ 109.28334, 13.76942 ], [ 109.28369, 13.76865 ], [ 109.28391, 13.76779 ], [ 109.28411, 13.76732 ], [ 109.28433, 13.76667 ], [ 109.28457, 13.766 ], [ 109.28476, 13.76527 ], [ 109.28503, 13.76451 ], [ 109.28523, 13.76358 ], [ 109.28527, 13.7622 ], [ 109.28499, 13.76132 ], [ 109.28456, 13.76067 ], [ 109.28364, 13.7598 ], [ 109.28355, 13.7597 ], [ 109.28415, 13.75883 ], [ 109.28431, 13.75816 ], [ 109.28463, 13.75749 ], [ 109.28478, 13.75723 ], [ 109.28502, 13.75672 ], [ 109.28562, 13.75621 ], [ 109.28626, 13.7551 ], [ 109.28645, 13.75493 ], [ 109.28726, 13.75548 ], [ 109.2885, 13.7565 ], [ 109.28875, 13.75694 ], [ 109.28852, 13.75707 ], [ 109.28823, 13.75771 ], [ 109.28824, 13.75798 ], [ 109.28865, 13.75797 ], [ 109.28848, 13.75831 ], [ 109.2886, 13.75843 ], [ 109.28869, 13.75879 ], [ 109.28887, 13.75913 ], [ 109.28849, 13.75961 ], [ 109.2885, 13.76034 ], [ 109.28886, 13.76068 ], [ 109.28904, 13.76106 ], [ 109.28942, 13.76142 ], [ 109.28939, 13.76231 ], [ 109.28977, 13.7628 ], [ 109.28944, 13.7634 ], [ 109.28958, 13.76397 ], [ 109.28978, 13.76435 ], [ 109.29063, 13.76545 ], [ 109.29057, 13.76586 ], [ 109.2903, 13.76675 ], [ 109.29011, 13.76739 ], [ 109.28895, 13.77083 ], [ 109.28869, 13.77144 ], [ 109.28803, 13.77325 ], [ 109.28764, 13.77409 ] ] ], [ [ [ 109.1991, 13.78829 ], [ 109.19916, 13.78822 ], [ 109.20062, 13.7878 ], [ 109.20086, 13.78776 ], [ 109.2008, 13.78795 ], [ 109.19972, 13.78822 ], [ 109.1991, 13.78829 ] ] ], [ [ [ 109.1991, 13.78829 ], [ 109.1991, 13.78838 ], [ 109.19873, 13.78838 ], [ 109.19873, 13.78829 ], [ 109.1991, 13.78829 ] ] ], [ [ [ 109.19873, 13.78838 ], [ 109.19872, 13.78847 ], [ 109.19845, 13.78847 ], [ 109.19845, 13.78838 ], [ 109.19873, 13.78838 ] ] ], [ [ [ 109.19835, 13.78847 ], [ 109.19835, 13.78856 ], [ 109.19817, 13.78856 ], [ 109.19817, 13.78847 ], [ 109.19835, 13.78847 ] ] ], [ [ [ 109.21814, 13.80611 ], [ 109.21835, 13.80696 ], [ 109.21859, 13.80754 ], [ 109.2175, 13.80726 ], [ 109.21664, 13.80718 ], [ 109.21736, 13.80642 ], [ 109.2181, 13.80606 ], [ 109.21814, 13.80611 ] ] ], [ [ [ 109.28624, 13.80388 ], [ 109.28566, 13.80396 ], [ 109.2854, 13.80426 ], [ 109.28558, 13.80459 ], [ 109.28577, 13.80547 ], [ 109.28576, 13.80568 ], [ 109.28585, 13.80604 ], [ 109.28602, 13.80678 ], [ 109.28615, 13.80789 ], [ 109.2861, 13.80855 ], [ 109.28615, 13.80889 ], [ 109.28603, 13.80877 ], [ 109.28565, 13.8083 ], [ 109.28499, 13.80755 ], [ 109.28401, 13.80678 ], [ 109.28297, 13.8062 ], [ 109.28272, 13.80594 ], [ 109.28263, 13.80383 ], [ 109.28301, 13.80187 ], [ 109.28311, 13.80096 ], [ 109.2836, 13.79994 ], [ 109.28394, 13.79893 ], [ 109.28388, 13.79478 ], [ 109.28394, 13.79295 ], [ 109.28381, 13.79234 ], [ 109.28332, 13.79139 ], [ 109.28223, 13.79035 ], [ 109.28126, 13.78988 ], [ 109.27996, 13.78937 ], [ 109.27978, 13.78892 ], [ 109.27946, 13.78818 ], [ 109.27863, 13.78723 ], [ 109.27717, 13.78644 ], [ 109.27628, 13.78615 ], [ 109.2746, 13.78617 ], [ 109.27361, 13.78656 ], [ 109.27274, 13.78726 ], [ 109.27215, 13.78813 ], [ 109.27182, 13.78922 ], [ 109.27133, 13.78886 ], [ 109.27069, 13.78848 ], [ 109.26975, 13.78817 ], [ 109.26755, 13.7882 ], [ 109.26664, 13.7885 ], [ 109.26584, 13.78833 ], [ 109.26397, 13.78836 ], [ 109.26253, 13.78902 ], [ 109.26266, 13.78864 ], [ 109.26338, 13.78823 ], [ 109.26351, 13.78799 ], [ 109.2636, 13.78726 ], [ 109.26398, 13.7868 ], [ 109.2641, 13.78468 ], [ 109.26525, 13.78447 ], [ 109.26584, 13.7837 ], [ 109.26676, 13.78354 ], [ 109.26724, 13.78332 ], [ 109.26812, 13.7828 ], [ 109.26863, 13.7826 ], [ 109.26877, 13.78256 ], [ 109.26958, 13.78252 ], [ 109.27056, 13.78186 ], [ 109.27164, 13.78129 ], [ 109.27286, 13.78087 ], [ 109.27413, 13.78059 ], [ 109.27595, 13.78049 ], [ 109.27762, 13.78072 ], [ 109.27902, 13.78115 ], [ 109.28087, 13.78202 ], [ 109.28177, 13.78257 ], [ 109.28288, 13.78348 ], [ 109.28347, 13.78413 ], [ 109.28417, 13.78503 ], [ 109.28508, 13.78552 ], [ 109.28563, 13.78585 ], [ 109.28682, 13.78682 ], [ 109.28751, 13.7876 ], [ 109.28821, 13.78848 ], [ 109.28889, 13.78972 ], [ 109.28924, 13.79066 ], [ 109.28901, 13.79102 ], [ 109.28924, 13.79233 ], [ 109.289, 13.79276 ], [ 109.28909, 13.79305 ], [ 109.28919, 13.79335 ], [ 109.28915, 13.79413 ], [ 109.28932, 13.79414 ], [ 109.28949, 13.79378 ], [ 109.28956, 13.794 ], [ 109.28953, 13.7945 ], [ 109.28959, 13.79454 ], [ 109.28958, 13.79482 ], [ 109.28944, 13.79476 ], [ 109.28931, 13.79504 ], [ 109.28916, 13.79504 ], [ 109.28899, 13.79523 ], [ 109.28889, 13.79512 ], [ 109.2888, 13.79531 ], [ 109.28851, 13.79544 ], [ 109.28824, 13.79585 ], [ 109.28779, 13.79641 ], [ 109.28768, 13.79629 ], [ 109.28738, 13.79649 ], [ 109.28721, 13.79704 ], [ 109.28675, 13.79767 ], [ 109.28629, 13.79916 ], [ 109.28617, 13.80013 ], [ 109.28673, 13.80026 ], [ 109.28681, 13.80038 ], [ 109.2866, 13.80075 ], [ 109.28621, 13.80054 ], [ 109.28587, 13.80073 ], [ 109.28551, 13.80163 ], [ 109.2857, 13.8018 ], [ 109.28568, 13.80208 ], [ 109.28597, 13.80233 ], [ 109.28606, 13.80244 ], [ 109.28629, 13.80242 ], [ 109.28643, 13.80243 ], [ 109.28665, 13.80242 ], [ 109.2866, 13.80315 ], [ 109.28661, 13.80347 ], [ 109.2866, 13.80361 ], [ 109.28633, 13.8036 ], [ 109.28624, 13.80388 ] ] ], [ [ [ 109.28643, 13.80935 ], [ 109.28633, 13.80934 ], [ 109.28633, 13.80925 ], [ 109.28643, 13.80925 ], [ 109.28643, 13.80935 ] ] ], [ [ [ 109.20595, 13.81139 ], [ 109.20606, 13.81142 ], [ 109.20598, 13.8115 ], [ 109.20595, 13.81139 ] ] ], [ [ [ 109.20595, 13.81139 ], [ 109.20557, 13.81112 ], [ 109.20471, 13.81043 ], [ 109.20392, 13.80988 ], [ 109.20263, 13.80913 ], [ 109.20175, 13.80884 ], [ 109.2001, 13.80855 ], [ 109.19877, 13.80859 ], [ 109.19777, 13.80898 ], [ 109.19681, 13.80978 ], [ 109.19626, 13.8106 ], [ 109.19594, 13.81156 ], [ 109.19581, 13.81317 ], [ 109.19498, 13.81307 ], [ 109.19275, 13.81297 ], [ 109.19267, 13.81094 ], [ 109.19228, 13.80998 ], [ 109.19155, 13.80913 ], [ 109.19071, 13.80859 ], [ 109.18976, 13.80829 ], [ 109.18829, 13.80833 ], [ 109.18724, 13.80877 ], [ 109.1868, 13.80894 ], [ 109.18669, 13.80852 ], [ 109.18729, 13.80834 ], [ 109.18791, 13.8081 ], [ 109.18886, 13.8073 ], [ 109.18941, 13.80648 ], [ 109.18972, 13.80554 ], [ 109.18967, 13.80405 ], [ 109.18927, 13.80307 ], [ 109.18847, 13.80216 ], [ 109.18746, 13.80157 ], [ 109.18706, 13.80149 ], [ 109.18712, 13.79972 ], [ 109.18784, 13.79751 ], [ 109.18793, 13.79743 ], [ 109.18876, 13.79766 ], [ 109.19079, 13.79777 ], [ 109.19204, 13.79741 ], [ 109.19325, 13.79688 ], [ 109.19372, 13.79771 ], [ 109.19459, 13.79867 ], [ 109.19545, 13.79921 ], [ 109.19648, 13.79953 ], [ 109.19914, 13.79964 ], [ 109.20123, 13.80028 ], [ 109.20153, 13.80161 ], [ 109.20186, 13.80238 ], [ 109.20259, 13.80324 ], [ 109.20344, 13.80377 ], [ 109.20446, 13.80409 ], [ 109.20593, 13.80401 ], [ 109.2067, 13.80424 ], [ 109.2074, 13.80441 ], [ 109.20773, 13.80548 ], [ 109.20688, 13.80593 ], [ 109.20616, 13.80652 ], [ 109.20562, 13.80734 ], [ 109.20529, 13.80834 ], [ 109.20537, 13.80969 ], [ 109.20578, 13.81084 ], [ 109.20595, 13.81139 ] ] ], [ [ [ 109.17766, 13.81926 ], [ 109.17852, 13.81976 ], [ 109.1796, 13.82001 ], [ 109.1802, 13.82034 ], [ 109.18068, 13.82056 ], [ 109.18, 13.82081 ], [ 109.17831, 13.82091 ], [ 109.17794, 13.82104 ], [ 109.17783, 13.82067 ], [ 109.17698, 13.81881 ], [ 109.17722, 13.81877 ], [ 109.17766, 13.81926 ] ] ], [ [ [ 109.1775, 13.82099 ], [ 109.17776, 13.82104 ], [ 109.17771, 13.82108 ], [ 109.17681, 13.8216 ], [ 109.17543, 13.82283 ], [ 109.17548, 13.82237 ], [ 109.17592, 13.82167 ], [ 109.17642, 13.82138 ], [ 109.1769, 13.82101 ], [ 109.17721, 13.82064 ], [ 109.1775, 13.82099 ] ] ], [ [ [ 109.27969, 13.88308 ], [ 109.2788, 13.88347 ], [ 109.27781, 13.88433 ], [ 109.27726, 13.88529 ], [ 109.27694, 13.88644 ], [ 109.27704, 13.8878 ], [ 109.27748, 13.88876 ], [ 109.27816, 13.88955 ], [ 109.27811, 13.88959 ], [ 109.27699, 13.89032 ], [ 109.27564, 13.89147 ], [ 109.27378, 13.89313 ], [ 109.27369, 13.89305 ], [ 109.27341, 13.89274 ], [ 109.27271, 13.89186 ], [ 109.27202, 13.8906 ], [ 109.27159, 13.8894 ], [ 109.2713, 13.88817 ], [ 109.2712, 13.88648 ], [ 109.27143, 13.88484 ], [ 109.27194, 13.88328 ], [ 109.27248, 13.88214 ], [ 109.27305, 13.88124 ], [ 109.27402, 13.88011 ], [ 109.27489, 13.87936 ], [ 109.2758, 13.87873 ], [ 109.277, 13.87811 ], [ 109.27841, 13.87763 ], [ 109.28007, 13.87734 ], [ 109.28162, 13.87724 ], [ 109.28326, 13.87746 ], [ 109.2846, 13.87786 ], [ 109.28579, 13.8784 ], [ 109.2867, 13.87896 ], [ 109.28782, 13.87987 ], [ 109.28854, 13.88066 ], [ 109.28919, 13.88155 ], [ 109.28992, 13.88292 ], [ 109.29038, 13.88443 ], [ 109.29054, 13.88545 ], [ 109.29062, 13.88737 ], [ 109.29048, 13.88774 ], [ 109.29034, 13.88769 ], [ 109.28935, 13.88707 ], [ 109.28843, 13.88666 ], [ 109.28715, 13.88642 ], [ 109.28571, 13.88652 ], [ 109.28484, 13.8867 ], [ 109.2848, 13.88567 ], [ 109.28457, 13.88491 ], [ 109.28403, 13.88408 ], [ 109.28317, 13.88335 ], [ 109.28219, 13.88295 ], [ 109.28093, 13.88286 ], [ 109.27969, 13.88308 ] ] ], [ [ [ 109.28643, 13.80935 ], [ 109.28681, 13.80947 ], [ 109.28787, 13.8106 ], [ 109.28806, 13.811 ], [ 109.28821, 13.81148 ], [ 109.28857, 13.81242 ], [ 109.28893, 13.81355 ], [ 109.28902, 13.81438 ], [ 109.28912, 13.81474 ], [ 109.2892, 13.8152 ], [ 109.2893, 13.81565 ], [ 109.2894, 13.8166 ], [ 109.28998, 13.81784 ], [ 109.29173, 13.81945 ], [ 109.29209, 13.81957 ], [ 109.2924, 13.8201 ], [ 109.29254, 13.82032 ], [ 109.2925, 13.82037 ], [ 109.29184, 13.82154 ], [ 109.29154, 13.82202 ], [ 109.29071, 13.82301 ], [ 109.28991, 13.82375 ], [ 109.28886, 13.8245 ], [ 109.28824, 13.82534 ], [ 109.28763, 13.82606 ], [ 109.28695, 13.82669 ], [ 109.28594, 13.82746 ], [ 109.28451, 13.82821 ], [ 109.28288, 13.82872 ], [ 109.28135, 13.82895 ], [ 109.27759, 13.82876 ], [ 109.27564, 13.82842 ], [ 109.2739, 13.82788 ], [ 109.2717, 13.82675 ], [ 109.27087, 13.82625 ], [ 109.26986, 13.82544 ], [ 109.26921, 13.82478 ], [ 109.26841, 13.82377 ], [ 109.26737, 13.82181 ], [ 109.26694, 13.82065 ], [ 109.26642, 13.81879 ], [ 109.26619, 13.81736 ], [ 109.26572, 13.8176 ], [ 109.26615, 13.81856 ], [ 109.26644, 13.81934 ], [ 109.26676, 13.82067 ], [ 109.26686, 13.82308 ], [ 109.26708, 13.82396 ], [ 109.26728, 13.82526 ], [ 109.26718, 13.82895 ], [ 109.2668, 13.83085 ], [ 109.26667, 13.83195 ], [ 109.26645, 13.83315 ], [ 109.26662, 13.83455 ], [ 109.26655, 13.83721 ], [ 109.26623, 13.83935 ], [ 109.26561, 13.84124 ], [ 109.2655, 13.84168 ], [ 109.26523, 13.84323 ], [ 109.26511, 13.84389 ], [ 109.26456, 13.84557 ], [ 109.26446, 13.84702 ], [ 109.26433, 13.84793 ], [ 109.26397, 13.84911 ], [ 109.26399, 13.85063 ], [ 109.26396, 13.85203 ], [ 109.26367, 13.85334 ], [ 109.26345, 13.85442 ], [ 109.26291, 13.85604 ], [ 109.26281, 13.85704 ], [ 109.26268, 13.85799 ], [ 109.2622, 13.85952 ], [ 109.26118, 13.86159 ], [ 109.26062, 13.86248 ], [ 109.25989, 13.86335 ], [ 109.25927, 13.86516 ], [ 109.2595, 13.86627 ], [ 109.25964, 13.86714 ], [ 109.25957, 13.86933 ], [ 109.25938, 13.87039 ], [ 109.25926, 13.87191 ], [ 109.2587, 13.87466 ], [ 109.25872, 13.87655 ], [ 109.25858, 13.87758 ], [ 109.2583, 13.87861 ], [ 109.25809, 13.8799 ], [ 109.25792, 13.88086 ], [ 109.25765, 13.88247 ], [ 109.25725, 13.88375 ], [ 109.25713, 13.8844 ], [ 109.25664, 13.88665 ], [ 109.25629, 13.88781 ], [ 109.256, 13.8893 ], [ 109.2557, 13.8903 ], [ 109.25537, 13.89159 ], [ 109.2551, 13.89249 ], [ 109.25472, 13.89327 ], [ 109.2519, 13.89329 ], [ 109.25153, 13.89332 ], [ 109.25088, 13.89326 ], [ 109.25033, 13.8933 ], [ 109.24987, 13.89346 ], [ 109.2489, 13.89354 ], [ 109.2486, 13.89224 ], [ 109.24853, 13.89205 ], [ 109.24929, 13.89135 ], [ 109.24975, 13.89049 ], [ 109.25016, 13.8889 ], [ 109.2505, 13.8878 ], [ 109.25066, 13.88658 ], [ 109.25102, 13.88557 ], [ 109.25113, 13.88506 ], [ 109.25123, 13.88461 ], [ 109.25151, 13.88344 ], [ 109.25161, 13.88245 ], [ 109.25198, 13.88157 ], [ 109.25209, 13.88109 ], [ 109.25219, 13.88039 ], [ 109.25253, 13.87852 ], [ 109.25267, 13.87739 ], [ 109.25295, 13.8766 ], [ 109.25299, 13.87534 ], [ 109.25285, 13.87468 ], [ 109.25357, 13.87122 ], [ 109.25356, 13.86981 ], [ 109.25384, 13.86902 ], [ 109.25389, 13.86721 ], [ 109.2536, 13.8663 ], [ 109.25323, 13.86575 ], [ 109.25274, 13.86516 ], [ 109.25303, 13.86444 ], [ 109.25406, 13.8629 ], [ 109.25426, 13.86214 ], [ 109.25437, 13.86076 ], [ 109.2559, 13.85935 ], [ 109.25662, 13.85801 ], [ 109.25707, 13.85694 ], [ 109.25718, 13.85492 ], [ 109.25748, 13.85427 ], [ 109.25766, 13.85375 ], [ 109.25791, 13.85302 ], [ 109.25804, 13.85221 ], [ 109.25832, 13.85116 ], [ 109.25824, 13.84968 ], [ 109.25815, 13.84864 ], [ 109.25825, 13.84797 ], [ 109.25872, 13.84693 ], [ 109.25875, 13.8458 ], [ 109.25873, 13.84446 ], [ 109.25918, 13.84362 ], [ 109.25948, 13.84279 ], [ 109.25959, 13.84228 ], [ 109.25969, 13.84153 ], [ 109.25988, 13.84066 ], [ 109.26001, 13.83992 ], [ 109.26063, 13.83819 ], [ 109.26081, 13.83686 ], [ 109.26088, 13.83466 ], [ 109.26068, 13.83346 ], [ 109.26078, 13.83241 ], [ 109.26097, 13.83136 ], [ 109.26108, 13.83018 ], [ 109.26155, 13.82806 ], [ 109.26147, 13.82492 ], [ 109.26111, 13.82404 ], [ 109.26104, 13.82104 ], [ 109.26044, 13.81982 ], [ 109.25959, 13.81894 ], [ 109.25854, 13.81835 ], [ 109.25829, 13.81787 ], [ 109.25794, 13.8168 ], [ 109.25741, 13.81599 ], [ 109.25649, 13.81497 ], [ 109.2587, 13.81488 ], [ 109.26001, 13.81447 ], [ 109.26147, 13.8138 ], [ 109.26228, 13.81322 ], [ 109.26359, 13.81186 ], [ 109.2642, 13.81083 ], [ 109.26503, 13.80913 ], [ 109.26524, 13.8085 ], [ 109.26585, 13.80773 ], [ 109.26657, 13.80623 ], [ 109.26715, 13.80484 ], [ 109.2677, 13.80413 ], [ 109.26803, 13.80469 ], [ 109.26838, 13.8052 ], [ 109.26872, 13.80626 ], [ 109.26927, 13.80708 ], [ 109.2702, 13.80788 ], [ 109.2712, 13.80829 ], [ 109.27205, 13.80831 ], [ 109.27279, 13.8083 ], [ 109.27293, 13.8093 ], [ 109.27339, 13.81024 ], [ 109.27427, 13.81123 ], [ 109.27324, 13.81182 ], [ 109.27246, 13.81269 ], [ 109.27193, 13.81367 ], [ 109.27173, 13.8146 ], [ 109.27181, 13.81598 ], [ 109.2719, 13.81643 ], [ 109.272, 13.81762 ], [ 109.27255, 13.81947 ], [ 109.27338, 13.821 ], [ 109.27429, 13.82178 ], [ 109.27623, 13.82277 ], [ 109.27734, 13.82306 ], [ 109.27845, 13.82322 ], [ 109.28147, 13.8233 ], [ 109.28237, 13.82302 ], [ 109.28321, 13.82249 ], [ 109.28386, 13.82175 ], [ 109.28471, 13.82028 ], [ 109.2859, 13.81972 ], [ 109.28683, 13.81886 ], [ 109.28732, 13.81794 ], [ 109.28753, 13.81701 ], [ 109.28744, 13.81599 ], [ 109.28725, 13.81511 ], [ 109.2873, 13.81307 ], [ 109.28687, 13.81068 ], [ 109.28666, 13.81002 ], [ 109.28647, 13.80948 ], [ 109.28643, 13.80935 ] ] ] ] } },
{ "type": "Feature", "properties": { "OBJECTID": 5, "gridcode": 5, "Shape_Length": 71350.463560635355, "Shape_Area": 35109621.198861577 }, "geometry": { "type": "MultiPolygon", "coordinates": [ [ [ [ 109.26974, 13.75802 ], [ 109.26973, 13.75847 ], [ 109.27306, 13.76063 ], [ 109.27415, 13.76113 ], [ 109.27448, 13.76127 ], [ 109.27443, 13.76222 ], [ 109.27431, 13.76276 ], [ 109.27368, 13.7639 ], [ 109.27259, 13.76487 ], [ 109.27158, 13.76533 ], [ 109.27027, 13.76544 ], [ 109.26851, 13.76523 ], [ 109.26755, 13.76483 ], [ 109.26661, 13.76402 ], [ 109.26607, 13.7632 ], [ 109.26583, 13.76242 ], [ 109.26547, 13.76176 ], [ 109.26523, 13.76098 ], [ 109.2653, 13.7595 ], [ 109.26571, 13.75852 ], [ 109.26653, 13.75762 ], [ 109.26744, 13.75711 ], [ 109.26748, 13.75706 ], [ 109.26778, 13.75716 ], [ 109.2679, 13.75738 ], [ 109.26799, 13.75787 ], [ 109.26855, 13.75774 ], [ 109.26895, 13.75755 ], [ 109.26915, 13.75797 ], [ 109.26937, 13.75775 ], [ 109.26946, 13.75793 ], [ 109.26974, 13.75802 ] ] ], [ [ [ 109.28523, 13.76358 ], [ 109.28503, 13.76451 ], [ 109.28476, 13.76527 ], [ 109.28457, 13.766 ], [ 109.28433, 13.76667 ], [ 109.28411, 13.76732 ], [ 109.28391, 13.76779 ], [ 109.28369, 13.76865 ], [ 109.28334, 13.76942 ], [ 109.28316, 13.76996 ], [ 109.28296, 13.7705 ], [ 109.28277, 13.77107 ], [ 109.28235, 13.77184 ], [ 109.28125, 13.77286 ], [ 109.28023, 13.77334 ], [ 109.27904, 13.77345 ], [ 109.27809, 13.77326 ], [ 109.27714, 13.77277 ], [ 109.27627, 13.77187 ], [ 109.2758, 13.77092 ], [ 109.27566, 13.76995 ], [ 109.27599, 13.76603 ], [ 109.27627, 13.76498 ], [ 109.27718, 13.76329 ], [ 109.27766, 13.7626 ], [ 109.27789, 13.76219 ], [ 109.27829, 13.76233 ], [ 109.2811, 13.76225 ], [ 109.28255, 13.76158 ], [ 109.28294, 13.76102 ], [ 109.28307, 13.76037 ], [ 109.2835, 13.75976 ], [ 109.28355, 13.7597 ], [ 109.28364, 13.7598 ], [ 109.28456, 13.76067 ], [ 109.28499, 13.76132 ], [ 109.28527, 13.7622 ], [ 109.28523, 13.76358 ] ] ], [ [ [ 109.28219, 13.88295 ], [ 109.28317, 13.88335 ], [ 109.28403, 13.88408 ], [ 109.28457, 13.88491 ], [ 109.2848, 13.88567 ], [ 109.28484, 13.8867 ], [ 109.28397, 13.88689 ], [ 109.28254, 13.88731 ], [ 109.27974, 13.88855 ], [ 109.27816, 13.88955 ], [ 109.27748, 13.88876 ], [ 109.27704, 13.8878 ], [ 109.27694, 13.88644 ], [ 109.27726, 13.88529 ], [ 109.27781, 13.88433 ], [ 109.2788, 13.88347 ], [ 109.27969, 13.88308 ], [ 109.28093, 13.88286 ], [ 109.28219, 13.88295 ] ] ], [ [ [ 109.20595, 13.81139 ], [ 109.20578, 13.81084 ], [ 109.20537, 13.80969 ], [ 109.20529, 13.80834 ], [ 109.20562, 13.80734 ], [ 109.20616, 13.80652 ], [ 109.20688, 13.80593 ], [ 109.20773, 13.80548 ], [ 109.2074, 13.80441 ], [ 109.2067, 13.80424 ], [ 109.20593, 13.80401 ], [ 109.20446, 13.80409 ], [ 109.20344, 13.80377 ], [ 109.20259, 13.80324 ], [ 109.20186, 13.80238 ], [ 109.20153, 13.80161 ], [ 109.20123, 13.80028 ], [ 109.19914, 13.79964 ], [ 109.19648, 13.79953 ], [ 109.19545, 13.79921 ], [ 109.19459, 13.79867 ], [ 109.19372, 13.79771 ], [ 109.19325, 13.79688 ], [ 109.19204, 13.79741 ], [ 109.19079, 13.79777 ], [ 109.18876, 13.79766 ], [ 109.18793, 13.79743 ], [ 109.18803, 13.79692 ], [ 109.18833, 13.79633 ], [ 109.18873, 13.79585 ], [ 109.18957, 13.79496 ], [ 109.18945, 13.7941 ], [ 109.18976, 13.79351 ], [ 109.18946, 13.79322 ], [ 109.19212, 13.79111 ], [ 109.1935, 13.79004 ], [ 109.19411, 13.78985 ], [ 109.195, 13.78948 ], [ 109.19621, 13.78909 ], [ 109.19774, 13.78864 ], [ 109.19817, 13.78856 ], [ 109.19835, 13.78856 ], [ 109.19835, 13.78847 ], [ 109.19845, 13.78847 ], [ 109.19872, 13.78847 ], [ 109.19873, 13.78838 ], [ 109.1991, 13.78838 ], [ 109.1991, 13.78829 ], [ 109.19972, 13.78822 ], [ 109.2008, 13.78795 ], [ 109.20086, 13.78776 ], [ 109.20122, 13.78765 ], [ 109.20416, 13.78693 ], [ 109.20456, 13.78693 ], [ 109.20548, 13.78816 ], [ 109.20614, 13.78884 ], [ 109.2072, 13.78976 ], [ 109.20849, 13.79008 ], [ 109.20903, 13.79043 ], [ 109.20921, 13.79215 ], [ 109.21023, 13.79378 ], [ 109.21134, 13.7948 ], [ 109.21282, 13.79571 ], [ 109.21339, 13.79646 ], [ 109.21377, 13.79702 ], [ 109.21498, 13.79837 ], [ 109.21531, 13.79886 ], [ 109.21569, 13.80002 ], [ 109.21618, 13.80035 ], [ 109.21825, 13.80065 ], [ 109.21847, 13.80086 ], [ 109.21873, 13.80194 ], [ 109.21926, 13.8023 ], [ 109.22151, 13.80327 ], [ 109.22243, 13.80285 ], [ 109.22403, 13.80174 ], [ 109.22496, 13.80148 ], [ 109.22783, 13.80238 ], [ 109.22857, 13.80226 ], [ 109.2303, 13.8014 ], [ 109.23541, 13.79891 ], [ 109.23861, 13.79732 ], [ 109.23958, 13.79691 ], [ 109.24541, 13.79663 ], [ 109.24708, 13.79655 ], [ 109.25198, 13.79631 ], [ 109.25993, 13.79592 ], [ 109.26271, 13.79578 ], [ 109.26273, 13.79504 ], [ 109.26234, 13.79429 ], [ 109.26236, 13.79358 ], [ 109.26209, 13.79279 ], [ 109.26207, 13.79163 ], [ 109.26219, 13.79096 ], [ 109.26233, 13.78996 ], [ 109.26253, 13.78902 ], [ 109.26397, 13.78836 ], [ 109.26584, 13.78833 ], [ 109.26664, 13.7885 ], [ 109.26755, 13.7882 ], [ 109.26975, 13.78817 ], [ 109.27069, 13.78848 ], [ 109.27133, 13.78886 ], [ 109.27182, 13.78922 ], [ 109.27215, 13.78813 ], [ 109.27274, 13.78726 ], [ 109.27361, 13.78656 ], [ 109.2746, 13.78617 ], [ 109.27628, 13.78615 ], [ 109.27717, 13.78644 ], [ 109.27863, 13.78723 ], [ 109.27946, 13.78818 ], [ 109.27978, 13.78892 ], [ 109.27996, 13.78937 ], [ 109.28126, 13.78988 ], [ 109.28223, 13.79035 ], [ 109.28332, 13.79139 ], [ 109.28381, 13.79234 ], [ 109.28394, 13.79295 ], [ 109.28388, 13.79478 ], [ 109.28394, 13.79893 ], [ 109.2836, 13.79994 ], [ 109.28311, 13.80096 ], [ 109.28301, 13.80187 ], [ 109.28263, 13.80383 ], [ 109.28272, 13.80594 ], [ 109.28297, 13.8062 ], [ 109.28401, 13.80678 ], [ 109.28499, 13.80755 ], [ 109.28565, 13.8083 ], [ 109.28603, 13.80877 ], [ 109.28615, 13.80889 ], [ 109.28619, 13.80904 ], [ 109.28633, 13.80925 ], [ 109.28633, 13.80934 ], [ 109.28643, 13.80935 ], [ 109.28647, 13.80948 ], [ 109.28666, 13.81002 ], [ 109.28687, 13.81068 ], [ 109.2873, 13.81307 ], [ 109.28725, 13.81511 ], [ 109.28744, 13.81599 ], [ 109.28753, 13.81701 ], [ 109.28732, 13.81794 ], [ 109.28683, 13.81886 ], [ 109.2859, 13.81972 ], [ 109.28471, 13.82028 ], [ 109.28386, 13.82175 ], [ 109.28321, 13.82249 ], [ 109.28237, 13.82302 ], [ 109.28147, 13.8233 ], [ 109.27845, 13.82322 ], [ 109.27734, 13.82306 ], [ 109.27623, 13.82277 ], [ 109.27429, 13.82178 ], [ 109.27338, 13.821 ], [ 109.27255, 13.81947 ], [ 109.272, 13.81762 ], [ 109.2719, 13.81643 ], [ 109.27181, 13.81598 ], [ 109.27173, 13.8146 ], [ 109.27193, 13.81367 ], [ 109.27246, 13.81269 ], [ 109.27324, 13.81182 ], [ 109.27427, 13.81123 ], [ 109.27339, 13.81024 ], [ 109.27293, 13.8093 ], [ 109.27279, 13.8083 ], [ 109.27205, 13.80831 ], [ 109.2712, 13.80829 ], [ 109.2702, 13.80788 ], [ 109.26927, 13.80708 ], [ 109.26872, 13.80626 ], [ 109.26838, 13.8052 ], [ 109.26803, 13.80469 ], [ 109.2677, 13.80413 ], [ 109.26715, 13.80484 ], [ 109.26657, 13.80623 ], [ 109.26585, 13.80773 ], [ 109.26524, 13.8085 ], [ 109.26503, 13.80913 ], [ 109.2642, 13.81083 ], [ 109.26359, 13.81186 ], [ 109.26228, 13.81322 ], [ 109.26147, 13.8138 ], [ 109.26001, 13.81447 ], [ 109.2587, 13.81488 ], [ 109.25649, 13.81497 ], [ 109.25741, 13.81599 ], [ 109.25794, 13.8168 ], [ 109.25829, 13.81787 ], [ 109.25854, 13.81835 ], [ 109.25959, 13.81894 ], [ 109.26044, 13.81982 ], [ 109.26104, 13.82104 ], [ 109.26111, 13.82404 ], [ 109.26147, 13.82492 ], [ 109.26155, 13.82806 ], [ 109.26108, 13.83018 ], [ 109.26097, 13.83136 ], [ 109.26078, 13.83241 ], [ 109.26068, 13.83346 ], [ 109.26088, 13.83466 ], [ 109.26081, 13.83686 ], [ 109.26063, 13.83819 ], [ 109.26001, 13.83992 ], [ 109.25988, 13.84066 ], [ 109.25969, 13.84153 ], [ 109.25959, 13.84228 ], [ 109.25948, 13.84279 ], [ 109.25918, 13.84362 ], [ 109.25873, 13.84446 ], [ 109.25875, 13.8458 ], [ 109.25872, 13.84693 ], [ 109.25825, 13.84797 ], [ 109.25815, 13.84864 ], [ 109.25824, 13.84968 ], [ 109.25832, 13.85116 ], [ 109.25804, 13.85221 ], [ 109.25791, 13.85302 ], [ 109.25766, 13.85375 ], [ 109.25748, 13.85427 ], [ 109.25718, 13.85492 ], [ 109.25707, 13.85694 ], [ 109.25662, 13.85801 ], [ 109.2559, 13.85935 ], [ 109.25437, 13.86076 ], [ 109.25426, 13.86214 ], [ 109.25406, 13.8629 ], [ 109.25303, 13.86444 ], [ 109.25274, 13.86516 ], [ 109.25323, 13.86575 ], [ 109.2536, 13.8663 ], [ 109.25389, 13.86721 ], [ 109.25384, 13.86902 ], [ 109.25356, 13.86981 ], [ 109.25357, 13.87122 ], [ 109.25285, 13.87468 ], [ 109.25299, 13.87534 ], [ 109.25295, 13.8766 ], [ 109.25267, 13.87739 ], [ 109.25253, 13.87852 ], [ 109.25219, 13.88039 ], [ 109.25209, 13.88109 ], [ 109.25198, 13.88157 ], [ 109.25161, 13.88245 ], [ 109.25151, 13.88344 ], [ 109.25123, 13.88461 ], [ 109.25113, 13.88506 ], [ 109.25102, 13.88557 ], [ 109.25066, 13.88658 ], [ 109.2505, 13.8878 ], [ 109.25016, 13.8889 ], [ 109.24975, 13.89049 ], [ 109.24929, 13.89135 ], [ 109.24853, 13.89205 ], [ 109.24848, 13.89154 ], [ 109.24831, 13.89119 ], [ 109.24803, 13.8911 ], [ 109.24783, 13.89048 ], [ 109.24748, 13.89037 ], [ 109.24707, 13.88941 ], [ 109.2462, 13.88926 ], [ 109.24629, 13.88873 ], [ 109.24639, 13.88865 ], [ 109.24675, 13.88677 ], [ 109.24696, 13.88585 ], [ 109.24725, 13.88468 ], [ 109.24735, 13.88395 ], [ 109.24746, 13.88311 ], [ 109.24744, 13.88127 ], [ 109.2477, 13.88078 ], [ 109.24765, 13.87715 ], [ 109.24781, 13.8767 ], [ 109.24879, 13.87509 ], [ 109.2489, 13.87456 ], [ 109.24913, 13.8738 ], [ 109.24975, 13.87106 ], [ 109.24961, 13.86977 ], [ 109.24923, 13.8686 ], [ 109.24789, 13.86557 ], [ 109.24759, 13.86437 ], [ 109.24869, 13.8615 ], [ 109.24946, 13.85957 ], [ 109.25172, 13.85428 ], [ 109.2524, 13.8519 ], [ 109.25305, 13.84992 ], [ 109.2531, 13.8484 ], [ 109.25291, 13.84699 ], [ 109.25245, 13.8444 ], [ 109.25212, 13.84215 ], [ 109.25178, 13.84038 ], [ 109.25079, 13.83884 ], [ 109.24937, 13.83615 ], [ 109.24731, 13.83214 ], [ 109.24627, 13.83017 ], [ 109.24317, 13.82427 ], [ 109.2414, 13.8209 ], [ 109.23963, 13.81754 ], [ 109.23455, 13.81831 ], [ 109.2293, 13.81909 ], [ 109.22564, 13.81914 ], [ 109.22465, 13.81882 ], [ 109.22391, 13.81838 ], [ 109.2237, 13.81807 ], [ 109.22182, 13.81532 ], [ 109.21973, 13.81248 ], [ 109.21859, 13.81149 ], [ 109.21721, 13.81125 ], [ 109.21599, 13.81135 ], [ 109.2151, 13.81156 ], [ 109.21465, 13.81197 ], [ 109.21469, 13.81459 ], [ 109.2143, 13.81572 ], [ 109.21395, 13.81617 ], [ 109.21355, 13.81637 ], [ 109.21276, 13.81638 ], [ 109.21062, 13.81617 ], [ 109.20902, 13.81631 ], [ 109.2078, 13.81651 ], [ 109.20675, 13.81669 ], [ 109.20584, 13.81654 ], [ 109.2054, 13.81625 ], [ 109.20381, 13.81454 ], [ 109.20322, 13.81407 ], [ 109.20134, 13.81251 ], [ 109.19997, 13.81213 ], [ 109.19961, 13.81246 ], [ 109.19958, 13.81335 ], [ 109.19995, 13.81408 ], [ 109.19997, 13.81489 ], [ 109.19977, 13.81544 ], [ 109.19942, 13.81696 ], [ 109.19912, 13.81725 ], [ 109.19842, 13.81753 ], [ 109.19724, 13.81754 ], [ 109.1938, 13.81713 ], [ 109.192, 13.81722 ], [ 109.1909, 13.81764 ], [ 109.18999, 13.81813 ], [ 109.18924, 13.81897 ], [ 109.18662, 13.82238 ], [ 109.18542, 13.82342 ], [ 109.18285, 13.82437 ], [ 109.18132, 13.82449 ], [ 109.17957, 13.82485 ], [ 109.17891, 13.82505 ], [ 109.17833, 13.82532 ], [ 109.17815, 13.82566 ], [ 109.17801, 13.82686 ], [ 109.17751, 13.8276 ], [ 109.1766, 13.8283 ], [ 109.17642, 13.82808 ], [ 109.17608, 13.82661 ], [ 109.17612, 13.82523 ], [ 109.17552, 13.82416 ], [ 109.17571, 13.82363 ], [ 109.17543, 13.82283 ], [ 109.17681, 13.8216 ], [ 109.17771, 13.82108 ], [ 109.17776, 13.82104 ], [ 109.17794, 13.82104 ], [ 109.17831, 13.82091 ], [ 109.18, 13.82081 ], [ 109.18068, 13.82056 ], [ 109.1802, 13.82034 ], [ 109.1796, 13.82001 ], [ 109.17852, 13.81976 ], [ 109.17766, 13.81926 ], [ 109.17722, 13.81877 ], [ 109.17754, 13.81873 ], [ 109.17899, 13.81859 ], [ 109.17966, 13.81807 ], [ 109.17977, 13.81766 ], [ 109.17988, 13.81567 ], [ 109.18003, 13.81473 ], [ 109.18023, 13.8134 ], [ 109.18059, 13.81201 ], [ 109.18137, 13.81041 ], [ 109.18224, 13.80757 ], [ 109.18282, 13.807 ], [ 109.18512, 13.80516 ], [ 109.18547, 13.80467 ], [ 109.18615, 13.8034 ], [ 109.18664, 13.80235 ], [ 109.18702, 13.80154 ], [ 109.18706, 13.80149 ], [ 109.18746, 13.80157 ], [ 109.18847, 13.80216 ], [ 109.18927, 13.80307 ], [ 109.18967, 13.80405 ], [ 109.18972, 13.80554 ], [ 109.18941, 13.80648 ], [ 109.18886, 13.8073 ], [ 109.18791, 13.8081 ], [ 109.18729, 13.80834 ], [ 109.18669, 13.80852 ], [ 109.1868, 13.80894 ], [ 109.18724, 13.80877 ], [ 109.18829, 13.80833 ], [ 109.18976, 13.80829 ], [ 109.19071, 13.80859 ], [ 109.19155, 13.80913 ], [ 109.19228, 13.80998 ], [ 109.19267, 13.81094 ], [ 109.19275, 13.81297 ], [ 109.19498, 13.81307 ], [ 109.19581, 13.81317 ], [ 109.19594, 13.81156 ], [ 109.19626, 13.8106 ], [ 109.19681, 13.80978 ], [ 109.19777, 13.80898 ], [ 109.19877, 13.80859 ], [ 109.2001, 13.80855 ], [ 109.20175, 13.80884 ], [ 109.20263, 13.80913 ], [ 109.20392, 13.80988 ], [ 109.20471, 13.81043 ], [ 109.20557, 13.81112 ], [ 109.20595, 13.81139 ], [ 109.20598, 13.8115 ], [ 109.20606, 13.81142 ], [ 109.20595, 13.81139 ] ], [ [ 109.21736, 13.80642 ], [ 109.21664, 13.80718 ], [ 109.2175, 13.80726 ], [ 109.21859, 13.80754 ], [ 109.21835, 13.80696 ], [ 109.21814, 13.80611 ], [ 109.2181, 13.80606 ], [ 109.21736, 13.80642 ] ] ] ] } }
]
}
