{
"type": "FeatureCollection",
"name": "Roadd",
"crs": { "type": "name", "properties": { "name": "urn:ogc:def:crs:OGC:1.3:CRS84" } },
"xy_coordinate_resolution": 1e-05,
"features": [
{ "type": "Feature", "properties": { "OBJECTID": 1, "gridcode": 2, "Shape_Length": 20130.070366253385, "Shape_Area": 3370915.4284192421 }, "geometry": { "type": "MultiPolygon", "coordinates": [ [ [ [ 109.28831, 13.75422 ], [ 109.2877, 13.75426 ], [ 109.28692, 13.75439 ], [ 109.28701, 13.75428 ], [ 109.28738, 13.75406 ], [ 109.28755, 13.75385 ], [ 109.28843, 13.75373 ], [ 109.28831, 13.75422 ] ] ], [ [ [ 109.29987, 13.76142 ], [ 109.29989, 13.76316 ], [ 109.29977, 13.76306 ], [ 109.29931, 13.76232 ], [ 109.29916, 13.76207 ], [ 109.29938, 13.76192 ], [ 109.29948, 13.76157 ], [ 109.29962, 13.76126 ], [ 109.29987, 13.76142 ] ] ], [ [ [ 109.26405, 13.75831 ], [ 109.26368, 13.7591 ], [ 109.26329, 13.76034 ], [ 109.26308, 13.76199 ], [ 109.26318, 13.76309 ], [ 109.26294, 13.76301 ], [ 109.26211, 13.76206 ], [ 109.26147, 13.76151 ], [ 109.2612, 13.7612 ], [ 109.26039, 13.76084 ], [ 109.26038, 13.76067 ], [ 109.26055, 13.76022 ], [ 109.26061, 13.75957 ], [ 109.26022, 13.75903 ], [ 109.26017, 13.75834 ], [ 109.26031, 13.75805 ], [ 109.26049, 13.75772 ], [ 109.2606, 13.75719 ], [ 109.26117, 13.75736 ], [ 109.26161, 13.7577 ], [ 109.26173, 13.75757 ], [ 109.26271, 13.75765 ], [ 109.26327, 13.75753 ], [ 109.26363, 13.75741 ], [ 109.26382, 13.75763 ], [ 109.26443, 13.75767 ], [ 109.26405, 13.75831 ] ] ], [ [ [ 109.28936, 13.79495 ], [ 109.28931, 13.79499 ], [ 109.28923, 13.79479 ], [ 109.28931, 13.79418 ], [ 109.28945, 13.79386 ], [ 109.28962, 13.79388 ], [ 109.28952, 13.79449 ], [ 109.28964, 13.79458 ], [ 109.28972, 13.7948 ], [ 109.28944, 13.79476 ], [ 109.28936, 13.79495 ] ] ], [ [ [ 109.26604, 13.78385 ], [ 109.2659, 13.78507 ], [ 109.26541, 13.78703 ], [ 109.26526, 13.789 ], [ 109.26516, 13.78954 ], [ 109.26503, 13.79058 ], [ 109.26507, 13.79193 ], [ 109.26534, 13.79324 ], [ 109.26397, 13.79405 ], [ 109.26276, 13.79508 ], [ 109.26232, 13.7943 ], [ 109.26236, 13.79358 ], [ 109.26209, 13.79281 ], [ 109.26205, 13.79172 ], [ 109.26219, 13.79096 ], [ 109.26235, 13.78977 ], [ 109.26263, 13.78865 ], [ 109.26338, 13.78823 ], [ 109.26351, 13.78799 ], [ 109.2636, 13.78726 ], [ 109.26398, 13.7868 ], [ 109.2641, 13.78468 ], [ 109.26525, 13.78447 ], [ 109.26576, 13.7838 ], [ 109.26608, 13.78362 ], [ 109.26604, 13.78385 ] ] ], [ [ [ 109.25309, 13.80139 ], [ 109.25195, 13.80157 ], [ 109.25028, 13.80211 ], [ 109.24927, 13.80262 ], [ 109.24759, 13.8032 ], [ 109.24625, 13.80393 ], [ 109.24505, 13.80487 ], [ 109.24405, 13.80604 ], [ 109.2424, 13.80575 ], [ 109.23638, 13.80461 ], [ 109.23474, 13.8043 ], [ 109.22991, 13.80339 ], [ 109.22974, 13.80194 ], [ 109.2297, 13.80171 ], [ 109.2303, 13.8014 ], [ 109.23541, 13.79891 ], [ 109.23706, 13.79807 ], [ 109.23957, 13.79691 ], [ 109.24541, 13.79663 ], [ 109.24707, 13.79655 ], [ 109.25198, 13.79631 ], [ 109.26133, 13.79585 ], [ 109.2616, 13.79584 ], [ 109.2622, 13.7958 ], [ 109.2615, 13.79685 ], [ 109.26102, 13.79795 ], [ 109.26065, 13.7992 ], [ 109.25926, 13.79972 ], [ 109.25791, 13.80051 ], [ 109.25653, 13.80171 ], [ 109.25548, 13.80149 ], [ 109.25452, 13.80137 ], [ 109.25309, 13.80139 ] ] ], [ [ [ 109.24249, 13.82286 ], [ 109.24239, 13.82286 ], [ 109.24239, 13.82277 ], [ 109.24249, 13.82277 ], [ 109.24249, 13.82286 ] ] ], [ [ [ 109.24249, 13.82286 ], [ 109.24307, 13.82292 ], [ 109.24948, 13.82409 ], [ 109.25008, 13.82445 ], [ 109.25023, 13.82579 ], [ 109.24985, 13.82793 ], [ 109.24965, 13.82937 ], [ 109.24946, 13.83268 ], [ 109.24948, 13.83418 ], [ 109.24935, 13.83573 ], [ 109.24923, 13.83584 ], [ 109.24919, 13.83579 ], [ 109.24737, 13.83225 ], [ 109.24713, 13.8318 ], [ 109.24258, 13.82315 ], [ 109.24249, 13.82286 ] ] ], [ [ [ 109.29841, 13.84259 ], [ 109.29845, 13.84323 ], [ 109.29843, 13.84353 ], [ 109.29806, 13.84363 ], [ 109.29782, 13.84399 ], [ 109.29769, 13.84427 ], [ 109.29759, 13.84444 ], [ 109.2975, 13.8449 ], [ 109.29737, 13.84525 ], [ 109.29704, 13.84507 ], [ 109.2969, 13.84503 ], [ 109.29683, 13.84496 ], [ 109.29621, 13.84448 ], [ 109.29509, 13.8438 ], [ 109.29596, 13.84282 ], [ 109.29668, 13.84172 ], [ 109.2971, 13.84081 ], [ 109.29761, 13.83993 ], [ 109.29792, 13.83913 ], [ 109.29805, 13.83871 ], [ 109.2981, 13.83875 ], [ 109.29819, 13.83885 ], [ 109.29847, 13.83884 ], [ 109.29856, 13.83915 ], [ 109.29855, 13.83932 ], [ 109.29805, 13.83929 ], [ 109.29822, 13.83975 ], [ 109.29806, 13.84019 ], [ 109.29818, 13.84067 ], [ 109.29846, 13.84065 ], [ 109.29882, 13.84078 ], [ 109.29845, 13.8411 ], [ 109.29845, 13.84123 ], [ 109.29874, 13.84148 ], [ 109.29905, 13.84147 ], [ 109.29921, 13.84148 ], [ 109.29916, 13.84221 ], [ 109.29879, 13.84219 ], [ 109.29841, 13.84259 ] ] ], [ [ [ 109.29338, 13.89589 ], [ 109.29333, 13.89593 ], [ 109.29311, 13.89619 ], [ 109.29301, 13.89535 ], [ 109.2932, 13.89526 ], [ 109.29338, 13.89589 ] ] ], [ [ [ 109.29338, 13.89589 ], [ 109.29357, 13.89582 ], [ 109.29369, 13.89613 ], [ 109.29397, 13.89649 ], [ 109.29366, 13.89666 ], [ 109.29342, 13.89634 ], [ 109.29338, 13.89589 ] ] ] ] } },
{ "type": "Feature", "properties": { "OBJECTID": 2, "gridcode": 3, "Shape_Length": 67101.233593480458, "Shape_Area": 8472657.1258544903 }, "geometry": { "type": "MultiPolygon", "coordinates": [ [ [ [ 109.28846, 13.7582 ], [ 109.28788, 13.75826 ], [ 109.28707, 13.75854 ], [ 109.28608, 13.75915 ], [ 109.28531, 13.76001 ], [ 109.2848, 13.75931 ], [ 109.28421, 13.7588 ], [ 109.28427, 13.75825 ], [ 109.28463, 13.75749 ], [ 109.28478, 13.75723 ], [ 109.28502, 13.75672 ], [ 109.28562, 13.75621 ], [ 109.28634, 13.75497 ], [ 109.28667, 13.75461 ], [ 109.28692, 13.75439 ], [ 109.2877, 13.75426 ], [ 109.28831, 13.75422 ], [ 109.28839, 13.75445 ], [ 109.28833, 13.75521 ], [ 109.28837, 13.75535 ], [ 109.28867, 13.75501 ], [ 109.28891, 13.75491 ], [ 109.28922, 13.75456 ], [ 109.28917, 13.75503 ], [ 109.28873, 13.7554 ], [ 109.28862, 13.75563 ], [ 109.28847, 13.7559 ], [ 109.28867, 13.75625 ], [ 109.28907, 13.75603 ], [ 109.2894, 13.75589 ], [ 109.28967, 13.75591 ], [ 109.28962, 13.75642 ], [ 109.289, 13.75685 ], [ 109.28852, 13.75706 ], [ 109.28823, 13.75773 ], [ 109.28825, 13.75799 ], [ 109.28859, 13.75797 ], [ 109.28869, 13.758 ], [ 109.28856, 13.75811 ], [ 109.28846, 13.75811 ], [ 109.28846, 13.7582 ] ] ], [ [ [ 109.29835, 13.76565 ], [ 109.29782, 13.76602 ], [ 109.29714, 13.76678 ], [ 109.29702, 13.76742 ], [ 109.29681, 13.76748 ], [ 109.29678, 13.76661 ], [ 109.29663, 13.76588 ], [ 109.29644, 13.76541 ], [ 109.29637, 13.76513 ], [ 109.29649, 13.76497 ], [ 109.29752, 13.76481 ], [ 109.29789, 13.76454 ], [ 109.29818, 13.76438 ], [ 109.29826, 13.764 ], [ 109.29837, 13.76365 ], [ 109.29848, 13.76303 ], [ 109.29868, 13.76278 ], [ 109.29884, 13.76266 ], [ 109.29903, 13.76217 ], [ 109.29916, 13.76207 ], [ 109.29931, 13.76232 ], [ 109.29977, 13.76306 ], [ 109.29989, 13.76316 ], [ 109.29984, 13.76484 ], [ 109.29972, 13.76503 ], [ 109.29976, 13.76555 ], [ 109.29956, 13.76641 ], [ 109.29927, 13.76654 ], [ 109.29891, 13.76573 ], [ 109.29879, 13.76562 ], [ 109.29835, 13.76565 ] ] ], [ [ [ 109.29691, 13.76902 ], [ 109.29678, 13.76957 ], [ 109.29651, 13.7701 ], [ 109.29641, 13.77002 ], [ 109.29615, 13.76966 ], [ 109.29639, 13.76916 ], [ 109.29643, 13.76892 ], [ 109.29667, 13.76887 ], [ 109.29691, 13.76902 ] ] ], [ [ [ 109.28297, 13.77597 ], [ 109.2833, 13.77466 ], [ 109.28341, 13.77222 ], [ 109.28352, 13.77096 ], [ 109.28378, 13.76758 ], [ 109.28415, 13.76717 ], [ 109.28384, 13.76829 ], [ 109.28371, 13.76917 ], [ 109.28393, 13.77043 ], [ 109.28465, 13.77205 ], [ 109.28439, 13.77279 ], [ 109.28383, 13.77504 ], [ 109.28315, 13.77581 ], [ 109.28297, 13.77597 ] ] ], [ [ [ 109.28297, 13.77597 ], [ 109.28293, 13.77617 ], [ 109.28285, 13.77602 ], [ 109.28297, 13.77597 ] ] ], [ [ [ 109.2825, 13.77687 ], [ 109.28253, 13.77676 ], [ 109.28261, 13.77684 ], [ 109.2825, 13.77687 ] ] ], [ [ [ 109.2825, 13.77687 ], [ 109.2825, 13.77705 ], [ 109.28241, 13.77705 ], [ 109.28241, 13.77687 ], [ 109.2825, 13.77687 ] ] ], [ [ [ 109.28241, 13.77705 ], [ 109.28236, 13.77737 ], [ 109.28222, 13.77811 ], [ 109.28228, 13.77967 ], [ 109.28152, 13.78123 ], [ 109.28103, 13.78178 ], [ 109.28044, 13.78258 ], [ 109.28, 13.78359 ], [ 109.27966, 13.78435 ], [ 109.27936, 13.78466 ], [ 109.2796, 13.78357 ], [ 109.27992, 13.78196 ], [ 109.28006, 13.78134 ], [ 109.28025, 13.78063 ], [ 109.28051, 13.77992 ], [ 109.2808, 13.7794 ], [ 109.28169, 13.77792 ], [ 109.28199, 13.77755 ], [ 109.28228, 13.77716 ], [ 109.28241, 13.77705 ] ] ], [ [ [ 109.27936, 13.78482 ], [ 109.27928, 13.78474 ], [ 109.27939, 13.78471 ], [ 109.27936, 13.78482 ] ] ], [ [ [ 109.29143, 13.78945 ], [ 109.29127, 13.78971 ], [ 109.29108, 13.79016 ], [ 109.29096, 13.79025 ], [ 109.29088, 13.78942 ], [ 109.29138, 13.78922 ], [ 109.29143, 13.78945 ] ] ], [ [ [ 109.28587, 13.80073 ], [ 109.28551, 13.80163 ], [ 109.28575, 13.80184 ], [ 109.28565, 13.80193 ], [ 109.2844, 13.8017 ], [ 109.28452, 13.80114 ], [ 109.28488, 13.79998 ], [ 109.2852, 13.79883 ], [ 109.28545, 13.79718 ], [ 109.28515, 13.79454 ], [ 109.28532, 13.79348 ], [ 109.28573, 13.79171 ], [ 109.28633, 13.79068 ], [ 109.28774, 13.78821 ], [ 109.2883, 13.78708 ], [ 109.28886, 13.78645 ], [ 109.28921, 13.78599 ], [ 109.28987, 13.78465 ], [ 109.29153, 13.78437 ], [ 109.29202, 13.78421 ], [ 109.29216, 13.78417 ], [ 109.292, 13.78483 ], [ 109.29155, 13.78511 ], [ 109.29129, 13.78539 ], [ 109.29148, 13.78633 ], [ 109.29131, 13.78663 ], [ 109.29107, 13.78673 ], [ 109.29082, 13.78686 ], [ 109.2907, 13.78749 ], [ 109.29107, 13.78737 ], [ 109.29127, 13.78738 ], [ 109.29125, 13.78783 ], [ 109.29144, 13.78801 ], [ 109.29143, 13.78827 ], [ 109.29153, 13.78836 ], [ 109.29162, 13.78848 ], [ 109.29142, 13.78901 ], [ 109.29087, 13.78926 ], [ 109.29078, 13.78981 ], [ 109.2901, 13.79058 ], [ 109.28994, 13.79024 ], [ 109.28976, 13.79043 ], [ 109.28924, 13.79067 ], [ 109.28901, 13.79101 ], [ 109.28924, 13.79233 ], [ 109.28909, 13.7926 ], [ 109.289, 13.7928 ], [ 109.28919, 13.79335 ], [ 109.28916, 13.79404 ], [ 109.28931, 13.79418 ], [ 109.28923, 13.79479 ], [ 109.28931, 13.79499 ], [ 109.28926, 13.79504 ], [ 109.28916, 13.79504 ], [ 109.28899, 13.79523 ], [ 109.28889, 13.79512 ], [ 109.2888, 13.79531 ], [ 109.28851, 13.79544 ], [ 109.28824, 13.79585 ], [ 109.28779, 13.79641 ], [ 109.28768, 13.79629 ], [ 109.28738, 13.79649 ], [ 109.28721, 13.79704 ], [ 109.28675, 13.79767 ], [ 109.28629, 13.79916 ], [ 109.28617, 13.80013 ], [ 109.28673, 13.80026 ], [ 109.28681, 13.80038 ], [ 109.2866, 13.80075 ], [ 109.28621, 13.80054 ], [ 109.28587, 13.80073 ] ] ], [ [ [ 109.25072, 13.8064 ], [ 109.24989, 13.80659 ], [ 109.24928, 13.80679 ], [ 109.2483, 13.80737 ], [ 109.24742, 13.80824 ], [ 109.24689, 13.80893 ], [ 109.24642, 13.80953 ], [ 109.24587, 13.81042 ], [ 109.241, 13.80953 ], [ 109.23552, 13.80849 ], [ 109.23388, 13.80818 ], [ 109.22951, 13.80736 ], [ 109.22847, 13.80716 ], [ 109.22779, 13.80693 ], [ 109.22652, 13.80668 ], [ 109.22604, 13.80608 ], [ 109.22575, 13.80262 ], [ 109.22554, 13.80168 ], [ 109.22604, 13.80182 ], [ 109.22782, 13.80237 ], [ 109.22848, 13.80227 ], [ 109.2297, 13.80171 ], [ 109.22974, 13.80194 ], [ 109.22991, 13.80339 ], [ 109.23474, 13.8043 ], [ 109.23638, 13.80461 ], [ 109.2424, 13.80575 ], [ 109.24405, 13.80604 ], [ 109.24505, 13.80487 ], [ 109.24625, 13.80393 ], [ 109.24759, 13.8032 ], [ 109.24927, 13.80262 ], [ 109.25028, 13.80211 ], [ 109.25195, 13.80157 ], [ 109.25309, 13.80139 ], [ 109.25452, 13.80137 ], [ 109.25548, 13.80149 ], [ 109.25653, 13.80171 ], [ 109.25791, 13.80051 ], [ 109.25926, 13.79972 ], [ 109.26065, 13.7992 ], [ 109.26102, 13.79795 ], [ 109.2615, 13.79685 ], [ 109.2622, 13.7958 ], [ 109.26269, 13.79575 ], [ 109.26276, 13.79508 ], [ 109.26397, 13.79405 ], [ 109.26534, 13.79324 ], [ 109.26507, 13.79193 ], [ 109.26503, 13.79058 ], [ 109.26516, 13.78954 ], [ 109.26526, 13.789 ], [ 109.26541, 13.78703 ], [ 109.2659, 13.78507 ], [ 109.26604, 13.78385 ], [ 109.26608, 13.78362 ], [ 109.2667, 13.78356 ], [ 109.26724, 13.78332 ], [ 109.2677, 13.78305 ], [ 109.26899, 13.78238 ], [ 109.26911, 13.78155 ], [ 109.26948, 13.78104 ], [ 109.26919, 13.78049 ], [ 109.26867, 13.77974 ], [ 109.26856, 13.77944 ], [ 109.26832, 13.77843 ], [ 109.26731, 13.77749 ], [ 109.26712, 13.77627 ], [ 109.26693, 13.77592 ], [ 109.26702, 13.77534 ], [ 109.2673, 13.77485 ], [ 109.26731, 13.77456 ], [ 109.26704, 13.77362 ], [ 109.26713, 13.77292 ], [ 109.26737, 13.77226 ], [ 109.26696, 13.77167 ], [ 109.26695, 13.77129 ], [ 109.26699, 13.77049 ], [ 109.2666, 13.77013 ], [ 109.26678, 13.76955 ], [ 109.26729, 13.76872 ], [ 109.26773, 13.76776 ], [ 109.2676, 13.76738 ], [ 109.26702, 13.76676 ], [ 109.26635, 13.7665 ], [ 109.26565, 13.766 ], [ 109.26492, 13.76572 ], [ 109.26437, 13.7652 ], [ 109.26402, 13.76461 ], [ 109.26352, 13.7639 ], [ 109.26323, 13.76322 ], [ 109.26318, 13.76309 ], [ 109.26308, 13.76199 ], [ 109.26329, 13.76034 ], [ 109.26368, 13.7591 ], [ 109.26405, 13.75831 ], [ 109.26443, 13.75767 ], [ 109.26525, 13.7576 ], [ 109.26549, 13.75773 ], [ 109.26569, 13.75781 ], [ 109.26647, 13.7573 ], [ 109.26745, 13.75702 ], [ 109.26787, 13.75724 ], [ 109.26798, 13.75784 ], [ 109.2684, 13.75782 ], [ 109.26895, 13.75754 ], [ 109.26915, 13.75797 ], [ 109.26937, 13.75774 ], [ 109.26946, 13.75793 ], [ 109.26974, 13.75802 ], [ 109.26969, 13.75816 ], [ 109.26909, 13.7585 ], [ 109.26842, 13.75902 ], [ 109.26785, 13.75977 ], [ 109.26749, 13.76048 ], [ 109.2673, 13.76104 ], [ 109.26712, 13.7621 ], [ 109.2673, 13.76319 ], [ 109.26756, 13.76393 ], [ 109.2681, 13.76482 ], [ 109.26867, 13.76552 ], [ 109.26838, 13.76705 ], [ 109.26827, 13.76943 ], [ 109.26846, 13.77055 ], [ 109.26834, 13.77184 ], [ 109.26824, 13.7734 ], [ 109.26843, 13.77454 ], [ 109.26879, 13.77549 ], [ 109.26943, 13.77654 ], [ 109.27025, 13.77748 ], [ 109.27117, 13.77922 ], [ 109.27083, 13.78062 ], [ 109.27054, 13.78209 ], [ 109.27009, 13.7841 ], [ 109.26987, 13.78588 ], [ 109.26943, 13.78768 ], [ 109.26932, 13.78948 ], [ 109.26914, 13.79033 ], [ 109.26904, 13.79094 ], [ 109.26922, 13.79203 ], [ 109.26942, 13.79261 ], [ 109.26982, 13.79338 ], [ 109.27053, 13.79423 ], [ 109.27245, 13.79548 ], [ 109.27383, 13.79606 ], [ 109.27464, 13.79629 ], [ 109.27565, 13.79675 ], [ 109.27632, 13.79704 ], [ 109.27628, 13.7973 ], [ 109.27574, 13.79702 ], [ 109.27534, 13.79683 ], [ 109.27477, 13.79664 ], [ 109.27369, 13.79647 ], [ 109.27253, 13.79665 ], [ 109.27148, 13.79703 ], [ 109.27051, 13.79663 ], [ 109.27015, 13.79652 ], [ 109.26906, 13.79634 ], [ 109.26795, 13.79652 ], [ 109.26736, 13.79672 ], [ 109.2666, 13.79709 ], [ 109.26583, 13.79769 ], [ 109.26525, 13.79844 ], [ 109.26489, 13.79915 ], [ 109.2647, 13.7997 ], [ 109.26452, 13.80076 ], [ 109.26471, 13.80185 ], [ 109.26496, 13.8026 ], [ 109.26551, 13.80349 ], [ 109.26454, 13.8031 ], [ 109.26412, 13.80296 ], [ 109.263, 13.80281 ], [ 109.26189, 13.80299 ], [ 109.2613, 13.80318 ], [ 109.26054, 13.80356 ], [ 109.25977, 13.80415 ], [ 109.25919, 13.8049 ], [ 109.25867, 13.80593 ], [ 109.25764, 13.80702 ], [ 109.25681, 13.80629 ], [ 109.2564, 13.80599 ], [ 109.25567, 13.80564 ], [ 109.25504, 13.80543 ], [ 109.25392, 13.80528 ], [ 109.25279, 13.80546 ], [ 109.25177, 13.80579 ], [ 109.25072, 13.8064 ] ] ], [ [ [ 109.28868, 13.81274 ], [ 109.28894, 13.81365 ], [ 109.28898, 13.81406 ], [ 109.28893, 13.81402 ], [ 109.28877, 13.81362 ], [ 109.28838, 13.81303 ], [ 109.28828, 13.81252 ], [ 109.28853, 13.81234 ], [ 109.28868, 13.81274 ] ] ], [ [ [ 109.28934, 13.8156 ], [ 109.28934, 13.81569 ], [ 109.28925, 13.81569 ], [ 109.28925, 13.8156 ], [ 109.28934, 13.8156 ] ] ], [ [ [ 109.2329, 13.81697 ], [ 109.23729, 13.8178 ], [ 109.23734, 13.81786 ], [ 109.23713, 13.81793 ], [ 109.22946, 13.81907 ], [ 109.22744, 13.81914 ], [ 109.22823, 13.81829 ], [ 109.22865, 13.81775 ], [ 109.22925, 13.81629 ], [ 109.2329, 13.81697 ] ] ], [ [ [ 109.29817, 13.83025 ], [ 109.29787, 13.83073 ], [ 109.29774, 13.83085 ], [ 109.29798, 13.8296 ], [ 109.29786, 13.82837 ], [ 109.29765, 13.8277 ], [ 109.29731, 13.82699 ], [ 109.2968, 13.8263 ], [ 109.29574, 13.82532 ], [ 109.29478, 13.8243 ], [ 109.29384, 13.82372 ], [ 109.29308, 13.82346 ], [ 109.29197, 13.82326 ], [ 109.2909, 13.82341 ], [ 109.29031, 13.82358 ], [ 109.28988, 13.82378 ], [ 109.28945, 13.82399 ], [ 109.28926, 13.82339 ], [ 109.28893, 13.82268 ], [ 109.2886, 13.82224 ], [ 109.28813, 13.82168 ], [ 109.28778, 13.82096 ], [ 109.28718, 13.82009 ], [ 109.28794, 13.81955 ], [ 109.28857, 13.81882 ], [ 109.28895, 13.81811 ], [ 109.28918, 13.8175 ], [ 109.28929, 13.81691 ], [ 109.28933, 13.81642 ], [ 109.28938, 13.81646 ], [ 109.28947, 13.81673 ], [ 109.28996, 13.81779 ], [ 109.29168, 13.81943 ], [ 109.29209, 13.81957 ], [ 109.29265, 13.82051 ], [ 109.29393, 13.82141 ], [ 109.29521, 13.82159 ], [ 109.29554, 13.82143 ], [ 109.29595, 13.82124 ], [ 109.29619, 13.82149 ], [ 109.2964, 13.82214 ], [ 109.29621, 13.82249 ], [ 109.29636, 13.82293 ], [ 109.29652, 13.82342 ], [ 109.29729, 13.82411 ], [ 109.29756, 13.82383 ], [ 109.29771, 13.82447 ], [ 109.29786, 13.82403 ], [ 109.29826, 13.82424 ], [ 109.29838, 13.82475 ], [ 109.29848, 13.82484 ], [ 109.29857, 13.82512 ], [ 109.29763, 13.82571 ], [ 109.29764, 13.82611 ], [ 109.29826, 13.8267 ], [ 109.29874, 13.82647 ], [ 109.29895, 13.82647 ], [ 109.29911, 13.82667 ], [ 109.29892, 13.82739 ], [ 109.29892, 13.82773 ], [ 109.29879, 13.82798 ], [ 109.29892, 13.8281 ], [ 109.299, 13.82828 ], [ 109.29919, 13.82846 ], [ 109.29918, 13.829 ], [ 109.29937, 13.829 ], [ 109.29923, 13.82965 ], [ 109.29937, 13.82991 ], [ 109.29945, 13.83014 ], [ 109.299, 13.8299 ], [ 109.29881, 13.82981 ], [ 109.29863, 13.82963 ], [ 109.29816, 13.82954 ], [ 109.29817, 13.83025 ] ] ], [ [ [ 109.29792, 13.83112 ], [ 109.29795, 13.83101 ], [ 109.29803, 13.83109 ], [ 109.29792, 13.83112 ] ] ], [ [ [ 109.24081, 13.81847 ], [ 109.24767, 13.81972 ], [ 109.25162, 13.82045 ], [ 109.25244, 13.82129 ], [ 109.25323, 13.82184 ], [ 109.25395, 13.82219 ], [ 109.2545, 13.82237 ], [ 109.25437, 13.82272 ], [ 109.25426, 13.82304 ], [ 109.25409, 13.8241 ], [ 109.25428, 13.82527 ], [ 109.25425, 13.8264 ], [ 109.25387, 13.8285 ], [ 109.25373, 13.82927 ], [ 109.25353, 13.83271 ], [ 109.25355, 13.83421 ], [ 109.2534, 13.83595 ], [ 109.25313, 13.83722 ], [ 109.25277, 13.83853 ], [ 109.2525, 13.83957 ], [ 109.25212, 13.84159 ], [ 109.25206, 13.84164 ], [ 109.25201, 13.84151 ], [ 109.25176, 13.84035 ], [ 109.25079, 13.83884 ], [ 109.24929, 13.836 ], [ 109.24923, 13.83584 ], [ 109.24935, 13.83573 ], [ 109.24948, 13.83418 ], [ 109.24946, 13.83268 ], [ 109.24965, 13.82937 ], [ 109.24985, 13.82793 ], [ 109.25023, 13.82579 ], [ 109.25008, 13.82445 ], [ 109.24948, 13.82409 ], [ 109.24307, 13.82292 ], [ 109.24249, 13.82286 ], [ 109.24249, 13.82277 ], [ 109.24239, 13.82277 ], [ 109.24199, 13.82202 ], [ 109.24007, 13.81837 ], [ 109.24002, 13.81833 ], [ 109.24081, 13.81847 ] ] ], [ [ [ 109.29792, 13.83112 ], [ 109.29788, 13.83125 ], [ 109.29772, 13.83153 ], [ 109.29817, 13.83152 ], [ 109.29814, 13.83229 ], [ 109.29815, 13.83269 ], [ 109.29805, 13.83288 ], [ 109.29795, 13.83361 ], [ 109.29779, 13.83378 ], [ 109.29767, 13.83341 ], [ 109.29751, 13.83374 ], [ 109.297, 13.83406 ], [ 109.29603, 13.83507 ], [ 109.2959, 13.83597 ], [ 109.29619, 13.83651 ], [ 109.29676, 13.83704 ], [ 109.29727, 13.83702 ], [ 109.29737, 13.83722 ], [ 109.29756, 13.83721 ], [ 109.29754, 13.83758 ], [ 109.29755, 13.8379 ], [ 109.29794, 13.8377 ], [ 109.2979, 13.83846 ], [ 109.29805, 13.83871 ], [ 109.29792, 13.83913 ], [ 109.29761, 13.83993 ], [ 109.2971, 13.84081 ], [ 109.29668, 13.84172 ], [ 109.29596, 13.84282 ], [ 109.29509, 13.8438 ], [ 109.29621, 13.84448 ], [ 109.29683, 13.84496 ], [ 109.2969, 13.84503 ], [ 109.29679, 13.84511 ], [ 109.29609, 13.84596 ], [ 109.29585, 13.8465 ], [ 109.29551, 13.84676 ], [ 109.29555, 13.84708 ], [ 109.29585, 13.84705 ], [ 109.2957, 13.84756 ], [ 109.29534, 13.84735 ], [ 109.29484, 13.84762 ], [ 109.29499, 13.84786 ], [ 109.29483, 13.84804 ], [ 109.2945, 13.84785 ], [ 109.29427, 13.84787 ], [ 109.29401, 13.84781 ], [ 109.29342, 13.84744 ], [ 109.29286, 13.84718 ], [ 109.29227, 13.847 ], [ 109.29122, 13.84685 ], [ 109.2901, 13.84703 ], [ 109.2895, 13.84724 ], [ 109.29005, 13.84607 ], [ 109.29033, 13.84513 ], [ 109.29055, 13.84354 ], [ 109.29047, 13.842 ], [ 109.29106, 13.84175 ], [ 109.29164, 13.84144 ], [ 109.29239, 13.84085 ], [ 109.29303, 13.84 ], [ 109.29347, 13.83899 ], [ 109.29381, 13.83846 ], [ 109.29416, 13.83773 ], [ 109.29441, 13.83647 ], [ 109.29461, 13.83612 ], [ 109.29487, 13.83557 ], [ 109.29507, 13.83476 ], [ 109.29557, 13.83406 ], [ 109.2961, 13.83314 ], [ 109.29694, 13.83224 ], [ 109.2973, 13.83177 ], [ 109.29768, 13.83099 ], [ 109.29774, 13.83094 ], [ 109.29774, 13.83112 ], [ 109.29792, 13.83112 ] ] ], [ [ [ 109.27001, 13.85325 ], [ 109.26998, 13.85336 ], [ 109.2699, 13.85328 ], [ 109.27001, 13.85325 ] ] ], [ [ [ 109.29498, 13.85636 ], [ 109.29492, 13.85652 ], [ 109.29487, 13.8564 ], [ 109.29487, 13.85631 ], [ 109.29498, 13.85636 ] ] ], [ [ [ 109.27001, 13.85325 ], [ 109.27006, 13.85275 ], [ 109.27053, 13.85002 ], [ 109.27103, 13.84697 ], [ 109.27137, 13.84522 ], [ 109.2752, 13.84592 ], [ 109.27615, 13.84601 ], [ 109.27726, 13.84584 ], [ 109.27785, 13.84564 ], [ 109.27862, 13.84527 ], [ 109.27938, 13.84467 ], [ 109.27994, 13.84395 ], [ 109.28065, 13.84397 ], [ 109.2802, 13.84451 ], [ 109.2797, 13.84518 ], [ 109.27935, 13.84589 ], [ 109.27913, 13.84653 ], [ 109.27898, 13.84767 ], [ 109.27875, 13.84829 ], [ 109.27841, 13.84978 ], [ 109.27775, 13.85072 ], [ 109.27746, 13.8513 ], [ 109.27722, 13.852 ], [ 109.27709, 13.85337 ], [ 109.27728, 13.85452 ], [ 109.27712, 13.85537 ], [ 109.27715, 13.85759 ], [ 109.27707, 13.85768 ], [ 109.27682, 13.8565 ], [ 109.27667, 13.85608 ], [ 109.27626, 13.85529 ], [ 109.27549, 13.8544 ], [ 109.27472, 13.85384 ], [ 109.27391, 13.85344 ], [ 109.2729, 13.8532 ], [ 109.27142, 13.85303 ], [ 109.27033, 13.85321 ], [ 109.27001, 13.85325 ] ] ], [ [ [ 109.29383, 13.85974 ], [ 109.29387, 13.85951 ], [ 109.29402, 13.85917 ], [ 109.29417, 13.85844 ], [ 109.29425, 13.85752 ], [ 109.29431, 13.85749 ], [ 109.29436, 13.85805 ], [ 109.29454, 13.85855 ], [ 109.29489, 13.85886 ], [ 109.29458, 13.85899 ], [ 109.29415, 13.85956 ], [ 109.29383, 13.85974 ] ] ], [ [ [ 109.29383, 13.85974 ], [ 109.29377, 13.86018 ], [ 109.29364, 13.86028 ], [ 109.29372, 13.85982 ], [ 109.29383, 13.85974 ] ] ], [ [ [ 109.24914, 13.86051 ], [ 109.24914, 13.8606 ], [ 109.24905, 13.8606 ], [ 109.24905, 13.86051 ], [ 109.24914, 13.86051 ] ] ], [ [ [ 109.2482, 13.86285 ], [ 109.24835, 13.86237 ], [ 109.249, 13.86073 ], [ 109.24905, 13.86069 ], [ 109.249, 13.86119 ], [ 109.24879, 13.86249 ], [ 109.24845, 13.86278 ], [ 109.2482, 13.86285 ] ] ], [ [ [ 109.2482, 13.86285 ], [ 109.2482, 13.86294 ], [ 109.24811, 13.86294 ], [ 109.24811, 13.86285 ], [ 109.2482, 13.86285 ] ] ], [ [ [ 109.29379, 13.8646 ], [ 109.29351, 13.8648 ], [ 109.29337, 13.86414 ], [ 109.29348, 13.86367 ], [ 109.29352, 13.86363 ], [ 109.29356, 13.86357 ], [ 109.29374, 13.8635 ], [ 109.29355, 13.86397 ], [ 109.29392, 13.86391 ], [ 109.29379, 13.8646 ] ] ], [ [ [ 109.2832, 13.86505 ], [ 109.28385, 13.86514 ], [ 109.28402, 13.86578 ], [ 109.2843, 13.8665 ], [ 109.28441, 13.86783 ], [ 109.28412, 13.86903 ], [ 109.284, 13.86976 ], [ 109.28318, 13.86888 ], [ 109.28206, 13.86807 ], [ 109.28034, 13.86716 ], [ 109.28135, 13.86626 ], [ 109.282, 13.86529 ], [ 109.28228, 13.86504 ], [ 109.28315, 13.865 ], [ 109.2832, 13.86505 ] ] ], [ [ [ 109.29376, 13.89391 ], [ 109.29384, 13.8942 ], [ 109.2936, 13.89455 ], [ 109.29326, 13.89478 ], [ 109.2932, 13.89499 ], [ 109.2931, 13.8949 ], [ 109.29297, 13.89476 ], [ 109.29288, 13.89467 ], [ 109.29279, 13.89421 ], [ 109.2927, 13.89395 ], [ 109.2925, 13.89329 ], [ 109.29195, 13.89333 ], [ 109.29153, 13.89275 ], [ 109.29069, 13.89203 ], [ 109.29041, 13.89191 ], [ 109.29036, 13.89162 ], [ 109.29143, 13.89159 ], [ 109.29218, 13.89145 ], [ 109.29253, 13.89131 ], [ 109.29267, 13.89128 ], [ 109.29272, 13.89155 ], [ 109.29293, 13.8919 ], [ 109.29347, 13.89212 ], [ 109.29334, 13.89252 ], [ 109.29362, 13.89249 ], [ 109.29368, 13.89282 ], [ 109.29357, 13.89285 ], [ 109.29365, 13.89293 ], [ 109.29368, 13.89282 ], [ 109.29386, 13.89275 ], [ 109.29373, 13.89353 ], [ 109.294, 13.89349 ], [ 109.29412, 13.89351 ], [ 109.29407, 13.89386 ], [ 109.29376, 13.89391 ], [ 109.29373, 13.89361 ], [ 109.2936, 13.89387 ], [ 109.29376, 13.89391 ] ] ], [ [ [ 109.2932, 13.89499 ], [ 109.29353, 13.89475 ], [ 109.29361, 13.89482 ], [ 109.29336, 13.89521 ], [ 109.2932, 13.89526 ], [ 109.29301, 13.89535 ], [ 109.29295, 13.8953 ], [ 109.2932, 13.89499 ] ] ] ] } },
{ "type": "Feature", "properties": { "OBJECTID": 3, "gridcode": 4, "Shape_Length": 162477.27896066432, "Shape_Area": 20111287.284658633 }, "geometry": { "type": "MultiPolygon", "coordinates": [ [ [ [ 109.28846, 13.7582 ], [ 109.28846, 13.75811 ], [ 109.28856, 13.75811 ], [ 109.28856, 13.7582 ], [ 109.28846, 13.7582 ] ] ], [ [ [ 109.29644, 13.76541 ], [ 109.29663, 13.76588 ], [ 109.29678, 13.76661 ], [ 109.29681, 13.76748 ], [ 109.29645, 13.76737 ], [ 109.29612, 13.76711 ], [ 109.29631, 13.76662 ], [ 109.2964, 13.76588 ], [ 109.29597, 13.76568 ], [ 109.29586, 13.76541 ], [ 109.29637, 13.76513 ], [ 109.29644, 13.76541 ] ] ], [ [ [ 109.27617, 13.76987 ], [ 109.27631, 13.76908 ], [ 109.27724, 13.76918 ], [ 109.27733, 13.76964 ], [ 109.27668, 13.76973 ], [ 109.27617, 13.76987 ] ] ], [ [ [ 109.27617, 13.76987 ], [ 109.27614, 13.76998 ], [ 109.27606, 13.7699 ], [ 109.27617, 13.76987 ] ] ], [ [ [ 109.29596, 13.77075 ], [ 109.29574, 13.77079 ], [ 109.29568, 13.77048 ], [ 109.29592, 13.76996 ], [ 109.29582, 13.76969 ], [ 109.29574, 13.76941 ], [ 109.29561, 13.76909 ], [ 109.29584, 13.76861 ], [ 109.29593, 13.76828 ], [ 109.29617, 13.76798 ], [ 109.29635, 13.76808 ], [ 109.29621, 13.76886 ], [ 109.29643, 13.76892 ], [ 109.29639, 13.76916 ], [ 109.29615, 13.76966 ], [ 109.29641, 13.77002 ], [ 109.29651, 13.7701 ], [ 109.29646, 13.77016 ], [ 109.29615, 13.77011 ], [ 109.29596, 13.77075 ] ] ], [ [ [ 109.28846, 13.7582 ], [ 109.28851, 13.75834 ], [ 109.2886, 13.75843 ], [ 109.28869, 13.75879 ], [ 109.28887, 13.75913 ], [ 109.28848, 13.75962 ], [ 109.28851, 13.76035 ], [ 109.28886, 13.76068 ], [ 109.28891, 13.76083 ], [ 109.2885, 13.7609 ], [ 109.2879, 13.7612 ], [ 109.2874, 13.76185 ], [ 109.28728, 13.76294 ], [ 109.28718, 13.7633 ], [ 109.28708, 13.76433 ], [ 109.28728, 13.76529 ], [ 109.28697, 13.76664 ], [ 109.28687, 13.76782 ], [ 109.28658, 13.76872 ], [ 109.28649, 13.76941 ], [ 109.28703, 13.77062 ], [ 109.2878, 13.77238 ], [ 109.28744, 13.77284 ], [ 109.28709, 13.77336 ], [ 109.28663, 13.77516 ], [ 109.28647, 13.77675 ], [ 109.28597, 13.77698 ], [ 109.28564, 13.77715 ], [ 109.28529, 13.77751 ], [ 109.285, 13.77809 ], [ 109.28503, 13.77895 ], [ 109.28535, 13.77954 ], [ 109.28494, 13.7805 ], [ 109.28384, 13.78275 ], [ 109.28324, 13.78343 ], [ 109.28288, 13.7839 ], [ 109.28235, 13.7851 ], [ 109.28071, 13.788 ], [ 109.28017, 13.78885 ], [ 109.27978, 13.78965 ], [ 109.27949, 13.7899 ], [ 109.27923, 13.79017 ], [ 109.27893, 13.7909 ], [ 109.27783, 13.79099 ], [ 109.27692, 13.79058 ], [ 109.27588, 13.79025 ], [ 109.27574, 13.78883 ], [ 109.27601, 13.78784 ], [ 109.27623, 13.78679 ], [ 109.27641, 13.78522 ], [ 109.27686, 13.7832 ], [ 109.27718, 13.78159 ], [ 109.2774, 13.78061 ], [ 109.27767, 13.77963 ], [ 109.27805, 13.77868 ], [ 109.2784, 13.77803 ], [ 109.27938, 13.7764 ], [ 109.27978, 13.7759 ], [ 109.28027, 13.77524 ], [ 109.28053, 13.77446 ], [ 109.28064, 13.77202 ], [ 109.28075, 13.77076 ], [ 109.28107, 13.7665 ], [ 109.28191, 13.76555 ], [ 109.28261, 13.76435 ], [ 109.283, 13.76333 ], [ 109.28321, 13.76225 ], [ 109.28302, 13.76153 ], [ 109.2828, 13.76133 ], [ 109.28284, 13.76119 ], [ 109.28294, 13.76101 ], [ 109.28307, 13.76039 ], [ 109.28342, 13.75987 ], [ 109.28416, 13.75885 ], [ 109.28421, 13.7588 ], [ 109.2848, 13.75931 ], [ 109.28531, 13.76001 ], [ 109.28608, 13.75915 ], [ 109.28707, 13.75854 ], [ 109.28788, 13.75826 ], [ 109.28846, 13.7582 ] ], [ [ 109.28297, 13.77597 ], [ 109.28315, 13.77581 ], [ 109.28383, 13.77504 ], [ 109.28439, 13.77279 ], [ 109.28465, 13.77205 ], [ 109.28393, 13.77043 ], [ 109.28371, 13.76917 ], [ 109.28384, 13.76829 ], [ 109.28415, 13.76717 ], [ 109.28378, 13.76758 ], [ 109.28352, 13.77096 ], [ 109.28341, 13.77222 ], [ 109.2833, 13.77466 ], [ 109.28297, 13.77597 ], [ 109.28285, 13.77602 ], [ 109.28293, 13.77617 ], [ 109.28297, 13.77597 ] ], [ [ 109.2825, 13.77687 ], [ 109.28261, 13.77684 ], [ 109.28253, 13.77676 ], [ 109.2825, 13.77687 ], [ 109.28241, 13.77687 ], [ 109.28241, 13.77705 ], [ 109.28228, 13.77716 ], [ 109.28199, 13.77755 ], [ 109.28169, 13.77792 ], [ 109.2808, 13.7794 ], [ 109.28051, 13.77992 ], [ 109.28025, 13.78063 ], [ 109.28006, 13.78134 ], [ 109.27992, 13.78196 ], [ 109.2796, 13.78357 ], [ 109.27936, 13.78466 ], [ 109.27966, 13.78435 ], [ 109.28, 13.78359 ], [ 109.28044, 13.78258 ], [ 109.28103, 13.78178 ], [ 109.28152, 13.78123 ], [ 109.28228, 13.77967 ], [ 109.28222, 13.77811 ], [ 109.28236, 13.77737 ], [ 109.28241, 13.77705 ], [ 109.2825, 13.77705 ], [ 109.2825, 13.77687 ] ], [ [ 109.27939, 13.78471 ], [ 109.27928, 13.78474 ], [ 109.27936, 13.78482 ], [ 109.27939, 13.78471 ] ] ], [ [ [ 109.19817, 13.79844 ], [ 109.19796, 13.7986 ], [ 109.19781, 13.79792 ], [ 109.19801, 13.79787 ], [ 109.19817, 13.79844 ] ] ], [ [ [ 109.21942, 13.80272 ], [ 109.21946, 13.80261 ], [ 109.21954, 13.80269 ], [ 109.21942, 13.80272 ] ] ], [ [ [ 109.21942, 13.80272 ], [ 109.21939, 13.80283 ], [ 109.21931, 13.80275 ], [ 109.21942, 13.80272 ] ] ], [ [ [ 109.28563, 13.805 ], [ 109.28485, 13.8045 ], [ 109.28398, 13.80446 ], [ 109.28331, 13.80469 ], [ 109.2823, 13.80454 ], [ 109.28124, 13.80457 ], [ 109.2814, 13.80199 ], [ 109.28177, 13.80077 ], [ 109.2821, 13.7996 ], [ 109.28248, 13.79838 ], [ 109.28264, 13.79707 ], [ 109.28235, 13.79442 ], [ 109.28269, 13.79259 ], [ 109.28319, 13.79053 ], [ 109.28375, 13.78965 ], [ 109.28534, 13.78684 ], [ 109.28597, 13.78555 ], [ 109.28683, 13.78462 ], [ 109.2875, 13.78315 ], [ 109.28815, 13.78182 ], [ 109.28918, 13.782 ], [ 109.29104, 13.78172 ], [ 109.29169, 13.78126 ], [ 109.29204, 13.78063 ], [ 109.29208, 13.77976 ], [ 109.29181, 13.77918 ], [ 109.29146, 13.77881 ], [ 109.2909, 13.77852 ], [ 109.28969, 13.77841 ], [ 109.28987, 13.77758 ], [ 109.29005, 13.77591 ], [ 109.29037, 13.77462 ], [ 109.29052, 13.77462 ], [ 109.29122, 13.7748 ], [ 109.29188, 13.77467 ], [ 109.29255, 13.77427 ], [ 109.29321, 13.77417 ], [ 109.29371, 13.77396 ], [ 109.29375, 13.77419 ], [ 109.29402, 13.77458 ], [ 109.29358, 13.77496 ], [ 109.29347, 13.77528 ], [ 109.29328, 13.77536 ], [ 109.29318, 13.77547 ], [ 109.2932, 13.77575 ], [ 109.29338, 13.77609 ], [ 109.29333, 13.77685 ], [ 109.2931, 13.77747 ], [ 109.29299, 13.77789 ], [ 109.2928, 13.77834 ], [ 109.29271, 13.77909 ], [ 109.29307, 13.77961 ], [ 109.29336, 13.78006 ], [ 109.29365, 13.77975 ], [ 109.29391, 13.7799 ], [ 109.29409, 13.78046 ], [ 109.29407, 13.78076 ], [ 109.29377, 13.78129 ], [ 109.29333, 13.78142 ], [ 109.29323, 13.78219 ], [ 109.29269, 13.78266 ], [ 109.29258, 13.78351 ], [ 109.2922, 13.78403 ], [ 109.29216, 13.78417 ], [ 109.29202, 13.78421 ], [ 109.29153, 13.78437 ], [ 109.28987, 13.78465 ], [ 109.28921, 13.78599 ], [ 109.28886, 13.78645 ], [ 109.2883, 13.78708 ], [ 109.28774, 13.78821 ], [ 109.28633, 13.79068 ], [ 109.28573, 13.79171 ], [ 109.28532, 13.79348 ], [ 109.28515, 13.79454 ], [ 109.28545, 13.79718 ], [ 109.2852, 13.79883 ], [ 109.28488, 13.79998 ], [ 109.28452, 13.80114 ], [ 109.2844, 13.8017 ], [ 109.28565, 13.80193 ], [ 109.2857, 13.80212 ], [ 109.28597, 13.80233 ], [ 109.28607, 13.80245 ], [ 109.28629, 13.80242 ], [ 109.28643, 13.80244 ], [ 109.2867, 13.8024 ], [ 109.28658, 13.80315 ], [ 109.28662, 13.80347 ], [ 109.2866, 13.80363 ], [ 109.28633, 13.80358 ], [ 109.28624, 13.80388 ], [ 109.28564, 13.80396 ], [ 109.28541, 13.80429 ], [ 109.28559, 13.80459 ], [ 109.28563, 13.805 ] ] ], [ [ [ 109.28563, 13.805 ], [ 109.28572, 13.805 ], [ 109.28572, 13.80518 ], [ 109.28562, 13.80518 ], [ 109.28563, 13.805 ] ] ], [ [ [ 109.28607, 13.80763 ], [ 109.2857, 13.80756 ], [ 109.28589, 13.80679 ], [ 109.28598, 13.80672 ], [ 109.28604, 13.80684 ], [ 109.28607, 13.80763 ] ] ], [ [ [ 109.28607, 13.80763 ], [ 109.28616, 13.80763 ], [ 109.28616, 13.80772 ], [ 109.28607, 13.80772 ], [ 109.28607, 13.80763 ] ] ], [ [ [ 109.2098, 13.80876 ], [ 109.20998, 13.80889 ], [ 109.20957, 13.80902 ], [ 109.20935, 13.80875 ], [ 109.20976, 13.80871 ], [ 109.2098, 13.80876 ] ] ], [ [ [ 109.19161, 13.81116 ], [ 109.19117, 13.81114 ], [ 109.19134, 13.8101 ], [ 109.19181, 13.80977 ], [ 109.19208, 13.80948 ], [ 109.19246, 13.80871 ], [ 109.19266, 13.80836 ], [ 109.19283, 13.80802 ], [ 109.1928, 13.80709 ], [ 109.19341, 13.807 ], [ 109.19678, 13.80587 ], [ 109.19722, 13.80564 ], [ 109.1977, 13.80515 ], [ 109.198, 13.80442 ], [ 109.19825, 13.80419 ], [ 109.19859, 13.80375 ], [ 109.19894, 13.80344 ], [ 109.19916, 13.8032 ], [ 109.19926, 13.80312 ], [ 109.19933, 13.8035 ], [ 109.19961, 13.80446 ], [ 109.1993, 13.80501 ], [ 109.19919, 13.80603 ], [ 109.19805, 13.80642 ], [ 109.19758, 13.80665 ], [ 109.19713, 13.80725 ], [ 109.19696, 13.80797 ], [ 109.19718, 13.80881 ], [ 109.19648, 13.80929 ], [ 109.19546, 13.81019 ], [ 109.19464, 13.81031 ], [ 109.19382, 13.81085 ], [ 109.19296, 13.81117 ], [ 109.19231, 13.81114 ], [ 109.19161, 13.81116 ] ] ], [ [ [ 109.27978, 13.81048 ], [ 109.28091, 13.81089 ], [ 109.28112, 13.81099 ], [ 109.28157, 13.81146 ], [ 109.28182, 13.81197 ], [ 109.27887, 13.81142 ], [ 109.27508, 13.81076 ], [ 109.2751, 13.80977 ], [ 109.27569, 13.80972 ], [ 109.27574, 13.80977 ], [ 109.27691, 13.80998 ], [ 109.27807, 13.81014 ], [ 109.27889, 13.80988 ], [ 109.27978, 13.81048 ] ] ], [ [ [ 109.18346, 13.81312 ], [ 109.1835, 13.81289 ], [ 109.18361, 13.81254 ], [ 109.18369, 13.81217 ], [ 109.18386, 13.812 ], [ 109.18425, 13.81255 ], [ 109.18454, 13.81291 ], [ 109.18397, 13.81299 ], [ 109.18346, 13.81312 ] ] ], [ [ [ 109.18346, 13.81312 ], [ 109.18343, 13.81323 ], [ 109.18335, 13.81315 ], [ 109.18346, 13.81312 ] ] ], [ [ [ 109.21471, 13.81444 ], [ 109.21441, 13.81428 ], [ 109.21471, 13.81408 ], [ 109.21471, 13.81444 ] ] ], [ [ [ 109.22311, 13.81712 ], [ 109.22301, 13.81712 ], [ 109.22301, 13.81703 ], [ 109.22311, 13.81703 ], [ 109.22311, 13.81712 ] ] ], [ [ [ 109.27095, 13.81071 ], [ 109.27057, 13.81106 ], [ 109.27024, 13.81149 ], [ 109.26999, 13.81269 ], [ 109.26988, 13.81399 ], [ 109.27018, 13.81485 ], [ 109.26962, 13.81803 ], [ 109.26872, 13.81785 ], [ 109.26923, 13.81515 ], [ 109.26983, 13.81198 ], [ 109.26981, 13.81079 ], [ 109.26952, 13.81024 ], [ 109.26916, 13.80989 ], [ 109.26858, 13.80961 ], [ 109.26768, 13.80962 ], [ 109.26702, 13.80995 ], [ 109.26654, 13.81057 ], [ 109.26581, 13.8144 ], [ 109.26531, 13.81706 ], [ 109.26418, 13.81686 ], [ 109.26511, 13.8115 ], [ 109.26509, 13.80983 ], [ 109.2652, 13.80942 ], [ 109.2653, 13.80886 ], [ 109.26502, 13.80806 ], [ 109.26504, 13.80743 ], [ 109.26503, 13.80696 ], [ 109.26474, 13.8064 ], [ 109.26428, 13.80596 ], [ 109.26352, 13.8056 ], [ 109.26253, 13.80561 ], [ 109.26187, 13.80594 ], [ 109.26138, 13.80657 ], [ 109.26124, 13.8075 ], [ 109.26067, 13.80786 ], [ 109.26022, 13.80831 ], [ 109.25968, 13.8088 ], [ 109.25934, 13.80925 ], [ 109.25874, 13.81246 ], [ 109.2584, 13.81325 ], [ 109.25841, 13.81409 ], [ 109.25873, 13.81469 ], [ 109.25818, 13.81519 ], [ 109.25755, 13.81481 ], [ 109.25687, 13.81459 ], [ 109.256, 13.8146 ], [ 109.2554, 13.81439 ], [ 109.25406, 13.81441 ], [ 109.25408, 13.81355 ], [ 109.25407, 13.81279 ], [ 109.25423, 13.81194 ], [ 109.25452, 13.8114 ], [ 109.25513, 13.81096 ], [ 109.2554, 13.81069 ], [ 109.25569, 13.81013 ], [ 109.25567, 13.80925 ], [ 109.25534, 13.8086 ], [ 109.25471, 13.80814 ], [ 109.25391, 13.80799 ], [ 109.25301, 13.80821 ], [ 109.25198, 13.80888 ], [ 109.25163, 13.80904 ], [ 109.25072, 13.80916 ], [ 109.25, 13.80951 ], [ 109.24963, 13.80988 ], [ 109.2491, 13.81057 ], [ 109.24865, 13.81114 ], [ 109.24818, 13.81208 ], [ 109.24806, 13.81357 ], [ 109.24079, 13.81224 ], [ 109.23531, 13.8112 ], [ 109.23367, 13.81089 ], [ 109.22931, 13.81007 ], [ 109.2276, 13.80974 ], [ 109.22692, 13.80951 ], [ 109.22635, 13.80942 ], [ 109.22578, 13.8093 ], [ 109.22513, 13.80904 ], [ 109.22458, 13.80867 ], [ 109.2244, 13.80847 ], [ 109.2235, 13.80722 ], [ 109.22326, 13.80624 ], [ 109.22298, 13.80288 ], [ 109.22294, 13.80257 ], [ 109.22314, 13.80235 ], [ 109.22402, 13.80174 ], [ 109.22497, 13.80147 ], [ 109.22554, 13.80168 ], [ 109.22575, 13.80262 ], [ 109.22604, 13.80608 ], [ 109.22652, 13.80668 ], [ 109.22779, 13.80693 ], [ 109.22847, 13.80716 ], [ 109.22951, 13.80736 ], [ 109.23388, 13.80818 ], [ 109.23552, 13.80849 ], [ 109.241, 13.80953 ], [ 109.24587, 13.81042 ], [ 109.24642, 13.80953 ], [ 109.24689, 13.80893 ], [ 109.24742, 13.80824 ], [ 109.2483, 13.80737 ], [ 109.24928, 13.80679 ], [ 109.24989, 13.80659 ], [ 109.25072, 13.8064 ], [ 109.25177, 13.80579 ], [ 109.25279, 13.80546 ], [ 109.25392, 13.80528 ], [ 109.25504, 13.80543 ], [ 109.25567, 13.80564 ], [ 109.2564, 13.80599 ], [ 109.25681, 13.80629 ], [ 109.25764, 13.80702 ], [ 109.25867, 13.80593 ], [ 109.25919, 13.8049 ], [ 109.25977, 13.80415 ], [ 109.26054, 13.80356 ], [ 109.2613, 13.80318 ], [ 109.26189, 13.80299 ], [ 109.263, 13.80281 ], [ 109.26412, 13.80296 ], [ 109.26454, 13.8031 ], [ 109.26551, 13.80349 ], [ 109.26496, 13.8026 ], [ 109.26471, 13.80185 ], [ 109.26452, 13.80076 ], [ 109.2647, 13.7997 ], [ 109.26489, 13.79915 ], [ 109.26525, 13.79844 ], [ 109.26583, 13.79769 ], [ 109.2666, 13.79709 ], [ 109.26736, 13.79672 ], [ 109.26795, 13.79652 ], [ 109.26906, 13.79634 ], [ 109.27015, 13.79652 ], [ 109.27051, 13.79663 ], [ 109.27148, 13.79703 ], [ 109.27253, 13.79665 ], [ 109.27369, 13.79647 ], [ 109.27477, 13.79664 ], [ 109.27534, 13.79683 ], [ 109.27574, 13.79702 ], [ 109.27628, 13.7973 ], [ 109.27632, 13.79704 ], [ 109.27565, 13.79675 ], [ 109.27464, 13.79629 ], [ 109.27383, 13.79606 ], [ 109.27245, 13.79548 ], [ 109.27053, 13.79423 ], [ 109.26982, 13.79338 ], [ 109.26942, 13.79261 ], [ 109.26922, 13.79203 ], [ 109.26904, 13.79094 ], [ 109.26914, 13.79033 ], [ 109.26932, 13.78948 ], [ 109.26943, 13.78768 ], [ 109.26987, 13.78588 ], [ 109.27009, 13.7841 ], [ 109.27054, 13.78209 ], [ 109.27083, 13.78062 ], [ 109.27117, 13.77922 ], [ 109.27025, 13.77748 ], [ 109.26943, 13.77654 ], [ 109.26879, 13.77549 ], [ 109.26843, 13.77454 ], [ 109.26824, 13.7734 ], [ 109.26834, 13.77184 ], [ 109.26846, 13.77055 ], [ 109.26827, 13.76943 ], [ 109.26838, 13.76705 ], [ 109.26867, 13.76552 ], [ 109.2681, 13.76482 ], [ 109.26756, 13.76393 ], [ 109.2673, 13.76319 ], [ 109.26712, 13.7621 ], [ 109.2673, 13.76104 ], [ 109.26749, 13.76048 ], [ 109.26785, 13.75977 ], [ 109.26842, 13.75902 ], [ 109.26909, 13.7585 ], [ 109.26969, 13.75816 ], [ 109.26976, 13.75849 ], [ 109.2726, 13.76033 ], [ 109.2731, 13.76062 ], [ 109.27287, 13.76085 ], [ 109.2724, 13.76062 ], [ 109.27209, 13.76047 ], [ 109.27119, 13.76048 ], [ 109.27062, 13.76076 ], [ 109.27026, 13.76112 ], [ 109.26997, 13.76168 ], [ 109.26999, 13.76256 ], [ 109.27034, 13.76324 ], [ 109.27142, 13.76443 ], [ 109.27154, 13.76493 ], [ 109.27153, 13.76523 ], [ 109.27115, 13.76725 ], [ 109.27105, 13.76927 ], [ 109.27125, 13.7705 ], [ 109.27112, 13.77204 ], [ 109.27102, 13.77342 ], [ 109.2712, 13.77414 ], [ 109.27177, 13.77508 ], [ 109.27229, 13.77558 ], [ 109.27245, 13.77574 ], [ 109.2741, 13.77885 ], [ 109.27355, 13.7811 ], [ 109.27328, 13.78249 ], [ 109.27285, 13.78437 ], [ 109.27268, 13.78579 ], [ 109.27254, 13.7867 ], [ 109.27217, 13.78807 ], [ 109.27219, 13.78968 ], [ 109.27219, 13.78978 ], [ 109.27189, 13.79061 ], [ 109.2719, 13.79141 ], [ 109.27224, 13.79207 ], [ 109.27345, 13.7929 ], [ 109.27463, 13.79347 ], [ 109.27567, 13.79377 ], [ 109.27712, 13.79443 ], [ 109.27883, 13.79441 ], [ 109.27909, 13.79666 ], [ 109.27907, 13.79761 ], [ 109.27869, 13.79885 ], [ 109.27826, 13.80034 ], [ 109.27799, 13.80111 ], [ 109.27782, 13.80391 ], [ 109.27772, 13.80463 ], [ 109.27761, 13.80661 ], [ 109.27582, 13.80633 ], [ 109.27635, 13.80341 ], [ 109.27665, 13.80259 ], [ 109.27663, 13.80144 ], [ 109.27607, 13.80063 ], [ 109.27526, 13.80009 ], [ 109.27499, 13.79982 ], [ 109.27469, 13.79953 ], [ 109.27412, 13.79925 ], [ 109.27321, 13.79927 ], [ 109.27264, 13.79955 ], [ 109.27228, 13.79991 ], [ 109.272, 13.80047 ], [ 109.27201, 13.80141 ], [ 109.27253, 13.80225 ], [ 109.27242, 13.80269 ], [ 109.27197, 13.8019 ], [ 109.27168, 13.80131 ], [ 109.27114, 13.80065 ], [ 109.27059, 13.79991 ], [ 109.27006, 13.79941 ], [ 109.26949, 13.79913 ], [ 109.26859, 13.79914 ], [ 109.26802, 13.79942 ], [ 109.26766, 13.79979 ], [ 109.26738, 13.80035 ], [ 109.26739, 13.80134 ], [ 109.26896, 13.80356 ], [ 109.26921, 13.80424 ], [ 109.2686, 13.80503 ], [ 109.26835, 13.80551 ], [ 109.26837, 13.80648 ], [ 109.2687, 13.80712 ], [ 109.2693, 13.80756 ], [ 109.27004, 13.80774 ], [ 109.27081, 13.80755 ], [ 109.27165, 13.8069 ], [ 109.27095, 13.81071 ] ] ], [ [ [ 109.17785, 13.82058 ], [ 109.17776, 13.82058 ], [ 109.17776, 13.82049 ], [ 109.17785, 13.82049 ], [ 109.17785, 13.82058 ] ] ], [ [ [ 109.26382, 13.82062 ], [ 109.26459, 13.82081 ], [ 109.26401, 13.82387 ], [ 109.26294, 13.82368 ], [ 109.26349, 13.82063 ], [ 109.26378, 13.82057 ], [ 109.26382, 13.82062 ] ] ], [ [ [ 109.26835, 13.82165 ], [ 109.26888, 13.82182 ], [ 109.26835, 13.82465 ], [ 109.26745, 13.82449 ], [ 109.26799, 13.82166 ], [ 109.2683, 13.8216 ], [ 109.26835, 13.82165 ] ] ], [ [ [ 109.17785, 13.82058 ], [ 109.17806, 13.82064 ], [ 109.17791, 13.82176 ], [ 109.17799, 13.82243 ], [ 109.17704, 13.82254 ], [ 109.17642, 13.82289 ], [ 109.17597, 13.82351 ], [ 109.17584, 13.82435 ], [ 109.1757, 13.82445 ], [ 109.17552, 13.82416 ], [ 109.1757, 13.82365 ], [ 109.17539, 13.82257 ], [ 109.17587, 13.82172 ], [ 109.17658, 13.82127 ], [ 109.17688, 13.82099 ], [ 109.17721, 13.82066 ], [ 109.17761, 13.82108 ], [ 109.17791, 13.82099 ], [ 109.17785, 13.82058 ] ] ], [ [ [ 109.27333, 13.82277 ], [ 109.27365, 13.82287 ], [ 109.27316, 13.8255 ], [ 109.2723, 13.82541 ], [ 109.2728, 13.82277 ], [ 109.27329, 13.82272 ], [ 109.27333, 13.82277 ] ] ], [ [ [ 109.27749, 13.8237 ], [ 109.27811, 13.82385 ], [ 109.27768, 13.82633 ], [ 109.27659, 13.82616 ], [ 109.27705, 13.8237 ], [ 109.27744, 13.82365 ], [ 109.27749, 13.8237 ] ] ], [ [ [ 109.28164, 13.82464 ], [ 109.28231, 13.82479 ], [ 109.28251, 13.82614 ], [ 109.28236, 13.82719 ], [ 109.28112, 13.82696 ], [ 109.28152, 13.82465 ], [ 109.2816, 13.82459 ], [ 109.28164, 13.82464 ] ] ], [ [ [ 109.26275, 13.82712 ], [ 109.26322, 13.82721 ], [ 109.2634, 13.82731 ], [ 109.26283, 13.83039 ], [ 109.26175, 13.83034 ], [ 109.26231, 13.82713 ], [ 109.26271, 13.82707 ], [ 109.26275, 13.82712 ] ] ], [ [ [ 109.267, 13.82787 ], [ 109.2677, 13.82805 ], [ 109.26714, 13.83126 ], [ 109.26625, 13.83111 ], [ 109.26683, 13.82795 ], [ 109.26696, 13.82783 ], [ 109.267, 13.82787 ] ] ], [ [ [ 109.27218, 13.82882 ], [ 109.27253, 13.82893 ], [ 109.27194, 13.83208 ], [ 109.27101, 13.83204 ], [ 109.27148, 13.82962 ], [ 109.27169, 13.82882 ], [ 109.27213, 13.82877 ], [ 109.27218, 13.82882 ] ] ], [ [ [ 109.27633, 13.82957 ], [ 109.27705, 13.82971 ], [ 109.27649, 13.83294 ], [ 109.27537, 13.83277 ], [ 109.27596, 13.82956 ], [ 109.27629, 13.82952 ], [ 109.27633, 13.82957 ] ] ], [ [ [ 109.28048, 13.83159 ], [ 109.28079, 13.83173 ], [ 109.2806, 13.83367 ], [ 109.27992, 13.83361 ], [ 109.28027, 13.83159 ], [ 109.28044, 13.83154 ], [ 109.28048, 13.83159 ] ] ], [ [ [ 109.26592, 13.83637 ], [ 109.26617, 13.83648 ], [ 109.2659, 13.83802 ], [ 109.26497, 13.83787 ], [ 109.26527, 13.83635 ], [ 109.26588, 13.83632 ], [ 109.26592, 13.83637 ] ] ], [ [ [ 109.27566, 13.83973 ], [ 109.27515, 13.83968 ], [ 109.27411, 13.8395 ], [ 109.27473, 13.83622 ], [ 109.27582, 13.83642 ], [ 109.27553, 13.83815 ], [ 109.27544, 13.83892 ], [ 109.27566, 13.83973 ] ] ], [ [ [ 109.27566, 13.83973 ], [ 109.27577, 13.83976 ], [ 109.27569, 13.83984 ], [ 109.27566, 13.83973 ] ] ], [ [ [ 109.27769, 13.84074 ], [ 109.27757, 13.84071 ], [ 109.27766, 13.84063 ], [ 109.27769, 13.84074 ] ] ], [ [ [ 109.26017, 13.84122 ], [ 109.26074, 13.84158 ], [ 109.26042, 13.8433 ], [ 109.25969, 13.84327 ], [ 109.25999, 13.84126 ], [ 109.26011, 13.84116 ], [ 109.26017, 13.84122 ] ] ], [ [ [ 109.27769, 13.84074 ], [ 109.27866, 13.84083 ], [ 109.2794, 13.84098 ], [ 109.28009, 13.84115 ], [ 109.2814, 13.84135 ], [ 109.28215, 13.84119 ], [ 109.28276, 13.84076 ], [ 109.28319, 13.83995 ], [ 109.28347, 13.83878 ], [ 109.28377, 13.83667 ], [ 109.28397, 13.83586 ], [ 109.28432, 13.83271 ], [ 109.28454, 13.83164 ], [ 109.28496, 13.83055 ], [ 109.28556, 13.83028 ], [ 109.28604, 13.82999 ], [ 109.28691, 13.82986 ], [ 109.28756, 13.8294 ], [ 109.2879, 13.82876 ], [ 109.28793, 13.82788 ], [ 109.28765, 13.82731 ], [ 109.28746, 13.82711 ], [ 109.28727, 13.82693 ], [ 109.2869, 13.82637 ], [ 109.28663, 13.82611 ], [ 109.28682, 13.82541 ], [ 109.2867, 13.8243 ], [ 109.28625, 13.82369 ], [ 109.28572, 13.82331 ], [ 109.28538, 13.82224 ], [ 109.28484, 13.82169 ], [ 109.28431, 13.82142 ], [ 109.27352, 13.81893 ], [ 109.2744, 13.81411 ], [ 109.27811, 13.81475 ], [ 109.27989, 13.81509 ], [ 109.28179, 13.81543 ], [ 109.28195, 13.81624 ], [ 109.28224, 13.81684 ], [ 109.2831, 13.81783 ], [ 109.28371, 13.81814 ], [ 109.28459, 13.81816 ], [ 109.28575, 13.8178 ], [ 109.28621, 13.81737 ], [ 109.28651, 13.81682 ], [ 109.28653, 13.81592 ], [ 109.28638, 13.81496 ], [ 109.28605, 13.81451 ], [ 109.2857, 13.81418 ], [ 109.28561, 13.81325 ], [ 109.28528, 13.8116 ], [ 109.28581, 13.81122 ], [ 109.28685, 13.81007 ], [ 109.28698, 13.80971 ], [ 109.28744, 13.81008 ], [ 109.28791, 13.81066 ], [ 109.28811, 13.81113 ], [ 109.28821, 13.81149 ], [ 109.28849, 13.8122 ], [ 109.28853, 13.81234 ], [ 109.28828, 13.81252 ], [ 109.28838, 13.81303 ], [ 109.28877, 13.81362 ], [ 109.28893, 13.81402 ], [ 109.28898, 13.81406 ], [ 109.28902, 13.81438 ], [ 109.28916, 13.81488 ], [ 109.28925, 13.8156 ], [ 109.28925, 13.81569 ], [ 109.28934, 13.81569 ], [ 109.28933, 13.81642 ], [ 109.28929, 13.81691 ], [ 109.28918, 13.8175 ], [ 109.28895, 13.81811 ], [ 109.28857, 13.81882 ], [ 109.28794, 13.81955 ], [ 109.28718, 13.82009 ], [ 109.28778, 13.82096 ], [ 109.28813, 13.82168 ], [ 109.2886, 13.82224 ], [ 109.28893, 13.82268 ], [ 109.28926, 13.82339 ], [ 109.28945, 13.82399 ], [ 109.28988, 13.82378 ], [ 109.29031, 13.82358 ], [ 109.2909, 13.82341 ], [ 109.29197, 13.82326 ], [ 109.29308, 13.82346 ], [ 109.29384, 13.82372 ], [ 109.29478, 13.8243 ], [ 109.29574, 13.82532 ], [ 109.2968, 13.8263 ], [ 109.29731, 13.82699 ], [ 109.29765, 13.8277 ], [ 109.29786, 13.82837 ], [ 109.29798, 13.8296 ], [ 109.29774, 13.83085 ], [ 109.29774, 13.83094 ], [ 109.29768, 13.83099 ], [ 109.2973, 13.83177 ], [ 109.29694, 13.83224 ], [ 109.2961, 13.83314 ], [ 109.29557, 13.83406 ], [ 109.29507, 13.83476 ], [ 109.29487, 13.83557 ], [ 109.29461, 13.83612 ], [ 109.29441, 13.83647 ], [ 109.29416, 13.83773 ], [ 109.29381, 13.83846 ], [ 109.29347, 13.83899 ], [ 109.29303, 13.84 ], [ 109.29239, 13.84085 ], [ 109.29164, 13.84144 ], [ 109.29106, 13.84175 ], [ 109.29047, 13.842 ], [ 109.29055, 13.84354 ], [ 109.29033, 13.84513 ], [ 109.29005, 13.84607 ], [ 109.2895, 13.84724 ], [ 109.2901, 13.84703 ], [ 109.29122, 13.84685 ], [ 109.29227, 13.847 ], [ 109.29286, 13.84718 ], [ 109.29342, 13.84744 ], [ 109.29401, 13.84781 ], [ 109.29396, 13.84786 ], [ 109.29344, 13.84874 ], [ 109.29311, 13.84945 ], [ 109.29274, 13.85038 ], [ 109.29269, 13.85042 ], [ 109.29245, 13.85001 ], [ 109.29174, 13.84965 ], [ 109.29084, 13.84963 ], [ 109.29026, 13.84989 ], [ 109.28962, 13.85049 ], [ 109.28933, 13.85104 ], [ 109.28912, 13.8527 ], [ 109.28897, 13.85311 ], [ 109.28873, 13.85382 ], [ 109.28749, 13.85457 ], [ 109.28716, 13.85468 ], [ 109.28642, 13.85476 ], [ 109.28521, 13.85512 ], [ 109.28475, 13.8552 ], [ 109.28365, 13.85549 ], [ 109.28392, 13.85449 ], [ 109.28384, 13.85384 ], [ 109.28371, 13.85323 ], [ 109.2844, 13.85214 ], [ 109.28459, 13.85142 ], [ 109.2847, 13.8503 ], [ 109.28515, 13.84946 ], [ 109.28526, 13.84825 ], [ 109.28565, 13.84778 ], [ 109.28601, 13.84726 ], [ 109.28651, 13.84662 ], [ 109.2873, 13.8455 ], [ 109.2876, 13.84468 ], [ 109.2878, 13.84306 ], [ 109.28767, 13.84223 ], [ 109.2871, 13.8414 ], [ 109.28771, 13.84041 ], [ 109.28867, 13.83961 ], [ 109.2896, 13.83946 ], [ 109.29043, 13.83894 ], [ 109.29069, 13.83845 ], [ 109.29098, 13.83771 ], [ 109.29153, 13.83694 ], [ 109.29164, 13.83564 ], [ 109.29227, 13.83469 ], [ 109.29249, 13.83338 ], [ 109.29313, 13.83279 ], [ 109.29343, 13.83222 ], [ 109.29392, 13.83125 ], [ 109.29474, 13.83066 ], [ 109.29511, 13.82998 ], [ 109.29514, 13.82884 ], [ 109.29486, 13.82827 ], [ 109.29428, 13.82767 ], [ 109.29373, 13.82726 ], [ 109.29311, 13.82644 ], [ 109.29238, 13.82606 ], [ 109.29148, 13.82604 ], [ 109.2909, 13.82631 ], [ 109.29026, 13.8269 ], [ 109.28995, 13.82748 ], [ 109.2899, 13.82931 ], [ 109.29011, 13.82976 ], [ 109.29048, 13.83046 ], [ 109.29036, 13.8306 ], [ 109.28967, 13.83125 ], [ 109.28928, 13.83196 ], [ 109.28908, 13.83264 ], [ 109.28894, 13.8334 ], [ 109.28844, 13.83387 ], [ 109.28805, 13.83458 ], [ 109.28793, 13.83607 ], [ 109.28775, 13.83625 ], [ 109.28686, 13.83666 ], [ 109.28574, 13.83756 ], [ 109.28468, 13.8387 ], [ 109.28413, 13.83962 ], [ 109.28356, 13.84087 ], [ 109.28352, 13.84228 ], [ 109.28376, 13.843 ], [ 109.28426, 13.84374 ], [ 109.28406, 13.84415 ], [ 109.28362, 13.84471 ], [ 109.28334, 13.84507 ], [ 109.28286, 13.84572 ], [ 109.28234, 13.84621 ], [ 109.28187, 13.84695 ], [ 109.2817, 13.84839 ], [ 109.28131, 13.84931 ], [ 109.28116, 13.85084 ], [ 109.28028, 13.85185 ], [ 109.27996, 13.85244 ], [ 109.27992, 13.85376 ], [ 109.28008, 13.85409 ], [ 109.28029, 13.85448 ], [ 109.27984, 13.85552 ], [ 109.27992, 13.85707 ], [ 109.28002, 13.85744 ], [ 109.28, 13.85797 ], [ 109.28001, 13.85877 ], [ 109.27945, 13.85934 ], [ 109.27875, 13.8599 ], [ 109.27774, 13.86028 ], [ 109.27714, 13.86056 ], [ 109.27641, 13.86124 ], [ 109.27624, 13.86156 ], [ 109.27601, 13.86201 ], [ 109.27502, 13.86263 ], [ 109.27461, 13.86322 ], [ 109.27431, 13.86365 ], [ 109.27447, 13.86025 ], [ 109.27433, 13.85813 ], [ 109.27413, 13.85707 ], [ 109.27356, 13.85631 ], [ 109.27283, 13.85594 ], [ 109.27136, 13.85574 ], [ 109.27055, 13.85597 ], [ 109.26991, 13.85643 ], [ 109.26962, 13.85698 ], [ 109.26907, 13.85887 ], [ 109.2689, 13.85952 ], [ 109.26785, 13.86358 ], [ 109.2676, 13.86454 ], [ 109.26655, 13.86438 ], [ 109.26512, 13.86424 ], [ 109.26591, 13.85962 ], [ 109.26671, 13.85544 ], [ 109.26722, 13.85294 ], [ 109.26775, 13.84982 ], [ 109.26829, 13.84654 ], [ 109.26921, 13.84206 ], [ 109.27475, 13.84309 ], [ 109.27593, 13.8433 ], [ 109.27682, 13.84317 ], [ 109.27747, 13.84271 ], [ 109.27781, 13.84207 ], [ 109.27784, 13.84129 ], [ 109.27769, 13.84074 ] ], [ [ 109.27001, 13.85325 ], [ 109.27033, 13.85321 ], [ 109.27142, 13.85303 ], [ 109.2729, 13.8532 ], [ 109.27391, 13.85344 ], [ 109.27472, 13.85384 ], [ 109.27549, 13.8544 ], [ 109.27626, 13.85529 ], [ 109.27667, 13.85608 ], [ 109.27682, 13.8565 ], [ 109.27707, 13.85768 ], [ 109.27715, 13.85759 ], [ 109.27712, 13.85537 ], [ 109.27728, 13.85452 ], [ 109.27709, 13.85337 ], [ 109.27722, 13.852 ], [ 109.27746, 13.8513 ], [ 109.27775, 13.85072 ], [ 109.27841, 13.84978 ], [ 109.27875, 13.84829 ], [ 109.27898, 13.84767 ], [ 109.27913, 13.84653 ], [ 109.27935, 13.84589 ], [ 109.2797, 13.84518 ], [ 109.2802, 13.84451 ], [ 109.28065, 13.84397 ], [ 109.27994, 13.84395 ], [ 109.27938, 13.84467 ], [ 109.27862, 13.84527 ], [ 109.27785, 13.84564 ], [ 109.27726, 13.84584 ], [ 109.27615, 13.84601 ], [ 109.2752, 13.84592 ], [ 109.27137, 13.84522 ], [ 109.27103, 13.84697 ], [ 109.27053, 13.85002 ], [ 109.27006, 13.85275 ], [ 109.27001, 13.85325 ], [ 109.2699, 13.85328 ], [ 109.26998, 13.85336 ], [ 109.27001, 13.85325 ] ] ], [ [ [ 109.22311, 13.81712 ], [ 109.2237, 13.81738 ], [ 109.22502, 13.81736 ], [ 109.2256, 13.81707 ], [ 109.22623, 13.81644 ], [ 109.22705, 13.81403 ], [ 109.22762, 13.81377 ], [ 109.22818, 13.8134 ], [ 109.22855, 13.81341 ], [ 109.2335, 13.81433 ], [ 109.24, 13.81557 ], [ 109.24822, 13.81707 ], [ 109.25182, 13.81773 ], [ 109.25345, 13.81803 ], [ 109.25365, 13.81845 ], [ 109.25402, 13.81906 ], [ 109.25461, 13.81949 ], [ 109.25518, 13.81977 ], [ 109.25626, 13.81975 ], [ 109.2568, 13.81948 ], [ 109.25689, 13.81985 ], [ 109.25708, 13.8205 ], [ 109.25779, 13.82167 ], [ 109.25798, 13.8225 ], [ 109.25741, 13.82291 ], [ 109.25702, 13.82342 ], [ 109.25686, 13.82421 ], [ 109.25719, 13.82516 ], [ 109.25697, 13.82686 ], [ 109.25664, 13.8287 ], [ 109.2565, 13.82947 ], [ 109.25631, 13.83281 ], [ 109.25633, 13.83434 ], [ 109.25617, 13.83617 ], [ 109.25579, 13.83791 ], [ 109.2554, 13.83936 ], [ 109.25522, 13.84008 ], [ 109.25488, 13.84184 ], [ 109.25456, 13.84347 ], [ 109.25458, 13.84496 ], [ 109.25457, 13.84533 ], [ 109.25409, 13.8477 ], [ 109.25379, 13.84851 ], [ 109.25381, 13.84929 ], [ 109.25361, 13.85028 ], [ 109.25352, 13.85092 ], [ 109.25325, 13.85141 ], [ 109.25314, 13.85218 ], [ 109.25295, 13.85236 ], [ 109.25275, 13.85256 ], [ 109.25246, 13.85311 ], [ 109.25248, 13.85405 ], [ 109.25302, 13.85494 ], [ 109.25245, 13.85687 ], [ 109.25225, 13.85776 ], [ 109.25203, 13.859 ], [ 109.25186, 13.86083 ], [ 109.25148, 13.86319 ], [ 109.25136, 13.86407 ], [ 109.25117, 13.8646 ], [ 109.25044, 13.86477 ], [ 109.24996, 13.86501 ], [ 109.2496, 13.86537 ], [ 109.24933, 13.86591 ], [ 109.24907, 13.86713 ], [ 109.24899, 13.86792 ], [ 109.24888, 13.86782 ], [ 109.2479, 13.86559 ], [ 109.24759, 13.86439 ], [ 109.24797, 13.86335 ], [ 109.24811, 13.86294 ], [ 109.2482, 13.86294 ], [ 109.2482, 13.86285 ], [ 109.24845, 13.86278 ], [ 109.24879, 13.86249 ], [ 109.249, 13.86119 ], [ 109.24905, 13.86069 ], [ 109.24905, 13.8606 ], [ 109.24914, 13.8606 ], [ 109.24914, 13.86051 ], [ 109.24922, 13.86013 ], [ 109.25172, 13.85428 ], [ 109.2524, 13.8519 ], [ 109.25305, 13.84992 ], [ 109.2531, 13.8484 ], [ 109.25291, 13.84699 ], [ 109.25245, 13.8444 ], [ 109.25228, 13.84322 ], [ 109.2521, 13.84205 ], [ 109.25206, 13.84164 ], [ 109.25212, 13.84159 ], [ 109.2525, 13.83957 ], [ 109.25277, 13.83853 ], [ 109.25313, 13.83722 ], [ 109.2534, 13.83595 ], [ 109.25355, 13.83421 ], [ 109.25353, 13.83271 ], [ 109.25373, 13.82927 ], [ 109.25387, 13.8285 ], [ 109.25425, 13.8264 ], [ 109.25428, 13.82527 ], [ 109.25409, 13.8241 ], [ 109.25426, 13.82304 ], [ 109.25437, 13.82272 ], [ 109.2545, 13.82237 ], [ 109.25395, 13.82219 ], [ 109.25323, 13.82184 ], [ 109.25244, 13.82129 ], [ 109.25162, 13.82045 ], [ 109.24767, 13.81972 ], [ 109.24081, 13.81847 ], [ 109.24002, 13.81833 ], [ 109.23961, 13.81753 ], [ 109.23777, 13.81782 ], [ 109.23734, 13.81786 ], [ 109.23729, 13.8178 ], [ 109.2329, 13.81697 ], [ 109.22925, 13.81629 ], [ 109.22865, 13.81775 ], [ 109.22823, 13.81829 ], [ 109.22744, 13.81914 ], [ 109.22554, 13.81908 ], [ 109.22494, 13.81895 ], [ 109.22393, 13.81841 ], [ 109.22317, 13.81733 ], [ 109.22311, 13.81712 ] ] ], [ [ [ 109.26456, 13.8707 ], [ 109.264, 13.87047 ], [ 109.26448, 13.86781 ], [ 109.26454, 13.86776 ], [ 109.26458, 13.86781 ], [ 109.26694, 13.86823 ], [ 109.26775, 13.86851 ], [ 109.26734, 13.86909 ], [ 109.26714, 13.86949 ], [ 109.26716, 13.87069 ], [ 109.26623, 13.87053 ], [ 109.26537, 13.87043 ], [ 109.26456, 13.8707 ] ] ], [ [ [ 109.27344, 13.87086 ], [ 109.27423, 13.87114 ], [ 109.27331, 13.87147 ], [ 109.27269, 13.87194 ], [ 109.27247, 13.87166 ], [ 109.27291, 13.87132 ], [ 109.27324, 13.87093 ], [ 109.27339, 13.87081 ], [ 109.27344, 13.87086 ] ] ], [ [ [ 109.29481, 13.85616 ], [ 109.29487, 13.85631 ], [ 109.29487, 13.8564 ], [ 109.29462, 13.85643 ], [ 109.29456, 13.85691 ], [ 109.29434, 13.85733 ], [ 109.29431, 13.85749 ], [ 109.29425, 13.85752 ], [ 109.29417, 13.85844 ], [ 109.29402, 13.85917 ], [ 109.29387, 13.85951 ], [ 109.29383, 13.85974 ], [ 109.29372, 13.85982 ], [ 109.29364, 13.86028 ], [ 109.29359, 13.86042 ], [ 109.29341, 13.86074 ], [ 109.29386, 13.86095 ], [ 109.29368, 13.86105 ], [ 109.29348, 13.86114 ], [ 109.29349, 13.86141 ], [ 109.29319, 13.86179 ], [ 109.29333, 13.8623 ], [ 109.29325, 13.86344 ], [ 109.29338, 13.86358 ], [ 109.29352, 13.86363 ], [ 109.29348, 13.86367 ], [ 109.29337, 13.86414 ], [ 109.29351, 13.8648 ], [ 109.29325, 13.86495 ], [ 109.29305, 13.86517 ], [ 109.29324, 13.86533 ], [ 109.29282, 13.86584 ], [ 109.29272, 13.86638 ], [ 109.29253, 13.86671 ], [ 109.29243, 13.86764 ], [ 109.29224, 13.86865 ], [ 109.29214, 13.8699 ], [ 109.29234, 13.87123 ], [ 109.29259, 13.87134 ], [ 109.29267, 13.8715 ], [ 109.29217, 13.87191 ], [ 109.29233, 13.8722 ], [ 109.29198, 13.87274 ], [ 109.29147, 13.8726 ], [ 109.29082, 13.87251 ], [ 109.2907, 13.87131 ], [ 109.29037, 13.87052 ], [ 109.29029, 13.87002 ], [ 109.29067, 13.86881 ], [ 109.29078, 13.86504 ], [ 109.29049, 13.86425 ], [ 109.29053, 13.86377 ], [ 109.29098, 13.86255 ], [ 109.29109, 13.86127 ], [ 109.2907, 13.86036 ], [ 109.29091, 13.8598 ], [ 109.29101, 13.85902 ], [ 109.29125, 13.8586 ], [ 109.29144, 13.8582 ], [ 109.29139, 13.85719 ], [ 109.291, 13.85648 ], [ 109.29141, 13.85629 ], [ 109.29186, 13.85606 ], [ 109.29235, 13.85541 ], [ 109.29252, 13.85471 ], [ 109.29299, 13.85431 ], [ 109.29332, 13.85386 ], [ 109.29383, 13.85406 ], [ 109.29417, 13.85387 ], [ 109.29443, 13.85421 ], [ 109.29421, 13.85456 ], [ 109.29429, 13.85513 ], [ 109.29476, 13.85507 ], [ 109.29492, 13.85528 ], [ 109.29456, 13.85606 ], [ 109.29499, 13.85576 ], [ 109.2951, 13.85594 ], [ 109.29481, 13.85616 ] ] ], [ [ [ 109.25792, 13.87542 ], [ 109.25634, 13.87469 ], [ 109.25545, 13.8747 ], [ 109.25463, 13.87511 ], [ 109.25497, 13.87262 ], [ 109.25522, 13.87081 ], [ 109.2559, 13.86567 ], [ 109.25605, 13.86458 ], [ 109.25619, 13.86377 ], [ 109.25696, 13.85953 ], [ 109.25706, 13.85899 ], [ 109.25783, 13.85474 ], [ 109.25835, 13.85191 ], [ 109.25916, 13.84671 ], [ 109.25961, 13.84667 ], [ 109.25965, 13.84671 ], [ 109.25978, 13.84684 ], [ 109.25905, 13.85132 ], [ 109.25906, 13.85215 ], [ 109.25934, 13.8527 ], [ 109.25971, 13.85305 ], [ 109.26029, 13.85333 ], [ 109.26119, 13.85332 ], [ 109.26188, 13.85298 ], [ 109.26244, 13.85216 ], [ 109.26323, 13.84745 ], [ 109.26415, 13.84747 ], [ 109.2635, 13.85094 ], [ 109.26293, 13.85406 ], [ 109.26199, 13.85907 ], [ 109.26143, 13.86227 ], [ 109.26117, 13.86371 ], [ 109.26031, 13.86382 ], [ 109.25977, 13.86408 ], [ 109.25941, 13.86444 ], [ 109.25913, 13.865 ], [ 109.25914, 13.86588 ], [ 109.25943, 13.86644 ], [ 109.2598, 13.86679 ], [ 109.26055, 13.86716 ], [ 109.25972, 13.86713 ], [ 109.25904, 13.86668 ], [ 109.25863, 13.86648 ], [ 109.25773, 13.86649 ], [ 109.25707, 13.86682 ], [ 109.25662, 13.8674 ], [ 109.25644, 13.86813 ], [ 109.25662, 13.86885 ], [ 109.25718, 13.86966 ], [ 109.25797, 13.87025 ], [ 109.25985, 13.87059 ], [ 109.25983, 13.87113 ], [ 109.25965, 13.8713 ], [ 109.25856, 13.8715 ], [ 109.25796, 13.8718 ], [ 109.25749, 13.8724 ], [ 109.25733, 13.87316 ], [ 109.25769, 13.87435 ], [ 109.25792, 13.87542 ] ] ], [ [ [ 109.28682, 13.87093 ], [ 109.28708, 13.87182 ], [ 109.2864, 13.87244 ], [ 109.28604, 13.87312 ], [ 109.28587, 13.87394 ], [ 109.28507, 13.87507 ], [ 109.28497, 13.87545 ], [ 109.28485, 13.87602 ], [ 109.28367, 13.87645 ], [ 109.28352, 13.87485 ], [ 109.28337, 13.87408 ], [ 109.28264, 13.87242 ], [ 109.28141, 13.87095 ], [ 109.28032, 13.87022 ], [ 109.2767, 13.86847 ], [ 109.27661, 13.86762 ], [ 109.27643, 13.86674 ], [ 109.27659, 13.86638 ], [ 109.27718, 13.86573 ], [ 109.27752, 13.86528 ], [ 109.27842, 13.86514 ], [ 109.27921, 13.86458 ], [ 109.27964, 13.86378 ], [ 109.27979, 13.86321 ], [ 109.2806, 13.86296 ], [ 109.28105, 13.86255 ], [ 109.28148, 13.86212 ], [ 109.282, 13.86225 ], [ 109.28303, 13.86224 ], [ 109.28375, 13.86243 ], [ 109.28462, 13.8623 ], [ 109.2855, 13.86175 ], [ 109.28609, 13.86127 ], [ 109.28642, 13.86123 ], [ 109.28652, 13.86133 ], [ 109.28747, 13.86147 ], [ 109.28748, 13.8619 ], [ 109.28727, 13.86239 ], [ 109.28709, 13.86292 ], [ 109.28663, 13.86378 ], [ 109.2866, 13.86484 ], [ 109.2868, 13.86525 ], [ 109.28708, 13.86579 ], [ 109.28716, 13.86733 ], [ 109.2873, 13.86789 ], [ 109.28687, 13.8693 ], [ 109.28682, 13.87093 ] ], [ [ 109.28228, 13.86504 ], [ 109.282, 13.86529 ], [ 109.28135, 13.86626 ], [ 109.28034, 13.86716 ], [ 109.28206, 13.86807 ], [ 109.28318, 13.86888 ], [ 109.284, 13.86976 ], [ 109.28412, 13.86903 ], [ 109.28441, 13.86783 ], [ 109.2843, 13.8665 ], [ 109.28402, 13.86578 ], [ 109.28385, 13.86514 ], [ 109.2832, 13.86505 ], [ 109.28315, 13.865 ], [ 109.28228, 13.86504 ] ] ], [ [ [ 109.29818, 13.87705 ], [ 109.29799, 13.87735 ], [ 109.29804, 13.87766 ], [ 109.29767, 13.87794 ], [ 109.29763, 13.87738 ], [ 109.29749, 13.87703 ], [ 109.29802, 13.87692 ], [ 109.29818, 13.87705 ] ] ], [ [ [ 109.29461, 13.88542 ], [ 109.29425, 13.88556 ], [ 109.29392, 13.88559 ], [ 109.29384, 13.88404 ], [ 109.29352, 13.88314 ], [ 109.29436, 13.88282 ], [ 109.2947, 13.88252 ], [ 109.29516, 13.88191 ], [ 109.29596, 13.88135 ], [ 109.29622, 13.88087 ], [ 109.2964, 13.88032 ], [ 109.29679, 13.87979 ], [ 109.29697, 13.87942 ], [ 109.29747, 13.87871 ], [ 109.29767, 13.87812 ], [ 109.29782, 13.87816 ], [ 109.29798, 13.87836 ], [ 109.2978, 13.87879 ], [ 109.29771, 13.8797 ], [ 109.29759, 13.88031 ], [ 109.29721, 13.88081 ], [ 109.29729, 13.88141 ], [ 109.29719, 13.88206 ], [ 109.29701, 13.88235 ], [ 109.29707, 13.88276 ], [ 109.29666, 13.8833 ], [ 109.29652, 13.88377 ], [ 109.29662, 13.88443 ], [ 109.29625, 13.88457 ], [ 109.29632, 13.88504 ], [ 109.29647, 13.88529 ], [ 109.29631, 13.88547 ], [ 109.29603, 13.8851 ], [ 109.29583, 13.88513 ], [ 109.29554, 13.88529 ], [ 109.29536, 13.88527 ], [ 109.29525, 13.88539 ], [ 109.29503, 13.88536 ], [ 109.29461, 13.88542 ] ] ], [ [ [ 109.29404, 13.88585 ], [ 109.2939, 13.88617 ], [ 109.29382, 13.88604 ], [ 109.29388, 13.88592 ], [ 109.29392, 13.88577 ], [ 109.29404, 13.88585 ] ] ], [ [ [ 109.29228, 13.89077 ], [ 109.2926, 13.89099 ], [ 109.29267, 13.89128 ], [ 109.29253, 13.89131 ], [ 109.29218, 13.89145 ], [ 109.29143, 13.89159 ], [ 109.29036, 13.89162 ], [ 109.2903, 13.89159 ], [ 109.29023, 13.89138 ], [ 109.29042, 13.89095 ], [ 109.29088, 13.88919 ], [ 109.29108, 13.88906 ], [ 109.29112, 13.88892 ], [ 109.29156, 13.88881 ], [ 109.2919, 13.8886 ], [ 109.29204, 13.88856 ], [ 109.29208, 13.88889 ], [ 109.2923, 13.88897 ], [ 109.29217, 13.88905 ], [ 109.29209, 13.88929 ], [ 109.29228, 13.88942 ], [ 109.29223, 13.88964 ], [ 109.29191, 13.88957 ], [ 109.29201, 13.89 ], [ 109.29219, 13.89044 ], [ 109.29235, 13.89041 ], [ 109.29251, 13.89044 ], [ 109.29228, 13.89077 ] ] ], [ [ [ 109.26471, 13.88751 ], [ 109.26545, 13.88774 ], [ 109.26647, 13.88853 ], [ 109.26753, 13.88948 ], [ 109.26719, 13.88978 ], [ 109.26692, 13.89007 ], [ 109.26662, 13.89081 ], [ 109.26611, 13.89117 ], [ 109.2658, 13.8915 ], [ 109.26549, 13.89227 ], [ 109.26529, 13.89263 ], [ 109.26399, 13.89153 ], [ 109.26339, 13.8907 ], [ 109.2629, 13.88965 ], [ 109.26275, 13.88869 ], [ 109.26277, 13.88845 ], [ 109.26301, 13.88781 ], [ 109.2637, 13.8875 ], [ 109.26467, 13.88747 ], [ 109.26471, 13.88751 ] ] ], [ [ [ 109.25672, 13.88145 ], [ 109.25649, 13.88297 ], [ 109.256, 13.88333 ], [ 109.25557, 13.88376 ], [ 109.25528, 13.88432 ], [ 109.2553, 13.88553 ], [ 109.25515, 13.88581 ], [ 109.25499, 13.88613 ], [ 109.255, 13.8871 ], [ 109.25529, 13.88765 ], [ 109.25575, 13.88809 ], [ 109.25669, 13.88846 ], [ 109.25636, 13.89034 ], [ 109.25598, 13.89275 ], [ 109.25593, 13.89328 ], [ 109.25204, 13.89325 ], [ 109.25209, 13.89302 ], [ 109.25247, 13.89149 ], [ 109.25279, 13.89013 ], [ 109.25301, 13.88865 ], [ 109.25364, 13.88226 ], [ 109.25393, 13.88156 ], [ 109.25413, 13.88108 ], [ 109.25474, 13.88129 ], [ 109.25515, 13.88139 ], [ 109.25588, 13.88121 ], [ 109.25672, 13.88145 ] ] ], [ [ [ 109.26819, 13.89906 ], [ 109.26754, 13.89981 ], [ 109.26639, 13.90126 ], [ 109.26549, 13.9013 ], [ 109.26616, 13.90058 ], [ 109.26737, 13.89963 ], [ 109.26784, 13.899 ], [ 109.26819, 13.89906 ] ] ] ] } },
{ "type": "Feature", "properties": { "OBJECTID": 4, "gridcode": 5, "Shape_Length": 139709.73481590382, "Shape_Area": 49353438.878697671 }, "geometry": { "type": "MultiPolygon", "coordinates": [ [ [ [ 109.29323, 13.85359 ], [ 109.29326, 13.85348 ], [ 109.29334, 13.85356 ], [ 109.29323, 13.85359 ] ] ], [ [ [ 109.29323, 13.85359 ], [ 109.29329, 13.85371 ], [ 109.29332, 13.85386 ], [ 109.29299, 13.85431 ], [ 109.29252, 13.85471 ], [ 109.29235, 13.85541 ], [ 109.29186, 13.85606 ], [ 109.29141, 13.85629 ], [ 109.291, 13.85648 ], [ 109.29139, 13.85719 ], [ 109.29144, 13.8582 ], [ 109.29125, 13.8586 ], [ 109.29101, 13.85902 ], [ 109.29091, 13.8598 ], [ 109.2907, 13.86036 ], [ 109.29109, 13.86127 ], [ 109.29098, 13.86255 ], [ 109.29053, 13.86377 ], [ 109.29049, 13.86425 ], [ 109.29078, 13.86504 ], [ 109.29067, 13.86881 ], [ 109.29029, 13.87002 ], [ 109.29037, 13.87052 ], [ 109.2907, 13.87131 ], [ 109.29082, 13.87251 ], [ 109.29147, 13.8726 ], [ 109.29198, 13.87274 ], [ 109.29211, 13.87317 ], [ 109.2928, 13.87494 ], [ 109.29347, 13.87636 ], [ 109.2938, 13.87685 ], [ 109.29486, 13.8781 ], [ 109.29546, 13.8778 ], [ 109.29563, 13.87815 ], [ 109.29569, 13.87796 ], [ 109.29568, 13.87761 ], [ 109.29602, 13.8775 ], [ 109.29624, 13.87761 ], [ 109.29661, 13.87734 ], [ 109.29713, 13.87718 ], [ 109.29749, 13.87703 ], [ 109.29763, 13.87738 ], [ 109.29767, 13.87794 ], [ 109.29767, 13.87812 ], [ 109.29747, 13.87871 ], [ 109.29697, 13.87942 ], [ 109.29679, 13.87979 ], [ 109.2964, 13.88032 ], [ 109.29622, 13.88087 ], [ 109.29596, 13.88135 ], [ 109.29516, 13.88191 ], [ 109.2947, 13.88252 ], [ 109.29436, 13.88282 ], [ 109.29352, 13.88314 ], [ 109.29384, 13.88404 ], [ 109.29392, 13.88559 ], [ 109.29392, 13.88577 ], [ 109.29388, 13.88592 ], [ 109.29382, 13.88604 ], [ 109.29284, 13.88596 ], [ 109.29244, 13.8861 ], [ 109.2925, 13.88695 ], [ 109.29232, 13.88775 ], [ 109.29209, 13.88806 ], [ 109.29204, 13.88856 ], [ 109.2919, 13.8886 ], [ 109.29156, 13.88881 ], [ 109.29112, 13.88892 ], [ 109.29107, 13.88887 ], [ 109.29092, 13.88811 ], [ 109.2897, 13.88726 ], [ 109.28848, 13.88668 ], [ 109.28744, 13.88647 ], [ 109.28594, 13.88649 ], [ 109.28417, 13.88683 ], [ 109.28257, 13.8873 ], [ 109.27968, 13.88857 ], [ 109.27695, 13.89035 ], [ 109.27428, 13.89265 ], [ 109.27194, 13.895 ], [ 109.2694, 13.89763 ], [ 109.26819, 13.89906 ], [ 109.26784, 13.899 ], [ 109.26737, 13.89963 ], [ 109.26616, 13.90058 ], [ 109.26549, 13.9013 ], [ 109.25966, 13.90162 ], [ 109.25853, 13.89831 ], [ 109.25843, 13.89804 ], [ 109.2568, 13.89322 ], [ 109.25593, 13.89328 ], [ 109.25598, 13.89275 ], [ 109.25636, 13.89034 ], [ 109.25669, 13.88846 ], [ 109.25575, 13.88809 ], [ 109.25529, 13.88765 ], [ 109.255, 13.8871 ], [ 109.25499, 13.88613 ], [ 109.25515, 13.88581 ], [ 109.2553, 13.88553 ], [ 109.25528, 13.88432 ], [ 109.25557, 13.88376 ], [ 109.256, 13.88333 ], [ 109.25649, 13.88297 ], [ 109.25672, 13.88145 ], [ 109.25588, 13.88121 ], [ 109.25515, 13.88139 ], [ 109.25474, 13.88129 ], [ 109.25413, 13.88108 ], [ 109.25393, 13.88156 ], [ 109.25364, 13.88226 ], [ 109.25301, 13.88865 ], [ 109.25279, 13.89013 ], [ 109.25247, 13.89149 ], [ 109.25209, 13.89302 ], [ 109.25204, 13.89325 ], [ 109.25176, 13.8933 ], [ 109.25088, 13.89328 ], [ 109.2504, 13.89329 ], [ 109.24987, 13.89346 ], [ 109.24891, 13.89354 ], [ 109.24865, 13.89246 ], [ 109.24849, 13.89164 ], [ 109.24834, 13.8912 ], [ 109.24803, 13.8911 ], [ 109.24783, 13.89048 ], [ 109.24748, 13.89037 ], [ 109.24707, 13.88941 ], [ 109.24629, 13.88928 ], [ 109.2462, 13.88882 ], [ 109.24639, 13.88865 ], [ 109.24658, 13.88765 ], [ 109.24681, 13.88644 ], [ 109.24725, 13.88468 ], [ 109.24735, 13.88395 ], [ 109.24746, 13.88311 ], [ 109.24744, 13.88127 ], [ 109.2477, 13.88078 ], [ 109.24766, 13.87763 ], [ 109.24768, 13.87691 ], [ 109.24879, 13.87509 ], [ 109.2489, 13.87456 ], [ 109.24911, 13.87387 ], [ 109.24968, 13.87139 ], [ 109.24967, 13.8701 ], [ 109.24939, 13.86902 ], [ 109.24904, 13.86815 ], [ 109.24899, 13.86792 ], [ 109.24907, 13.86713 ], [ 109.24933, 13.86591 ], [ 109.2496, 13.86537 ], [ 109.24996, 13.86501 ], [ 109.25044, 13.86477 ], [ 109.25117, 13.8646 ], [ 109.25136, 13.86407 ], [ 109.25148, 13.86319 ], [ 109.25186, 13.86083 ], [ 109.25203, 13.859 ], [ 109.25225, 13.85776 ], [ 109.25245, 13.85687 ], [ 109.25302, 13.85494 ], [ 109.25248, 13.85405 ], [ 109.25246, 13.85311 ], [ 109.25275, 13.85256 ], [ 109.25295, 13.85236 ], [ 109.25314, 13.85218 ], [ 109.25325, 13.85141 ], [ 109.25352, 13.85092 ], [ 109.25361, 13.85028 ], [ 109.25381, 13.84929 ], [ 109.25379, 13.84851 ], [ 109.25409, 13.8477 ], [ 109.25457, 13.84533 ], [ 109.25458, 13.84496 ], [ 109.25456, 13.84347 ], [ 109.25488, 13.84184 ], [ 109.25522, 13.84008 ], [ 109.2554, 13.83936 ], [ 109.25579, 13.83791 ], [ 109.25617, 13.83617 ], [ 109.25633, 13.83434 ], [ 109.25631, 13.83281 ], [ 109.2565, 13.82947 ], [ 109.25664, 13.8287 ], [ 109.25697, 13.82686 ], [ 109.25719, 13.82516 ], [ 109.25686, 13.82421 ], [ 109.25702, 13.82342 ], [ 109.25741, 13.82291 ], [ 109.25798, 13.8225 ], [ 109.25779, 13.82167 ], [ 109.25708, 13.8205 ], [ 109.25689, 13.81985 ], [ 109.2568, 13.81948 ], [ 109.25626, 13.81975 ], [ 109.25518, 13.81977 ], [ 109.25461, 13.81949 ], [ 109.25402, 13.81906 ], [ 109.25365, 13.81845 ], [ 109.25345, 13.81803 ], [ 109.25182, 13.81773 ], [ 109.24822, 13.81707 ], [ 109.24, 13.81557 ], [ 109.2335, 13.81433 ], [ 109.22855, 13.81341 ], [ 109.22818, 13.8134 ], [ 109.22762, 13.81377 ], [ 109.22705, 13.81403 ], [ 109.22623, 13.81644 ], [ 109.2256, 13.81707 ], [ 109.22502, 13.81736 ], [ 109.2237, 13.81738 ], [ 109.22311, 13.81712 ], [ 109.22311, 13.81703 ], [ 109.22301, 13.81703 ], [ 109.22297, 13.81698 ], [ 109.22181, 13.8153 ], [ 109.21975, 13.81251 ], [ 109.21869, 13.81157 ], [ 109.21811, 13.81138 ], [ 109.21679, 13.81125 ], [ 109.2154, 13.81147 ], [ 109.21472, 13.81181 ], [ 109.21459, 13.81236 ], [ 109.21471, 13.81408 ], [ 109.21441, 13.81428 ], [ 109.21471, 13.81444 ], [ 109.21445, 13.81536 ], [ 109.21409, 13.81603 ], [ 109.2139, 13.8162 ], [ 109.21339, 13.81644 ], [ 109.2116, 13.81627 ], [ 109.21045, 13.81617 ], [ 109.20876, 13.81635 ], [ 109.20679, 13.81669 ], [ 109.20638, 13.81667 ], [ 109.20552, 13.81638 ], [ 109.20381, 13.81454 ], [ 109.20322, 13.81407 ], [ 109.20139, 13.81255 ], [ 109.20015, 13.81215 ], [ 109.19964, 13.81232 ], [ 109.19951, 13.81321 ], [ 109.19987, 13.81391 ], [ 109.20003, 13.81473 ], [ 109.19977, 13.81544 ], [ 109.19956, 13.81633 ], [ 109.19936, 13.81707 ], [ 109.19881, 13.81742 ], [ 109.19785, 13.81761 ], [ 109.19461, 13.81723 ], [ 109.1927, 13.81712 ], [ 109.1917, 13.81732 ], [ 109.19036, 13.81789 ], [ 109.18956, 13.81855 ], [ 109.18676, 13.82219 ], [ 109.18547, 13.82339 ], [ 109.18288, 13.82436 ], [ 109.18141, 13.82448 ], [ 109.18005, 13.82474 ], [ 109.17938, 13.8249 ], [ 109.17868, 13.82513 ], [ 109.17817, 13.82546 ], [ 109.17802, 13.82673 ], [ 109.17765, 13.82743 ], [ 109.177, 13.82803 ], [ 109.1765, 13.8283 ], [ 109.17608, 13.82669 ], [ 109.17612, 13.82523 ], [ 109.1757, 13.82445 ], [ 109.17584, 13.82435 ], [ 109.17597, 13.82351 ], [ 109.17642, 13.82289 ], [ 109.17704, 13.82254 ], [ 109.17799, 13.82243 ], [ 109.17791, 13.82176 ], [ 109.17806, 13.82064 ], [ 109.17785, 13.82058 ], [ 109.17785, 13.82049 ], [ 109.17776, 13.82049 ], [ 109.17696, 13.81879 ], [ 109.17899, 13.81859 ], [ 109.17966, 13.81807 ], [ 109.17977, 13.81766 ], [ 109.17988, 13.81567 ], [ 109.18003, 13.81473 ], [ 109.18023, 13.8134 ], [ 109.18059, 13.81201 ], [ 109.18137, 13.81041 ], [ 109.18224, 13.80757 ], [ 109.18282, 13.807 ], [ 109.18512, 13.80516 ], [ 109.18547, 13.80467 ], [ 109.18615, 13.8034 ], [ 109.18701, 13.80156 ], [ 109.18713, 13.79966 ], [ 109.18821, 13.79648 ], [ 109.18873, 13.79585 ], [ 109.18957, 13.79496 ], [ 109.18945, 13.7941 ], [ 109.18976, 13.79351 ], [ 109.18946, 13.79322 ], [ 109.19212, 13.79111 ], [ 109.1935, 13.79004 ], [ 109.19411, 13.78985 ], [ 109.195, 13.78948 ], [ 109.19621, 13.78909 ], [ 109.19962, 13.78808 ], [ 109.20113, 13.78767 ], [ 109.20416, 13.78693 ], [ 109.20456, 13.78693 ], [ 109.20548, 13.78816 ], [ 109.20614, 13.78884 ], [ 109.2072, 13.78976 ], [ 109.20849, 13.79008 ], [ 109.20903, 13.79043 ], [ 109.20921, 13.79215 ], [ 109.21023, 13.79378 ], [ 109.21134, 13.7948 ], [ 109.21282, 13.79571 ], [ 109.21339, 13.79646 ], [ 109.21377, 13.79702 ], [ 109.21498, 13.79837 ], [ 109.21531, 13.79886 ], [ 109.21569, 13.80002 ], [ 109.21618, 13.80035 ], [ 109.21825, 13.80065 ], [ 109.21847, 13.80086 ], [ 109.21873, 13.80194 ], [ 109.21926, 13.8023 ], [ 109.22151, 13.80327 ], [ 109.22227, 13.80292 ], [ 109.2228, 13.80261 ], [ 109.22294, 13.80257 ], [ 109.22298, 13.80288 ], [ 109.22326, 13.80624 ], [ 109.2235, 13.80722 ], [ 109.2244, 13.80847 ], [ 109.22458, 13.80867 ], [ 109.22513, 13.80904 ], [ 109.22578, 13.8093 ], [ 109.22635, 13.80942 ], [ 109.22692, 13.80951 ], [ 109.2276, 13.80974 ], [ 109.22931, 13.81007 ], [ 109.23367, 13.81089 ], [ 109.23531, 13.8112 ], [ 109.24079, 13.81224 ], [ 109.24806, 13.81357 ], [ 109.24818, 13.81208 ], [ 109.24865, 13.81114 ], [ 109.2491, 13.81057 ], [ 109.24963, 13.80988 ], [ 109.25, 13.80951 ], [ 109.25072, 13.80916 ], [ 109.25163, 13.80904 ], [ 109.25198, 13.80888 ], [ 109.25301, 13.80821 ], [ 109.25391, 13.80799 ], [ 109.25471, 13.80814 ], [ 109.25534, 13.8086 ], [ 109.25567, 13.80925 ], [ 109.25569, 13.81013 ], [ 109.2554, 13.81069 ], [ 109.25513, 13.81096 ], [ 109.25452, 13.8114 ], [ 109.25423, 13.81194 ], [ 109.25407, 13.81279 ], [ 109.25408, 13.81355 ], [ 109.25406, 13.81441 ], [ 109.2554, 13.81439 ], [ 109.256, 13.8146 ], [ 109.25687, 13.81459 ], [ 109.25755, 13.81481 ], [ 109.25818, 13.81519 ], [ 109.25873, 13.81469 ], [ 109.25841, 13.81409 ], [ 109.2584, 13.81325 ], [ 109.25874, 13.81246 ], [ 109.25934, 13.80925 ], [ 109.25968, 13.8088 ], [ 109.26022, 13.80831 ], [ 109.26067, 13.80786 ], [ 109.26124, 13.8075 ], [ 109.26138, 13.80657 ], [ 109.26187, 13.80594 ], [ 109.26253, 13.80561 ], [ 109.26352, 13.8056 ], [ 109.26428, 13.80596 ], [ 109.26474, 13.8064 ], [ 109.26503, 13.80696 ], [ 109.26504, 13.80743 ], [ 109.26502, 13.80806 ], [ 109.2653, 13.80886 ], [ 109.2652, 13.80942 ], [ 109.26509, 13.80983 ], [ 109.26511, 13.8115 ], [ 109.26418, 13.81686 ], [ 109.26531, 13.81706 ], [ 109.26581, 13.8144 ], [ 109.26654, 13.81057 ], [ 109.26702, 13.80995 ], [ 109.26768, 13.80962 ], [ 109.26858, 13.80961 ], [ 109.26916, 13.80989 ], [ 109.26952, 13.81024 ], [ 109.26981, 13.81079 ], [ 109.26983, 13.81198 ], [ 109.26923, 13.81515 ], [ 109.26872, 13.81785 ], [ 109.26962, 13.81803 ], [ 109.27018, 13.81485 ], [ 109.26988, 13.81399 ], [ 109.26999, 13.81269 ], [ 109.27024, 13.81149 ], [ 109.27057, 13.81106 ], [ 109.27095, 13.81071 ], [ 109.27165, 13.8069 ], [ 109.27081, 13.80755 ], [ 109.27004, 13.80774 ], [ 109.2693, 13.80756 ], [ 109.2687, 13.80712 ], [ 109.26837, 13.80648 ], [ 109.26835, 13.80551 ], [ 109.2686, 13.80503 ], [ 109.26921, 13.80424 ], [ 109.26896, 13.80356 ], [ 109.26739, 13.80134 ], [ 109.26738, 13.80035 ], [ 109.26766, 13.79979 ], [ 109.26802, 13.79942 ], [ 109.26859, 13.79914 ], [ 109.26949, 13.79913 ], [ 109.27006, 13.79941 ], [ 109.27059, 13.79991 ], [ 109.27114, 13.80065 ], [ 109.27168, 13.80131 ], [ 109.27197, 13.8019 ], [ 109.27242, 13.80269 ], [ 109.27253, 13.80225 ], [ 109.27201, 13.80141 ], [ 109.272, 13.80047 ], [ 109.27228, 13.79991 ], [ 109.27264, 13.79955 ], [ 109.27321, 13.79927 ], [ 109.27412, 13.79925 ], [ 109.27469, 13.79953 ], [ 109.27499, 13.79982 ], [ 109.27526, 13.80009 ], [ 109.27607, 13.80063 ], [ 109.27663, 13.80144 ], [ 109.27665, 13.80259 ], [ 109.27635, 13.80341 ], [ 109.27582, 13.80633 ], [ 109.27761, 13.80661 ], [ 109.27772, 13.80463 ], [ 109.27782, 13.80391 ], [ 109.27799, 13.80111 ], [ 109.27826, 13.80034 ], [ 109.27869, 13.79885 ], [ 109.27907, 13.79761 ], [ 109.27909, 13.79666 ], [ 109.27883, 13.79441 ], [ 109.27712, 13.79443 ], [ 109.27567, 13.79377 ], [ 109.27463, 13.79347 ], [ 109.27345, 13.7929 ], [ 109.27224, 13.79207 ], [ 109.2719, 13.79141 ], [ 109.27189, 13.79061 ], [ 109.27219, 13.78978 ], [ 109.27219, 13.78968 ], [ 109.27217, 13.78807 ], [ 109.27254, 13.7867 ], [ 109.27268, 13.78579 ], [ 109.27285, 13.78437 ], [ 109.27328, 13.78249 ], [ 109.27355, 13.7811 ], [ 109.2741, 13.77885 ], [ 109.27245, 13.77574 ], [ 109.27229, 13.77558 ], [ 109.27177, 13.77508 ], [ 109.2712, 13.77414 ], [ 109.27102, 13.77342 ], [ 109.27112, 13.77204 ], [ 109.27125, 13.7705 ], [ 109.27105, 13.76927 ], [ 109.27115, 13.76725 ], [ 109.27153, 13.76523 ], [ 109.27154, 13.76493 ], [ 109.27142, 13.76443 ], [ 109.27034, 13.76324 ], [ 109.26999, 13.76256 ], [ 109.26997, 13.76168 ], [ 109.27026, 13.76112 ], [ 109.27062, 13.76076 ], [ 109.27119, 13.76048 ], [ 109.27209, 13.76047 ], [ 109.2724, 13.76062 ], [ 109.27287, 13.76085 ], [ 109.2731, 13.76062 ], [ 109.27438, 13.76124 ], [ 109.2769, 13.76203 ], [ 109.27852, 13.76233 ], [ 109.28111, 13.76225 ], [ 109.28234, 13.76167 ], [ 109.2828, 13.76133 ], [ 109.28302, 13.76153 ], [ 109.28321, 13.76225 ], [ 109.283, 13.76333 ], [ 109.28261, 13.76435 ], [ 109.28191, 13.76555 ], [ 109.28107, 13.7665 ], [ 109.28075, 13.77076 ], [ 109.28064, 13.77202 ], [ 109.28053, 13.77446 ], [ 109.28027, 13.77524 ], [ 109.27978, 13.7759 ], [ 109.27938, 13.7764 ], [ 109.2784, 13.77803 ], [ 109.27805, 13.77868 ], [ 109.27767, 13.77963 ], [ 109.2774, 13.78061 ], [ 109.27718, 13.78159 ], [ 109.27686, 13.7832 ], [ 109.27641, 13.78522 ], [ 109.27623, 13.78679 ], [ 109.27601, 13.78784 ], [ 109.27574, 13.78883 ], [ 109.27588, 13.79025 ], [ 109.27692, 13.79058 ], [ 109.27783, 13.79099 ], [ 109.27893, 13.7909 ], [ 109.27923, 13.79017 ], [ 109.27949, 13.7899 ], [ 109.27978, 13.78965 ], [ 109.28017, 13.78885 ], [ 109.28071, 13.788 ], [ 109.28235, 13.7851 ], [ 109.28288, 13.7839 ], [ 109.28324, 13.78343 ], [ 109.28384, 13.78275 ], [ 109.28494, 13.7805 ], [ 109.28535, 13.77954 ], [ 109.28503, 13.77895 ], [ 109.285, 13.77809 ], [ 109.28529, 13.77751 ], [ 109.28564, 13.77715 ], [ 109.28597, 13.77698 ], [ 109.28647, 13.77675 ], [ 109.28663, 13.77516 ], [ 109.28709, 13.77336 ], [ 109.28744, 13.77284 ], [ 109.2878, 13.77238 ], [ 109.28703, 13.77062 ], [ 109.28649, 13.76941 ], [ 109.28658, 13.76872 ], [ 109.28687, 13.76782 ], [ 109.28697, 13.76664 ], [ 109.28728, 13.76529 ], [ 109.28708, 13.76433 ], [ 109.28718, 13.7633 ], [ 109.28728, 13.76294 ], [ 109.2874, 13.76185 ], [ 109.2879, 13.7612 ], [ 109.2885, 13.7609 ], [ 109.28891, 13.76083 ], [ 109.28905, 13.76106 ], [ 109.28942, 13.76142 ], [ 109.28939, 13.76231 ], [ 109.28977, 13.7628 ], [ 109.28944, 13.7634 ], [ 109.28958, 13.76397 ], [ 109.28981, 13.7644 ], [ 109.29085, 13.76568 ], [ 109.2914, 13.7662 ], [ 109.29317, 13.76715 ], [ 109.29316, 13.76769 ], [ 109.29221, 13.76813 ], [ 109.29175, 13.76859 ], [ 109.29127, 13.76955 ], [ 109.29129, 13.77084 ], [ 109.29147, 13.7714 ], [ 109.29249, 13.77211 ], [ 109.29295, 13.77211 ], [ 109.2935, 13.77174 ], [ 109.29368, 13.77139 ], [ 109.29388, 13.77139 ], [ 109.29405, 13.77177 ], [ 109.29386, 13.77229 ], [ 109.29373, 13.77282 ], [ 109.29325, 13.77257 ], [ 109.29312, 13.77283 ], [ 109.29296, 13.77298 ], [ 109.29349, 13.77319 ], [ 109.29358, 13.77365 ], [ 109.29379, 13.77375 ], [ 109.29371, 13.77396 ], [ 109.29321, 13.77417 ], [ 109.29255, 13.77427 ], [ 109.29188, 13.77467 ], [ 109.29122, 13.7748 ], [ 109.29052, 13.77462 ], [ 109.29037, 13.77462 ], [ 109.29005, 13.77591 ], [ 109.28987, 13.77758 ], [ 109.28969, 13.77841 ], [ 109.2909, 13.77852 ], [ 109.29146, 13.77881 ], [ 109.29181, 13.77918 ], [ 109.29208, 13.77976 ], [ 109.29204, 13.78063 ], [ 109.29169, 13.78126 ], [ 109.29104, 13.78172 ], [ 109.28918, 13.782 ], [ 109.28815, 13.78182 ], [ 109.2875, 13.78315 ], [ 109.28683, 13.78462 ], [ 109.28597, 13.78555 ], [ 109.28534, 13.78684 ], [ 109.28375, 13.78965 ], [ 109.28319, 13.79053 ], [ 109.28269, 13.79259 ], [ 109.28235, 13.79442 ], [ 109.28264, 13.79707 ], [ 109.28248, 13.79838 ], [ 109.2821, 13.7996 ], [ 109.28177, 13.80077 ], [ 109.2814, 13.80199 ], [ 109.28124, 13.80457 ], [ 109.2823, 13.80454 ], [ 109.28331, 13.80469 ], [ 109.28398, 13.80446 ], [ 109.28485, 13.8045 ], [ 109.28563, 13.805 ], [ 109.28562, 13.80518 ], [ 109.28572, 13.80518 ], [ 109.28577, 13.80554 ], [ 109.28575, 13.80568 ], [ 109.28589, 13.80615 ], [ 109.28598, 13.80672 ], [ 109.28589, 13.80679 ], [ 109.2857, 13.80756 ], [ 109.28607, 13.80763 ], [ 109.28607, 13.80772 ], [ 109.28616, 13.80772 ], [ 109.2861, 13.80855 ], [ 109.2862, 13.80913 ], [ 109.2868, 13.80951 ], [ 109.28698, 13.80971 ], [ 109.28685, 13.81007 ], [ 109.28581, 13.81122 ], [ 109.28528, 13.8116 ], [ 109.28561, 13.81325 ], [ 109.2857, 13.81418 ], [ 109.28605, 13.81451 ], [ 109.28638, 13.81496 ], [ 109.28653, 13.81592 ], [ 109.28651, 13.81682 ], [ 109.28621, 13.81737 ], [ 109.28575, 13.8178 ], [ 109.28459, 13.81816 ], [ 109.28371, 13.81814 ], [ 109.2831, 13.81783 ], [ 109.28224, 13.81684 ], [ 109.28195, 13.81624 ], [ 109.28179, 13.81543 ], [ 109.27989, 13.81509 ], [ 109.27811, 13.81475 ], [ 109.2744, 13.81411 ], [ 109.27352, 13.81893 ], [ 109.28431, 13.82142 ], [ 109.28484, 13.82169 ], [ 109.28538, 13.82224 ], [ 109.28572, 13.82331 ], [ 109.28625, 13.82369 ], [ 109.2867, 13.8243 ], [ 109.28682, 13.82541 ], [ 109.28663, 13.82611 ], [ 109.2869, 13.82637 ], [ 109.28727, 13.82693 ], [ 109.28746, 13.82711 ], [ 109.28765, 13.82731 ], [ 109.28793, 13.82788 ], [ 109.2879, 13.82876 ], [ 109.28756, 13.8294 ], [ 109.28691, 13.82986 ], [ 109.28604, 13.82999 ], [ 109.28556, 13.83028 ], [ 109.28496, 13.83055 ], [ 109.28454, 13.83164 ], [ 109.28432, 13.83271 ], [ 109.28397, 13.83586 ], [ 109.28377, 13.83667 ], [ 109.28347, 13.83878 ], [ 109.28319, 13.83995 ], [ 109.28276, 13.84076 ], [ 109.28215, 13.84119 ], [ 109.2814, 13.84135 ], [ 109.28009, 13.84115 ], [ 109.2794, 13.84098 ], [ 109.27866, 13.84083 ], [ 109.27769, 13.84074 ], [ 109.27766, 13.84063 ], [ 109.27757, 13.84071 ], [ 109.27769, 13.84074 ], [ 109.27784, 13.84129 ], [ 109.27781, 13.84207 ], [ 109.27747, 13.84271 ], [ 109.27682, 13.84317 ], [ 109.27593, 13.8433 ], [ 109.27475, 13.84309 ], [ 109.26921, 13.84206 ], [ 109.26829, 13.84654 ], [ 109.26775, 13.84982 ], [ 109.26722, 13.85294 ], [ 109.26671, 13.85544 ], [ 109.26591, 13.85962 ], [ 109.26512, 13.86424 ], [ 109.26655, 13.86438 ], [ 109.2676, 13.86454 ], [ 109.26785, 13.86358 ], [ 109.2689, 13.85952 ], [ 109.26907, 13.85887 ], [ 109.26962, 13.85698 ], [ 109.26991, 13.85643 ], [ 109.27055, 13.85597 ], [ 109.27136, 13.85574 ], [ 109.27283, 13.85594 ], [ 109.27356, 13.85631 ], [ 109.27413, 13.85707 ], [ 109.27433, 13.85813 ], [ 109.27447, 13.86025 ], [ 109.27431, 13.86365 ], [ 109.27461, 13.86322 ], [ 109.27502, 13.86263 ], [ 109.27601, 13.86201 ], [ 109.27624, 13.86156 ], [ 109.27641, 13.86124 ], [ 109.27714, 13.86056 ], [ 109.27774, 13.86028 ], [ 109.27875, 13.8599 ], [ 109.27945, 13.85934 ], [ 109.28001, 13.85877 ], [ 109.28, 13.85797 ], [ 109.28002, 13.85744 ], [ 109.27992, 13.85707 ], [ 109.27984, 13.85552 ], [ 109.28029, 13.85448 ], [ 109.28008, 13.85409 ], [ 109.27992, 13.85376 ], [ 109.27996, 13.85244 ], [ 109.28028, 13.85185 ], [ 109.28116, 13.85084 ], [ 109.28131, 13.84931 ], [ 109.2817, 13.84839 ], [ 109.28187, 13.84695 ], [ 109.28234, 13.84621 ], [ 109.28286, 13.84572 ], [ 109.28334, 13.84507 ], [ 109.28362, 13.84471 ], [ 109.28406, 13.84415 ], [ 109.28426, 13.84374 ], [ 109.28376, 13.843 ], [ 109.28352, 13.84228 ], [ 109.28356, 13.84087 ], [ 109.28413, 13.83962 ], [ 109.28468, 13.8387 ], [ 109.28574, 13.83756 ], [ 109.28686, 13.83666 ], [ 109.28775, 13.83625 ], [ 109.28793, 13.83607 ], [ 109.28805, 13.83458 ], [ 109.28844, 13.83387 ], [ 109.28894, 13.8334 ], [ 109.28908, 13.83264 ], [ 109.28928, 13.83196 ], [ 109.28967, 13.83125 ], [ 109.29036, 13.8306 ], [ 109.29048, 13.83046 ], [ 109.29011, 13.82976 ], [ 109.2899, 13.82931 ], [ 109.28995, 13.82748 ], [ 109.29026, 13.8269 ], [ 109.2909, 13.82631 ], [ 109.29148, 13.82604 ], [ 109.29238, 13.82606 ], [ 109.29311, 13.82644 ], [ 109.29373, 13.82726 ], [ 109.29428, 13.82767 ], [ 109.29486, 13.82827 ], [ 109.29514, 13.82884 ], [ 109.29511, 13.82998 ], [ 109.29474, 13.83066 ], [ 109.29392, 13.83125 ], [ 109.29343, 13.83222 ], [ 109.29313, 13.83279 ], [ 109.29249, 13.83338 ], [ 109.29227, 13.83469 ], [ 109.29164, 13.83564 ], [ 109.29153, 13.83694 ], [ 109.29098, 13.83771 ], [ 109.29069, 13.83845 ], [ 109.29043, 13.83894 ], [ 109.2896, 13.83946 ], [ 109.28867, 13.83961 ], [ 109.28771, 13.84041 ], [ 109.2871, 13.8414 ], [ 109.28767, 13.84223 ], [ 109.2878, 13.84306 ], [ 109.2876, 13.84468 ], [ 109.2873, 13.8455 ], [ 109.28651, 13.84662 ], [ 109.28601, 13.84726 ], [ 109.28565, 13.84778 ], [ 109.28526, 13.84825 ], [ 109.28515, 13.84946 ], [ 109.2847, 13.8503 ], [ 109.28459, 13.85142 ], [ 109.2844, 13.85214 ], [ 109.28371, 13.85323 ], [ 109.28384, 13.85384 ], [ 109.28392, 13.85449 ], [ 109.28365, 13.85549 ], [ 109.28475, 13.8552 ], [ 109.28521, 13.85512 ], [ 109.28642, 13.85476 ], [ 109.28716, 13.85468 ], [ 109.28749, 13.85457 ], [ 109.28873, 13.85382 ], [ 109.28897, 13.85311 ], [ 109.28912, 13.8527 ], [ 109.28933, 13.85104 ], [ 109.28962, 13.85049 ], [ 109.29026, 13.84989 ], [ 109.29084, 13.84963 ], [ 109.29174, 13.84965 ], [ 109.29245, 13.85001 ], [ 109.29269, 13.85042 ], [ 109.29265, 13.85065 ], [ 109.29247, 13.85128 ], [ 109.29234, 13.85248 ], [ 109.29252, 13.85309 ], [ 109.29281, 13.85327 ], [ 109.29294, 13.85354 ], [ 109.29323, 13.85359 ] ], [ [ 109.28485, 13.87602 ], [ 109.28497, 13.87545 ], [ 109.28507, 13.87507 ], [ 109.28587, 13.87394 ], [ 109.28604, 13.87312 ], [ 109.2864, 13.87244 ], [ 109.28708, 13.87182 ], [ 109.28682, 13.87093 ], [ 109.28687, 13.8693 ], [ 109.2873, 13.86789 ], [ 109.28716, 13.86733 ], [ 109.28708, 13.86579 ], [ 109.2868, 13.86525 ], [ 109.2866, 13.86484 ], [ 109.28663, 13.86378 ], [ 109.28709, 13.86292 ], [ 109.28727, 13.86239 ], [ 109.28748, 13.8619 ], [ 109.28747, 13.86147 ], [ 109.28652, 13.86133 ], [ 109.28642, 13.86123 ], [ 109.28609, 13.86127 ], [ 109.2855, 13.86175 ], [ 109.28462, 13.8623 ], [ 109.28375, 13.86243 ], [ 109.28303, 13.86224 ], [ 109.282, 13.86225 ], [ 109.28148, 13.86212 ], [ 109.28105, 13.86255 ], [ 109.2806, 13.86296 ], [ 109.27979, 13.86321 ], [ 109.27964, 13.86378 ], [ 109.27921, 13.86458 ], [ 109.27842, 13.86514 ], [ 109.27752, 13.86528 ], [ 109.27718, 13.86573 ], [ 109.27659, 13.86638 ], [ 109.27643, 13.86674 ], [ 109.27661, 13.86762 ], [ 109.2767, 13.86847 ], [ 109.28032, 13.87022 ], [ 109.28141, 13.87095 ], [ 109.28264, 13.87242 ], [ 109.28337, 13.87408 ], [ 109.28352, 13.87485 ], [ 109.28367, 13.87645 ], [ 109.28485, 13.87602 ] ], [ [ 109.2598, 13.86679 ], [ 109.25943, 13.86644 ], [ 109.25914, 13.86588 ], [ 109.25913, 13.865 ], [ 109.25941, 13.86444 ], [ 109.25977, 13.86408 ], [ 109.26031, 13.86382 ], [ 109.26117, 13.86371 ], [ 109.26143, 13.86227 ], [ 109.26199, 13.85907 ], [ 109.26293, 13.85406 ], [ 109.2635, 13.85094 ], [ 109.26415, 13.84747 ], [ 109.26323, 13.84745 ], [ 109.26244, 13.85216 ], [ 109.26188, 13.85298 ], [ 109.26119, 13.85332 ], [ 109.26029, 13.85333 ], [ 109.25971, 13.85305 ], [ 109.25934, 13.8527 ], [ 109.25906, 13.85215 ], [ 109.25905, 13.85132 ], [ 109.25978, 13.84684 ], [ 109.25965, 13.84671 ], [ 109.25961, 13.84667 ], [ 109.25916, 13.84671 ], [ 109.25835, 13.85191 ], [ 109.25783, 13.85474 ], [ 109.25706, 13.85899 ], [ 109.25696, 13.85953 ], [ 109.25619, 13.86377 ], [ 109.25605, 13.86458 ], [ 109.2559, 13.86567 ], [ 109.25522, 13.87081 ], [ 109.25497, 13.87262 ], [ 109.25463, 13.87511 ], [ 109.25545, 13.8747 ], [ 109.25634, 13.87469 ], [ 109.25792, 13.87542 ], [ 109.25769, 13.87435 ], [ 109.25733, 13.87316 ], [ 109.25749, 13.8724 ], [ 109.25796, 13.8718 ], [ 109.25856, 13.8715 ], [ 109.25965, 13.8713 ], [ 109.25983, 13.87113 ], [ 109.25985, 13.87059 ], [ 109.25797, 13.87025 ], [ 109.25718, 13.86966 ], [ 109.25662, 13.86885 ], [ 109.25644, 13.86813 ], [ 109.25662, 13.8674 ], [ 109.25707, 13.86682 ], [ 109.25773, 13.86649 ], [ 109.25863, 13.86648 ], [ 109.25904, 13.86668 ], [ 109.25972, 13.86713 ], [ 109.26055, 13.86716 ], [ 109.2598, 13.86679 ] ], [ [ 109.27324, 13.87093 ], [ 109.27291, 13.87132 ], [ 109.27247, 13.87166 ], [ 109.27269, 13.87194 ], [ 109.27331, 13.87147 ], [ 109.27423, 13.87114 ], [ 109.27344, 13.87086 ], [ 109.27339, 13.87081 ], [ 109.27324, 13.87093 ] ], [ [ 109.26448, 13.86781 ], [ 109.264, 13.87047 ], [ 109.26456, 13.8707 ], [ 109.26537, 13.87043 ], [ 109.26623, 13.87053 ], [ 109.26716, 13.87069 ], [ 109.26714, 13.86949 ], [ 109.26734, 13.86909 ], [ 109.26775, 13.86851 ], [ 109.26694, 13.86823 ], [ 109.26458, 13.86781 ], [ 109.26454, 13.86776 ], [ 109.26448, 13.86781 ] ], [ [ 109.26549, 13.89227 ], [ 109.2658, 13.8915 ], [ 109.26611, 13.89117 ], [ 109.26662, 13.89081 ], [ 109.26692, 13.89007 ], [ 109.26719, 13.88978 ], [ 109.26753, 13.88948 ], [ 109.26647, 13.88853 ], [ 109.26545, 13.88774 ], [ 109.26471, 13.88751 ], [ 109.26467, 13.88747 ], [ 109.2637, 13.8875 ], [ 109.26301, 13.88781 ], [ 109.26277, 13.88845 ], [ 109.26275, 13.88869 ], [ 109.2629, 13.88965 ], [ 109.26339, 13.8907 ], [ 109.26399, 13.89153 ], [ 109.26529, 13.89263 ], [ 109.26549, 13.89227 ] ], [ [ 109.25999, 13.84126 ], [ 109.25969, 13.84327 ], [ 109.26042, 13.8433 ], [ 109.26074, 13.84158 ], [ 109.26017, 13.84122 ], [ 109.26011, 13.84116 ], [ 109.25999, 13.84126 ] ], [ [ 109.27566, 13.83973 ], [ 109.27569, 13.83984 ], [ 109.27577, 13.83976 ], [ 109.27566, 13.83973 ], [ 109.27544, 13.83892 ], [ 109.27553, 13.83815 ], [ 109.27582, 13.83642 ], [ 109.27473, 13.83622 ], [ 109.27411, 13.8395 ], [ 109.27515, 13.83968 ], [ 109.27566, 13.83973 ] ], [ [ 109.26617, 13.83648 ], [ 109.26592, 13.83637 ], [ 109.26588, 13.83632 ], [ 109.26527, 13.83635 ], [ 109.26497, 13.83787 ], [ 109.2659, 13.83802 ], [ 109.26617, 13.83648 ] ], [ [ 109.27992, 13.83361 ], [ 109.2806, 13.83367 ], [ 109.28079, 13.83173 ], [ 109.28048, 13.83159 ], [ 109.28044, 13.83154 ], [ 109.28027, 13.83159 ], [ 109.27992, 13.83361 ] ], [ [ 109.27705, 13.82971 ], [ 109.27633, 13.82957 ], [ 109.27629, 13.82952 ], [ 109.27596, 13.82956 ], [ 109.27537, 13.83277 ], [ 109.27649, 13.83294 ], [ 109.27705, 13.82971 ] ], [ [ 109.27253, 13.82893 ], [ 109.27218, 13.82882 ], [ 109.27213, 13.82877 ], [ 109.27169, 13.82882 ], [ 109.27148, 13.82962 ], [ 109.27101, 13.83204 ], [ 109.27194, 13.83208 ], [ 109.27253, 13.82893 ] ], [ [ 109.2677, 13.82805 ], [ 109.267, 13.82787 ], [ 109.26696, 13.82783 ], [ 109.26683, 13.82795 ], [ 109.26625, 13.83111 ], [ 109.26714, 13.83126 ], [ 109.2677, 13.82805 ] ], [ [ 109.2634, 13.82731 ], [ 109.26322, 13.82721 ], [ 109.26275, 13.82712 ], [ 109.26271, 13.82707 ], [ 109.26231, 13.82713 ], [ 109.26175, 13.83034 ], [ 109.26283, 13.83039 ], [ 109.2634, 13.82731 ] ], [ [ 109.28112, 13.82696 ], [ 109.28236, 13.82719 ], [ 109.28251, 13.82614 ], [ 109.28231, 13.82479 ], [ 109.28164, 13.82464 ], [ 109.2816, 13.82459 ], [ 109.28152, 13.82465 ], [ 109.28112, 13.82696 ] ], [ [ 109.27811, 13.82385 ], [ 109.27749, 13.8237 ], [ 109.27744, 13.82365 ], [ 109.27705, 13.8237 ], [ 109.27659, 13.82616 ], [ 109.27768, 13.82633 ], [ 109.27811, 13.82385 ] ], [ [ 109.27365, 13.82287 ], [ 109.27333, 13.82277 ], [ 109.27329, 13.82272 ], [ 109.2728, 13.82277 ], [ 109.2723, 13.82541 ], [ 109.27316, 13.8255 ], [ 109.27365, 13.82287 ] ], [ [ 109.26888, 13.82182 ], [ 109.26835, 13.82165 ], [ 109.2683, 13.8216 ], [ 109.26799, 13.82166 ], [ 109.26745, 13.82449 ], [ 109.26835, 13.82465 ], [ 109.26888, 13.82182 ] ], [ [ 109.26459, 13.82081 ], [ 109.26382, 13.82062 ], [ 109.26378, 13.82057 ], [ 109.26349, 13.82063 ], [ 109.26294, 13.82368 ], [ 109.26401, 13.82387 ], [ 109.26459, 13.82081 ] ], [ [ 109.19382, 13.81085 ], [ 109.19464, 13.81031 ], [ 109.19546, 13.81019 ], [ 109.19648, 13.80929 ], [ 109.19718, 13.80881 ], [ 109.19696, 13.80797 ], [ 109.19713, 13.80725 ], [ 109.19758, 13.80665 ], [ 109.19805, 13.80642 ], [ 109.19919, 13.80603 ], [ 109.1993, 13.80501 ], [ 109.19961, 13.80446 ], [ 109.19933, 13.8035 ], [ 109.19926, 13.80312 ], [ 109.19916, 13.8032 ], [ 109.19894, 13.80344 ], [ 109.19859, 13.80375 ], [ 109.19825, 13.80419 ], [ 109.198, 13.80442 ], [ 109.1977, 13.80515 ], [ 109.19722, 13.80564 ], [ 109.19678, 13.80587 ], [ 109.19341, 13.807 ], [ 109.1928, 13.80709 ], [ 109.19283, 13.80802 ], [ 109.19266, 13.80836 ], [ 109.19246, 13.80871 ], [ 109.19208, 13.80948 ], [ 109.19181, 13.80977 ], [ 109.19134, 13.8101 ], [ 109.19117, 13.81114 ], [ 109.19161, 13.81116 ], [ 109.19231, 13.81114 ], [ 109.19296, 13.81117 ], [ 109.19382, 13.81085 ] ], [ [ 109.20935, 13.80875 ], [ 109.20957, 13.80902 ], [ 109.20998, 13.80889 ], [ 109.2098, 13.80876 ], [ 109.20976, 13.80871 ], [ 109.20935, 13.80875 ] ], [ [ 109.18346, 13.81312 ], [ 109.18397, 13.81299 ], [ 109.18454, 13.81291 ], [ 109.18425, 13.81255 ], [ 109.18386, 13.812 ], [ 109.18369, 13.81217 ], [ 109.18361, 13.81254 ], [ 109.1835, 13.81289 ], [ 109.18346, 13.81312 ], [ 109.18335, 13.81315 ], [ 109.18343, 13.81323 ], [ 109.18346, 13.81312 ] ], [ [ 109.21942, 13.80272 ], [ 109.21931, 13.80275 ], [ 109.21939, 13.80283 ], [ 109.21942, 13.80272 ], [ 109.21954, 13.80269 ], [ 109.21946, 13.80261 ], [ 109.21942, 13.80272 ] ], [ [ 109.19781, 13.79792 ], [ 109.19796, 13.7986 ], [ 109.19817, 13.79844 ], [ 109.19801, 13.79787 ], [ 109.19781, 13.79792 ] ], [ [ 109.2751, 13.80977 ], [ 109.27508, 13.81076 ], [ 109.27887, 13.81142 ], [ 109.28182, 13.81197 ], [ 109.28157, 13.81146 ], [ 109.28112, 13.81099 ], [ 109.28091, 13.81089 ], [ 109.27978, 13.81048 ], [ 109.27889, 13.80988 ], [ 109.27807, 13.81014 ], [ 109.27691, 13.80998 ], [ 109.27574, 13.80977 ], [ 109.27569, 13.80972 ], [ 109.2751, 13.80977 ] ], [ [ 109.27617, 13.76987 ], [ 109.27606, 13.7699 ], [ 109.27614, 13.76998 ], [ 109.27617, 13.76987 ], [ 109.27668, 13.76973 ], [ 109.27733, 13.76964 ], [ 109.27724, 13.76918 ], [ 109.27631, 13.76908 ], [ 109.27617, 13.76987 ] ] ] ] } }
]
}
